{"type":"FeatureCollection","features":[{"type":"Feature","geometry":{"type":"Polygon","coordinates":[[[128.862203,37.744948],[128.862485,37.744958],[128.862897,37.745087],[128.863156,37.745013],[128.863598,37.745008],[128.86401,37.745138],[128.864184,37.745248],[128.864435,37.745537],[128.864503,37.745706],[128.864528,37.745881],[128.864509,37.746057],[128.864448,37.746227],[128.864346,37.746384],[128.864207,37.746522],[128.863843,37.746722],[128.86341,37.746795],[128.863011,37.74674],[128.862638,37.746864],[128.862195,37.74687],[128.861784,37.74674],[128.86161,37.74663],[128.861388,37.746396],[128.861106,37.746386],[128.860694,37.746257],[128.86052,37.746147],[128.860377,37.746012],[128.860269,37.745857],[128.860201,37.745689],[128.860176,37.745513],[128.860195,37.745337],[128.860256,37.745167],[128.860358,37.74501],[128.860497,37.744872],[128.860667,37.744758],[128.861074,37.744619],[128.861516,37.744614],[128.861928,37.744744],[128.862203,37.744948]]]},"properties":{"id":"37412","year":"2017","acc":4,"dth":0,"se":1,"sl":12,"cause":"기타"}},{"type":"Feature","geometry":{"type":"Polygon","coordinates":[[[128.868144,37.745093],[128.868445,37.745147],[128.868816,37.745338],[128.869068,37.745628],[128.869135,37.745796],[128.86916,37.745972],[128.869142,37.746148],[128.86908,37.746317],[128.868978,37.746474],[128.86884,37.746613],[128.868475,37.746812],[128.868042,37.746886],[128.86782,37.746871],[128.867407,37.74674],[128.867145,37.74677],[128.866923,37.746755],[128.866709,37.746707],[128.866433,37.746576],[128.866158,37.746566],[128.865944,37.746517],[128.865572,37.746326],[128.865429,37.746191],[128.865321,37.746037],[128.865253,37.745868],[128.865228,37.745693],[128.865247,37.745517],[128.865308,37.745347],[128.86541,37.74519],[128.865549,37.745052],[128.865913,37.744852],[128.866355,37.744779],[128.866654,37.744624],[128.867087,37.74455],[128.867522,37.744614],[128.867894,37.744805],[128.868144,37.745093]]]},"properties":{"id":"37413","year":"2017","acc":4,"dth":0,"se":0,"sl":6,"cause":"기타"}},{"type":"Feature","geometry":{"type":"Polygon","coordinates":[[[128.881482,37.746801],[128.881984,37.746927],[128.882356,37.747118],[128.882607,37.747407],[128.882675,37.747576],[128.8827,37.747751],[128.882681,37.747927],[128.88262,37.748097],[128.882518,37.748254],[128.882379,37.748392],[128.882198,37.748515],[128.882004,37.748601],[128.881571,37.748675],[128.881349,37.74866],[128.881038,37.748572],[128.880815,37.74863],[128.880372,37.748635],[128.880159,37.748587],[128.879787,37.748396],[128.879535,37.748106],[128.879468,37.747938],[128.879443,37.747762],[128.879461,37.747586],[128.879523,37.747416],[128.879625,37.747259],[128.879763,37.747121],[128.879933,37.747007],[128.88034,37.746868],[128.880561,37.746848],[128.880808,37.746869],[128.88126,37.746787],[128.881482,37.746801]]]},"properties":{"id":"37414","year":"2017","acc":4,"dth":1,"se":1,"sl":4,"cause":"기타"}},{"type":"Feature","geometry":{"type":"Polygon","coordinates":[[[128.88845,37.74766],[128.888713,37.747712],[128.889045,37.747878],[128.889442,37.748004],[128.889616,37.748114],[128.889867,37.748404],[128.889935,37.748572],[128.88996,37.748747],[128.889942,37.748923],[128.88988,37.749093],[128.889778,37.74925],[128.88964,37.749388],[128.88947,37.749502],[128.889275,37.749588],[128.888842,37.749662],[128.888335,37.749634],[128.888121,37.749585],[128.887681,37.749433],[128.887449,37.749269],[128.887182,37.749258],[128.88677,37.749129],[128.886596,37.749019],[128.886345,37.748729],[128.886277,37.748561],[128.886252,37.748385],[128.88627,37.748209],[128.886355,37.747946],[128.886417,37.747776],[128.886519,37.747619],[128.886827,37.747367],[128.887234,37.747228],[128.887676,37.747222],[128.888088,37.747352],[128.888262,37.747462],[128.88845,37.74766]]]},"properties":{"id":"37415","year":"2017","acc":6,"dth":0,"se":1,"sl":11,"cause":"기타"}},{"type":"Feature","geometry":{"type":"Polygon","coordinates":[[[128.892592,37.750635],[128.892896,37.750871],[128.893004,37.751025],[128.893071,37.751193],[128.893097,37.751369],[128.893078,37.751545],[128.893017,37.751715],[128.892915,37.751872],[128.892776,37.75201],[128.892412,37.75221],[128.8922,37.752264],[128.891979,37.752283],[128.891543,37.75222],[128.891171,37.752029],[128.891028,37.751894],[128.890899,37.751687],[128.890526,37.7514],[128.890418,37.751245],[128.89035,37.751077],[128.890325,37.750902],[128.890344,37.750505],[128.890405,37.750335],[128.890507,37.750178],[128.890816,37.749926],[128.891222,37.749786],[128.891665,37.749781],[128.892077,37.749911],[128.892394,37.750156],[128.892502,37.75031],[128.89257,37.750478],[128.892592,37.750635]]]},"properties":{"id":"37416","year":"2017","acc":4,"dth":0,"se":2,"sl":6,"cause":"기타"}},{"type":"Feature","geometry":{"type":"Polygon","coordinates":[[[128.878835,37.750955],[128.879425,37.751262],[128.879569,37.751397],[128.879676,37.751551],[128.879744,37.75172],[128.879769,37.751895],[128.879751,37.752071],[128.879689,37.752241],[128.879587,37.752398],[128.879449,37.752536],[128.879084,37.752736],[128.87851,37.752875],[128.878289,37.752895],[128.877854,37.752831],[128.877656,37.752751],[128.877338,37.752506],[128.877196,37.752278],[128.877129,37.752109],[128.877104,37.751934],[128.877122,37.751758],[128.877183,37.751588],[128.877285,37.751431],[128.877424,37.751293],[128.877772,37.75105],[128.878179,37.750911],[128.878621,37.750906],[128.878835,37.750955]]]},"properties":{"id":"37417","year":"2017","acc":4,"dth":0,"se":4,"sl":7,"cause":"기타 / 안전거리미확보"}},{"type":"Feature","geometry":{"type":"Polygon","coordinates":[[[128.88232,37.753785],[128.882754,37.754055],[128.883079,37.754383],[128.883187,37.754538],[128.883255,37.754706],[128.88328,37.754881],[128.883261,37.755058],[128.8832,37.755227],[128.883098,37.755384],[128.882959,37.755523],[128.882595,37.755722],[128.882383,37.755776],[128.881749,37.755793],[128.881313,37.755729],[128.881115,37.755648],[128.880797,37.755403],[128.88069,37.755249],[128.880622,37.75508],[128.880569,37.754555],[128.880587,37.754379],[128.880649,37.754209],[128.880751,37.754052],[128.880889,37.753914],[128.881254,37.753714],[128.881687,37.75364],[128.882123,37.753704],[128.88232,37.753785]]]},"properties":{"id":"37418","year":"2017","acc":5,"dth":0,"se":2,"sl":4,"cause":"U턴중 / 기타"}},{"type":"Feature","geometry":{"type":"Polygon","coordinates":[[[128.893141,37.768261],[128.893252,37.768716],[128.893182,37.769034],[128.893242,37.769183],[128.893267,37.769359],[128.893205,37.769656],[128.893289,37.769848],[128.893314,37.770023],[128.893295,37.770199],[128.893234,37.770369],[128.893132,37.770526],[128.892723,37.770973],[128.892374,37.771225],[128.892179,37.77131],[128.891746,37.771384],[128.891524,37.771369],[128.890967,37.771217],[128.890595,37.771026],[128.890451,37.770891],[128.890343,37.770737],[128.890276,37.770569],[128.890251,37.770393],[128.890269,37.770217],[128.890331,37.770047],[128.890432,37.76989],[128.890571,37.769752],[128.890741,37.769638],[128.891018,37.769531],[128.891015,37.76921],[128.891067,37.769068],[128.891007,37.768919],[128.890964,37.768632],[128.890982,37.768456],[128.891043,37.768286],[128.891145,37.768129],[128.891284,37.767991],[128.891649,37.767791],[128.891861,37.767737],[128.892082,37.767717],[128.892517,37.767781],[128.892889,37.767972],[128.893033,37.768107],[128.893141,37.768261]]]},"properties":{"id":"37419","year":"2017","acc":10,"dth":0,"se":3,"sl":17,"cause":"기타 / 안전거리미확보"}},{"type":"Feature","geometry":{"type":"Polygon","coordinates":[[[128.821616,37.889364],[128.821568,37.889621],[128.821706,37.88989],[128.821727,37.890108],[128.821834,37.890333],[128.821859,37.890508],[128.82184,37.890684],[128.821779,37.890854],[128.821676,37.891011],[128.821538,37.891149],[128.821172,37.891349],[128.820738,37.891422],[128.820302,37.891358],[128.820104,37.891277],[128.819786,37.891032],[128.819678,37.890878],[128.819499,37.890454],[128.819457,37.890091],[128.819505,37.889834],[128.819367,37.889565],[128.819342,37.889389],[128.819361,37.889213],[128.819422,37.889043],[128.819525,37.888886],[128.819663,37.888748],[128.820029,37.888549],[128.820241,37.888495],[128.820463,37.888475],[128.820899,37.888539],[128.821271,37.88873],[128.821415,37.888865],[128.821523,37.88902],[128.821591,37.889188],[128.821616,37.889364]]]},"properties":{"id":"37420","year":"2017","acc":4,"dth":0,"se":2,"sl":12,"cause":"기타 / 안전거리미확보"}},{"type":"Feature","geometry":{"type":"Polygon","coordinates":[[[128.857186,37.812866],[128.857168,37.813042],[128.857106,37.813212],[128.857004,37.813369],[128.856731,37.813597],[128.856609,37.813816],[128.856604,37.814085],[128.856543,37.814255],[128.85644,37.814412],[128.856132,37.814664],[128.855909,37.814757],[128.855704,37.814905],[128.85551,37.814991],[128.855076,37.815065],[128.85464,37.815001],[128.854268,37.81481],[128.854124,37.814675],[128.854017,37.81452],[128.853949,37.814352],[128.853924,37.814177],[128.853942,37.814],[128.854004,37.813831],[128.854328,37.813381],[128.85453,37.8132],[128.854594,37.813003],[128.854696,37.812846],[128.854969,37.812618],[128.855097,37.81239],[128.855406,37.812138],[128.855601,37.812052],[128.856034,37.811978],[128.85647,37.812042],[128.856668,37.812123],[128.856842,37.812233],[128.856986,37.812368],[128.857094,37.812523],[128.857161,37.812691],[128.857186,37.812866]]]},"properties":{"id":"37421","year":"2017","acc":5,"dth":0,"se":0,"sl":8,"cause":"기타"}},{"type":"Feature","geometry":{"type":"Polygon","coordinates":[[[128.876264,37.770277],[128.876224,37.770514],[128.876246,37.770674],[128.876228,37.77085],[128.876166,37.77102],[128.876064,37.771177],[128.875926,37.771315],[128.875561,37.771514],[128.875128,37.771588],[128.874692,37.771525],[128.87432,37.771333],[128.874177,37.771199],[128.873849,37.77075],[128.873781,37.770582],[128.873756,37.770406],[128.873775,37.77023],[128.873836,37.77006],[128.873938,37.769903],[128.874105,37.769735],[128.874275,37.769621],[128.874679,37.769463],[128.875112,37.769389],[128.875548,37.769453],[128.87592,37.769644],[128.876063,37.769779],[128.876171,37.769933],[128.876239,37.770101],[128.876264,37.770277]]]},"properties":{"id":"37422","year":"2017","acc":6,"dth":0,"se":1,"sl":8,"cause":"기타"}},{"type":"Feature","geometry":{"type":"Polygon","coordinates":[[[128.873663,37.764301],[128.873918,37.764353],[128.874116,37.764433],[128.874359,37.764588],[128.874503,37.764723],[128.874611,37.764877],[128.874678,37.765046],[128.874704,37.765221],[128.874685,37.765397],[128.874624,37.765567],[128.874521,37.765724],[128.874383,37.765862],[128.873988,37.766109],[128.873794,37.766195],[128.873361,37.766269],[128.872925,37.766205],[128.872727,37.766124],[128.872553,37.766014],[128.872409,37.765879],[128.872302,37.765725],[128.872234,37.765556],[128.872209,37.765381],[128.872227,37.765205],[128.872289,37.765035],[128.872503,37.764697],[128.872812,37.764445],[128.873219,37.764306],[128.873663,37.764301]]]},"properties":{"id":"37423","year":"2017","acc":5,"dth":0,"se":2,"sl":8,"cause":"기타"}},{"type":"Feature","geometry":{"type":"Polygon","coordinates":[[[128.893699,37.762934],[128.893674,37.763155],[128.893612,37.763325],[128.89351,37.763482],[128.893372,37.76362],[128.893146,37.763759],[128.893006,37.76402],[128.892868,37.764158],[128.892503,37.764358],[128.892124,37.764427],[128.892433,37.764592],[128.892577,37.764727],[128.892685,37.764881],[128.892752,37.76505],[128.892777,37.765225],[128.892759,37.765401],[128.892698,37.765571],[128.892506,37.765856],[128.892367,37.765994],[128.892003,37.766194],[128.89157,37.766268],[128.891348,37.766253],[128.891054,37.766188],[128.890857,37.766107],[128.890682,37.765997],[128.890302,37.765613],[128.890195,37.765458],[128.890127,37.76529],[128.890102,37.765114],[128.89012,37.764938],[128.890182,37.764768],[128.890284,37.764611],[128.890422,37.764473],[128.890787,37.764274],[128.890999,37.76422],[128.891308,37.764206],[128.891119,37.764042],[128.891011,37.763888],[128.890943,37.763719],[128.890918,37.763544],[128.890984,37.763237],[128.890984,37.762871],[128.891046,37.762702],[128.891148,37.762545],[128.891286,37.762406],[128.891651,37.762207],[128.891863,37.762153],[128.892085,37.762133],[128.892326,37.762066],[128.892769,37.762061],[128.893181,37.762191],[128.893499,37.762436],[128.893607,37.76259],[128.893674,37.762759],[128.893699,37.762934]]]},"properties":{"id":"37424","year":"2017","acc":11,"dth":0,"se":6,"sl":23,"cause":"U턴중 / 기타"}},{"type":"Feature","geometry":{"type":"Polygon","coordinates":[[[128.891617,37.756815],[128.892205,37.756919],[128.892577,37.75711],[128.892828,37.757399],[128.892977,37.757711],[128.893002,37.757886],[128.892983,37.758062],[128.892922,37.758232],[128.89282,37.758389],[128.892681,37.758527],[128.892317,37.758727],[128.891884,37.758801],[128.891233,37.758705],[128.891035,37.758624],[128.89085,37.758503],[128.890348,37.758306],[128.890174,37.758195],[128.890031,37.758061],[128.889923,37.757906],[128.889855,37.757738],[128.88983,37.757562],[128.889848,37.757386],[128.88991,37.757216],[128.890012,37.757059],[128.89015,37.756921],[128.89032,37.756807],[128.890515,37.756722],[128.890948,37.756648],[128.891384,37.756711],[128.891617,37.756815]]]},"properties":{"id":"37425","year":"2017","acc":5,"dth":0,"se":3,"sl":5,"cause":"U턴중 / 기타"}},{"type":"Feature","geometry":{"type":"Polygon","coordinates":[[[128.894362,37.75257],[128.894808,37.752708],[128.895012,37.752846],[128.895401,37.752971],[128.895575,37.753081],[128.895775,37.753265],[128.895861,37.753388],[128.896211,37.75357],[128.896354,37.753705],[128.896523,37.754011],[128.896909,37.754134],[128.897164,37.754321],[128.897569,37.754382],[128.897767,37.754463],[128.89796,37.754591],[128.898271,37.754698],[128.898445,37.754808],[128.898686,37.755081],[128.898969,37.755236],[128.899194,37.755488],[128.899397,37.75557],[128.899616,37.755712],[128.899867,37.756002],[128.899935,37.75617],[128.89996,37.756346],[128.899941,37.756522],[128.89988,37.756691],[128.899778,37.756848],[128.89947,37.757101],[128.899275,37.757186],[128.899031,37.757243],[128.898894,37.757594],[128.898792,37.757751],[128.898532,37.75797],[128.898466,37.75818],[128.898364,37.758337],[128.898226,37.758475],[128.898056,37.758589],[128.897845,37.758679],[128.897702,37.758824],[128.897367,37.759011],[128.897202,37.759252],[128.897108,37.759524],[128.897006,37.759682],[128.896867,37.75982],[128.896503,37.760019],[128.896094,37.760149],[128.895651,37.760154],[128.895239,37.760024],[128.895054,37.759905],[128.894811,37.759629],[128.894412,37.759502],[128.894238,37.759392],[128.894094,37.759257],[128.893986,37.759103],[128.893919,37.758934],[128.893894,37.758759],[128.893912,37.758583],[128.893973,37.758413],[128.894075,37.758256],[128.894214,37.758118],[128.894579,37.757918],[128.89479,37.757864],[128.895233,37.757859],[128.895634,37.757984],[128.895739,37.757934],[128.895881,37.757667],[128.896118,37.757463],[128.896243,37.757242],[128.896551,37.756989],[128.896763,37.756899],[128.896962,37.756591],[128.897099,37.756454],[128.89707,37.756412],[128.896776,37.756253],[128.896534,37.755976],[128.896279,37.75579],[128.895874,37.755729],[128.895676,37.755648],[128.895358,37.755403],[128.895234,37.755208],[128.895011,37.755194],[128.894599,37.755064],[128.894281,37.754819],[128.894168,37.754652],[128.893973,37.754545],[128.893708,37.754493],[128.893511,37.754412],[128.893336,37.754302],[128.893085,37.754012],[128.893017,37.753844],[128.892992,37.753668],[128.893041,37.753294],[128.893102,37.753124],[128.893204,37.752967],[128.893343,37.752829],[128.893707,37.752629],[128.893919,37.752575],[128.894362,37.75257]]]},"properties":{"id":"37426","year":"2017","acc":35,"dth":0,"se":14,"sl":35,"cause":"기타"}},{"type":"Feature","geometry":{"type":"Polygon","coordinates":[[[128.893272,37.740768],[128.893254,37.740944],[128.893192,37.741114],[128.89309,37.741271],[128.892952,37.741409],[128.89262,37.741594],[128.892378,37.74178],[128.891972,37.74192],[128.891751,37.74194],[128.891482,37.741914],[128.891133,37.742104],[128.890921,37.742157],[128.890478,37.742163],[128.890067,37.742033],[128.889749,37.741788],[128.889641,37.741634],[128.889573,37.741465],[128.889548,37.74129],[128.889567,37.741114],[128.889628,37.740944],[128.889843,37.740674],[128.889913,37.740418],[128.890015,37.740261],[128.890324,37.740008],[128.89073,37.739869],[128.891173,37.739864],[128.891606,37.73999],[128.8919,37.7399],[128.892121,37.73988],[128.892556,37.739944],[128.892928,37.740135],[128.893072,37.74027],[128.89318,37.740424],[128.893247,37.740593],[128.893272,37.740768]]]},"properties":{"id":"47852","year":"2018","acc":6,"dth":0,"se":0,"sl":9,"cause":"기타 / 안전거리미확보"}},{"type":"Feature","geometry":{"type":"Polygon","coordinates":[[[128.880746,37.752793],[128.880879,37.752904],[128.881258,37.752905],[128.881472,37.752953],[128.881844,37.753144],[128.882095,37.753434],[128.882163,37.753602],[128.882188,37.753778],[128.882168,37.753957],[128.882218,37.754076],[128.882601,37.754016],[128.883036,37.75408],[128.883408,37.754271],[128.883552,37.754406],[128.88366,37.75456],[128.883727,37.754728],[128.883753,37.754904],[128.883734,37.75508],[128.883673,37.75525],[128.883571,37.755407],[128.88321,37.7558],[128.882845,37.756],[128.882412,37.756073],[128.881977,37.75601],[128.881618,37.755827],[128.881298,37.755718],[128.88098,37.755473],[128.880818,37.755184],[128.880514,37.755078],[128.880197,37.754833],[128.880089,37.754679],[128.880001,37.75437],[128.879584,37.754307],[128.879212,37.754116],[128.879,37.753883],[128.878774,37.753752],[128.87863,37.753617],[128.878522,37.753462],[128.878455,37.753294],[128.87843,37.753119],[128.878448,37.752943],[128.87851,37.752773],[128.878612,37.752616],[128.87892,37.752364],[128.879327,37.752224],[128.879661,37.752185],[128.880097,37.752248],[128.880468,37.752439],[128.880612,37.752574],[128.880746,37.752793]]]},"properties":{"id":"47853","year":"2018","acc":10,"dth":0,"se":1,"sl":13,"cause":"기타"}},{"type":"Feature","geometry":{"type":"Polygon","coordinates":[[[128.889471,37.748137],[128.889762,37.748145],[128.890173,37.748275],[128.890347,37.748385],[128.890526,37.74857],[128.89096,37.748633],[128.891158,37.748714],[128.891475,37.748959],[128.891583,37.749113],[128.891651,37.749282],[128.891676,37.749457],[128.891619,37.749738],[128.891985,37.749858],[128.892159,37.749968],[128.89241,37.750257],[128.892481,37.750445],[128.892802,37.750692],[128.89291,37.750846],[128.892984,37.751059],[128.893278,37.75129],[128.893386,37.751444],[128.893454,37.751613],[128.893479,37.751788],[128.893443,37.752013],[128.893844,37.752152],[128.894271,37.752412],[128.894461,37.752614],[128.894797,37.752726],[128.894971,37.752836],[128.895222,37.753126],[128.89529,37.753294],[128.895315,37.75347],[128.895297,37.753646],[128.895235,37.753816],[128.895134,37.753973],[128.894995,37.754111],[128.89463,37.75431],[128.894197,37.754384],[128.893976,37.75437],[128.893363,37.754244],[128.893084,37.754112],[128.89279,37.754104],[128.892576,37.754055],[128.892204,37.753864],[128.891953,37.753575],[128.891885,37.753407],[128.891875,37.753089],[128.891819,37.752835],[128.891855,37.75261],[128.891499,37.75248],[128.891325,37.75237],[128.891074,37.75208],[128.890985,37.751763],[128.890826,37.75156],[128.890755,37.751372],[128.890578,37.751261],[128.890326,37.750972],[128.890259,37.750803],[128.890234,37.750628],[128.89029,37.750346],[128.889925,37.750227],[128.889751,37.750117],[128.889572,37.749932],[128.889138,37.749869],[128.88894,37.749788],[128.888738,37.749652],[128.888371,37.74965],[128.887959,37.74952],[128.887785,37.74941],[128.887534,37.749121],[128.887466,37.748953],[128.887441,37.748777],[128.887459,37.748601],[128.887521,37.748431],[128.887623,37.748274],[128.887761,37.748136],[128.887976,37.747985],[128.888382,37.747846],[128.888825,37.747841],[128.889237,37.74797],[128.889471,37.748137]]]},"properties":{"id":"47854","year":"2018","acc":16,"dth":0,"se":3,"sl":27,"cause":"기타 / 신호위반"}},{"type":"Feature","geometry":{"type":"Polygon","coordinates":[[[128.8934,37.769949],[128.893381,37.770125],[128.89332,37.770295],[128.893141,37.770597],[128.892833,37.77085],[128.892452,37.771035],[128.892384,37.771262],[128.892282,37.771419],[128.892144,37.771557],[128.891779,37.771757],[128.891346,37.77183],[128.89091,37.771767],[128.890712,37.771686],[128.890395,37.771441],[128.890287,37.771286],[128.890219,37.771118],[128.890194,37.770943],[128.890212,37.770767],[128.890274,37.770597],[128.890376,37.77044],[128.890514,37.770302],[128.890728,37.770168],[128.890795,37.769942],[128.890897,37.769785],[128.891036,37.769646],[128.8913,37.769491],[128.89145,37.769335],[128.891815,37.769135],[128.892248,37.769062],[128.892683,37.769125],[128.892881,37.769206],[128.893055,37.769316],[128.893199,37.769451],[128.893307,37.769606],[128.893375,37.769774],[128.8934,37.769949]]]},"properties":{"id":"47855","year":"2018","acc":5,"dth":0,"se":0,"sl":10,"cause":"기타"}},{"type":"Feature","geometry":{"type":"Polygon","coordinates":[[[128.885917,37.77685],[128.886343,37.777119],[128.886487,37.777254],[128.886595,37.777409],[128.886663,37.777577],[128.886688,37.777752],[128.886669,37.777928],[128.886608,37.778098],[128.886506,37.778255],[128.886367,37.778393],[128.886132,37.778536],[128.886116,37.778692],[128.886054,37.778862],[128.885952,37.779019],[128.885814,37.779157],[128.885449,37.779357],[128.885016,37.77943],[128.88458,37.779367],[128.884208,37.779176],[128.884065,37.779041],[128.883957,37.778886],[128.883889,37.778718],[128.883864,37.778543],[128.883882,37.778367],[128.883944,37.778197],[128.884046,37.77804],[128.884222,37.777876],[128.884165,37.77762],[128.884183,37.777444],[128.884245,37.777274],[128.884347,37.777117],[128.884655,37.776865],[128.88485,37.776779],[128.885283,37.776705],[128.885719,37.776769],[128.885917,37.77685]]]},"properties":{"id":"47856","year":"2018","acc":4,"dth":0,"se":0,"sl":5,"cause":"기타"}},{"type":"Feature","geometry":{"type":"Polygon","coordinates":[[[128.874047,37.76438],[128.874434,37.764669],[128.874716,37.765047],[128.874784,37.765216],[128.874809,37.765391],[128.87479,37.765567],[128.874729,37.765737],[128.874627,37.765894],[128.874318,37.766146],[128.874124,37.766232],[128.87369,37.766305],[128.873255,37.766242],[128.872883,37.766051],[128.872496,37.765666],[128.872388,37.765512],[128.872321,37.765344],[128.872296,37.765168],[128.872314,37.764974],[128.872375,37.764804],[128.872477,37.764647],[128.872786,37.764395],[128.873193,37.764256],[128.873636,37.76425],[128.874047,37.76438]]]},"properties":{"id":"47857","year":"2018","acc":7,"dth":0,"se":1,"sl":18,"cause":"기타"}},{"type":"Feature","geometry":{"type":"Polygon","coordinates":[[[128.856073,37.813224],[128.856441,37.813657],[128.856508,37.813825],[128.856534,37.814001],[128.856515,37.814177],[128.856453,37.814346],[128.856354,37.814499],[128.856289,37.8147],[128.856187,37.814857],[128.856049,37.814995],[128.855684,37.815194],[128.85525,37.815268],[128.854814,37.815204],[128.854616,37.815123],[128.854442,37.815013],[128.8542,37.814737],[128.853986,37.814558],[128.853878,37.814403],[128.85381,37.814235],[128.853785,37.814059],[128.853804,37.813883],[128.853866,37.813713],[128.853968,37.813556],[128.854276,37.813304],[128.854832,37.813043],[128.855265,37.81297],[128.855701,37.813033],[128.856073,37.813224]]]},"properties":{"id":"47858","year":"2018","acc":4,"dth":0,"se":0,"sl":9,"cause":"기타"}},{"type":"Feature","geometry":{"type":"Polygon","coordinates":[[[128.892843,37.764503],[128.892825,37.764679],[128.892702,37.764944],[128.892872,37.765204],[128.89294,37.765372],[128.892965,37.765547],[128.892947,37.765723],[128.892885,37.765893],[128.892783,37.76605],[128.892645,37.766188],[128.892475,37.766303],[128.892068,37.766442],[128.891847,37.766462],[128.891411,37.766398],[128.891039,37.766207],[128.890896,37.766073],[128.890521,37.765597],[128.890432,37.765333],[128.890299,37.76507],[128.890274,37.764894],[128.890292,37.764718],[128.890354,37.764548],[128.890456,37.764391],[128.890639,37.764223],[128.890755,37.764027],[128.890894,37.763889],[128.891258,37.763689],[128.89147,37.763636],[128.891691,37.763616],[128.892127,37.763679],[128.892499,37.76387],[128.892643,37.764005],[128.892751,37.76416],[128.892818,37.764328],[128.892843,37.764503]]]},"properties":{"id":"47859","year":"2018","acc":7,"dth":0,"se":1,"sl":13,"cause":"기타 / 신호위반"}},{"type":"Feature","geometry":{"type":"Polygon","coordinates":[[[128.897073,37.754575],[128.897759,37.754663],[128.898135,37.754767],[128.89836,37.754864],[128.898723,37.754808],[128.898945,37.754823],[128.899159,37.754872],[128.899531,37.755063],[128.899782,37.755352],[128.89985,37.75552],[128.899875,37.755696],[128.899831,37.755942],[128.899908,37.756245],[128.899908,37.756782],[128.899846,37.756951],[128.899744,37.757108],[128.899606,37.757247],[128.899241,37.757446],[128.898808,37.75752],[128.898587,37.757505],[128.898349,37.757447],[128.898451,37.757858],[128.898433,37.758034],[128.898372,37.758204],[128.89827,37.758361],[128.898131,37.758499],[128.897927,37.758628],[128.897824,37.758789],[128.897515,37.759042],[128.89718,37.759163],[128.896886,37.759401],[128.896692,37.759486],[128.896258,37.75956],[128.895823,37.759497],[128.895451,37.759306],[128.895307,37.759171],[128.895199,37.759016],[128.895132,37.758848],[128.895107,37.758672],[128.895125,37.758496],[128.895187,37.758327],[128.895288,37.75817],[128.895427,37.758031],[128.895597,37.757917],[128.895932,37.757796],[128.896102,37.757642],[128.896115,37.757421],[128.896177,37.757251],[128.896279,37.757094],[128.896417,37.756956],[128.896782,37.756756],[128.896994,37.756703],[128.897215,37.756683],[128.897553,37.756724],[128.897277,37.756459],[128.897107,37.75638],[128.896671,37.756314],[128.896299,37.756123],[128.896156,37.755988],[128.896048,37.755834],[128.89598,37.755665],[128.895955,37.75549],[128.895973,37.755314],[128.896035,37.755144],[128.896137,37.754987],[128.896445,37.754735],[128.896852,37.754595],[128.897073,37.754575]]]},"properties":{"id":"47860","year":"2018","acc":18,"dth":1,"se":3,"sl":21,"cause":"U턴중 / 기타 / 안전거리미확보"}},{"type":"Feature","geometry":{"type":"Polygon","coordinates":[[[128.887034,37.756194],[128.887425,37.756254],[128.887622,37.756335],[128.887818,37.756466],[128.888226,37.756464],[128.88844,37.756513],[128.888665,37.756611],[128.888994,37.756564],[128.889216,37.756578],[128.889429,37.756627],[128.889748,37.756784],[128.889992,37.756666],[128.890425,37.756592],[128.89086,37.756655],[128.891111,37.75677],[128.891408,37.756679],[128.891675,37.756658],[128.89244,37.756763],[128.892812,37.756954],[128.893064,37.757243],[128.893131,37.757411],[128.893156,37.757587],[128.893138,37.757763],[128.893076,37.757933],[128.892975,37.75809],[128.892801,37.758251],[128.892686,37.758445],[128.892547,37.758583],[128.892183,37.758783],[128.89175,37.758856],[128.891314,37.758793],[128.891116,37.758712],[128.89069,37.75847],[128.890596,37.758382],[128.890237,37.758379],[128.890023,37.75833],[128.889705,37.758173],[128.889461,37.758292],[128.889028,37.758366],[128.888806,37.758351],[128.888468,37.758252],[128.888118,37.758304],[128.887442,37.758259],[128.88703,37.758129],[128.886813,37.757979],[128.886442,37.75787],[128.886051,37.757809],[128.885679,37.757618],[128.885536,37.757484],[128.885428,37.757329],[128.88536,37.757161],[128.885335,37.756985],[128.885354,37.756809],[128.885415,37.756639],[128.885517,37.756482],[128.885656,37.756344],[128.88602,37.756145],[128.886232,37.756091],[128.886675,37.756086],[128.887034,37.756194]]]},"properties":{"id":"47861","year":"2018","acc":13,"dth":0,"se":2,"sl":21,"cause":"U턴중 / 기타"}},{"type":"Feature","geometry":{"type":"Polygon","coordinates":[[[128.868154,37.745079],[128.86844,37.745234],[128.868583,37.745369],[128.868691,37.745524],[128.868759,37.745692],[128.868784,37.745868],[128.868765,37.746044],[128.868704,37.746214],[128.868602,37.746371],[128.868293,37.746623],[128.867887,37.746762],[128.867666,37.746782],[128.866956,37.746755],[128.866742,37.746706],[128.86637,37.746515],[128.866227,37.74638],[128.866119,37.746226],[128.866051,37.746057],[128.866026,37.745882],[128.866043,37.745724],[128.865974,37.745553],[128.865949,37.745378],[128.865967,37.745202],[128.866029,37.745032],[128.866131,37.744875],[128.866439,37.744623],[128.866634,37.744537],[128.867067,37.744464],[128.867502,37.744527],[128.867874,37.744718],[128.868018,37.744853],[128.868154,37.745079]]]},"properties":{"id":"59639","year":"2019","acc":4,"dth":0,"se":0,"sl":11,"cause":"기타"}},{"type":"Feature","geometry":{"type":"Polygon","coordinates":[[[128.886983,37.744925],[128.886965,37.745101],[128.886903,37.745271],[128.886801,37.745428],[128.886586,37.745617],[128.886637,37.745857],[128.886619,37.746033],[128.886557,37.746203],[128.886455,37.74636],[128.886317,37.746498],[128.886147,37.746612],[128.885952,37.746698],[128.885345,37.746838],[128.884902,37.746843],[128.884688,37.746794],[128.884316,37.746603],[128.884065,37.746314],[128.883997,37.746145],[128.883972,37.74597],[128.883996,37.745778],[128.883941,37.745529],[128.88396,37.745352],[128.884021,37.745183],[128.884123,37.745026],[128.884262,37.744887],[128.884432,37.744773],[128.884778,37.744649],[128.884895,37.744449],[128.885204,37.744197],[128.885399,37.744111],[128.885831,37.744037],[128.886267,37.744101],[128.886465,37.744182],[128.886639,37.744292],[128.88689,37.744581],[128.886958,37.744749],[128.886983,37.744925]]]},"properties":{"id":"59640","year":"2019","acc":4,"dth":0,"se":1,"sl":4,"cause":"기타"}},{"type":"Feature","geometry":{"type":"Polygon","coordinates":[[[128.893895,37.740662],[128.893876,37.740838],[128.893815,37.741007],[128.893713,37.741164],[128.893404,37.741417],[128.892998,37.741556],[128.892738,37.741573],[128.892458,37.741797],[128.892263,37.741883],[128.891831,37.741957],[128.891609,37.741942],[128.891369,37.741883],[128.891115,37.741911],[128.890643,37.741881],[128.890231,37.741752],[128.889914,37.741507],[128.889806,37.741352],[128.889738,37.741184],[128.889713,37.741008],[128.889732,37.740832],[128.889793,37.740663],[128.890049,37.740224],[128.890187,37.740086],[128.890552,37.739886],[128.890985,37.739813],[128.891206,37.739827],[128.89161,37.739954],[128.892055,37.739974],[128.89231,37.739848],[128.892522,37.739794],[128.892743,37.739774],[128.893178,37.739837],[128.89355,37.740028],[128.893694,37.740163],[128.893802,37.740318],[128.893869,37.740486],[128.893895,37.740662]]]},"properties":{"id":"59641","year":"2019","acc":11,"dth":0,"se":5,"sl":11,"cause":"기타"}},{"type":"Feature","geometry":{"type":"Polygon","coordinates":[[[128.889449,37.74817],[128.889819,37.748171],[128.890466,37.748314],[128.890604,37.748371],[128.891047,37.748434],[128.891419,37.748625],[128.89167,37.748914],[128.891738,37.749082],[128.891763,37.749258],[128.891723,37.749506],[128.891662,37.749676],[128.89156,37.749833],[128.891421,37.749971],[128.891057,37.750171],[128.890484,37.750328],[128.890041,37.750333],[128.889629,37.750204],[128.889455,37.750094],[128.889281,37.749915],[128.888998,37.749814],[128.888729,37.749615],[128.888359,37.749614],[128.887947,37.749484],[128.887773,37.749374],[128.887522,37.749085],[128.887454,37.748917],[128.887429,37.748741],[128.887447,37.748565],[128.887509,37.748395],[128.887611,37.748238],[128.887749,37.7481],[128.887919,37.747986],[128.888326,37.747847],[128.888768,37.747841],[128.88918,37.747971],[128.889449,37.74817]]]},"properties":{"id":"59642","year":"2019","acc":8,"dth":0,"se":2,"sl":11,"cause":"기타"}},{"type":"Feature","geometry":{"type":"Polygon","coordinates":[[[128.892742,37.769563],[128.893098,37.769969],[128.893166,37.770137],[128.893191,37.770312],[128.893172,37.770488],[128.893111,37.770658],[128.893009,37.770815],[128.89287,37.770953],[128.892506,37.771153],[128.892294,37.771207],[128.891936,37.771228],[128.891578,37.771206],[128.891364,37.771158],[128.890992,37.770967],[128.890849,37.770832],[128.890741,37.770677],[128.890673,37.770509],[128.890648,37.770333],[128.890666,37.770157],[128.890728,37.769988],[128.89083,37.769831],[128.891138,37.769578],[128.891501,37.769382],[128.891934,37.769309],[128.89237,37.769372],[128.892742,37.769563]]]},"properties":{"id":"59643","year":"2019","acc":4,"dth":0,"se":0,"sl":17,"cause":"기타 / 신호위반"}},{"type":"Feature","geometry":{"type":"Polygon","coordinates":[[[128.873334,37.764219],[128.873861,37.764299],[128.874059,37.76438],[128.874468,37.764696],[128.874576,37.764851],[128.874644,37.765019],[128.874669,37.765194],[128.87465,37.76537],[128.874589,37.76554],[128.874487,37.765697],[128.874348,37.765835],[128.874178,37.76595],[128.873772,37.766089],[128.873329,37.766094],[128.87291,37.766003],[128.872712,37.765922],[128.872394,37.765677],[128.872287,37.765522],[128.872219,37.765354],[128.872194,37.765178],[128.872212,37.765002],[128.872296,37.764787],[128.872398,37.76463],[128.872536,37.764492],[128.872901,37.764292],[128.873334,37.764219]]]},"properties":{"id":"59644","year":"2019","acc":7,"dth":0,"se":1,"sl":12,"cause":"기타"}},{"type":"Feature","geometry":{"type":"Polygon","coordinates":[[[128.89264,37.764305],[128.892849,37.764769],[128.892874,37.764945],[128.892856,37.765121],[128.892794,37.76529],[128.892641,37.765499],[128.892542,37.765762],[128.89244,37.765919],[128.892132,37.766171],[128.891937,37.766257],[128.891504,37.766331],[128.891068,37.766267],[128.890696,37.766076],[128.890553,37.765941],[128.890445,37.765787],[128.890377,37.765619],[128.890352,37.765443],[128.890378,37.76506],[128.890483,37.764822],[128.890481,37.7645],[128.890542,37.76433],[128.890644,37.764173],[128.890953,37.76392],[128.891148,37.763835],[128.891581,37.763761],[128.892016,37.763825],[128.892388,37.764016],[128.892532,37.764151],[128.89264,37.764305]]]},"properties":{"id":"59645","year":"2019","acc":6,"dth":0,"se":0,"sl":15,"cause":"기타"}},{"type":"Feature","geometry":{"type":"Polygon","coordinates":[[[128.899059,37.755461],[128.899767,37.755669],[128.899941,37.755779],[128.900193,37.756068],[128.900273,37.756281],[128.900298,37.756457],[128.90028,37.756633],[128.900218,37.756803],[128.900116,37.75696],[128.899978,37.757098],[128.899685,37.757331],[128.899491,37.757416],[128.899132,37.757483],[128.898985,37.757766],[128.898846,37.757905],[128.898676,37.758019],[128.898348,37.758138],[128.898129,37.7584],[128.897959,37.758514],[128.897553,37.758653],[128.897133,37.75866],[128.897175,37.758901],[128.897238,37.759057],[128.897263,37.759233],[128.897244,37.759409],[128.897129,37.759723],[128.897027,37.75988],[128.896888,37.760019],[128.896524,37.760218],[128.896141,37.760288],[128.895955,37.760498],[128.895785,37.760612],[128.895378,37.760752],[128.895157,37.760772],[128.894722,37.760708],[128.89435,37.760517],[128.894206,37.760382],[128.894098,37.760228],[128.894031,37.76006],[128.894005,37.759884],[128.894024,37.759708],[128.894085,37.759538],[128.894187,37.759381],[128.894326,37.759243],[128.894549,37.759106],[128.894414,37.758926],[128.894347,37.758758],[128.894322,37.758583],[128.89434,37.758407],[128.894402,37.758237],[128.894503,37.75808],[128.894642,37.757942],[128.895007,37.757742],[128.89544,37.757668],[128.895875,37.757732],[128.896146,37.757858],[128.896097,37.757597],[128.896115,37.757421],[128.896177,37.757251],[128.896279,37.757094],[128.896587,37.756842],[128.896782,37.756756],[128.897181,37.756686],[128.897345,37.756563],[128.897409,37.756372],[128.897511,37.756215],[128.897916,37.755785],[128.89821,37.755606],[128.898616,37.755467],[128.899059,37.755461]]]},"properties":{"id":"59646","year":"2019","acc":18,"dth":0,"se":5,"sl":16,"cause":"기타 / 신호위반"}},{"type":"Feature","geometry":{"type":"Polygon","coordinates":[[[128.880383,37.752193],[128.880781,37.752509],[128.880934,37.752777],[128.881333,37.752838],[128.881705,37.753029],[128.881957,37.753318],[128.882024,37.753487],[128.882048,37.753654],[128.882111,37.753693],[128.882486,37.753753],[128.882683,37.753834],[128.883001,37.754079],[128.883109,37.754233],[128.883177,37.754401],[128.883191,37.754673],[128.883334,37.754949],[128.883359,37.755125],[128.883341,37.755301],[128.883279,37.755471],[128.883177,37.755628],[128.883039,37.755766],[128.882674,37.755965],[128.882241,37.756039],[128.88202,37.756024],[128.881608,37.755895],[128.88136,37.755715],[128.880937,37.755652],[128.880739,37.755571],[128.880565,37.755461],[128.880398,37.7553],[128.88029,37.755145],[128.880208,37.75487],[128.879916,37.754712],[128.879772,37.754577],[128.879664,37.754422],[128.879596,37.754254],[128.879583,37.753966],[128.879202,37.753906],[128.879004,37.753825],[128.87883,37.753715],[128.878686,37.75358],[128.878579,37.753426],[128.878511,37.753258],[128.878486,37.753082],[128.878504,37.752906],[128.878566,37.752736],[128.878668,37.752579],[128.878873,37.752377],[128.879122,37.752208],[128.879528,37.752069],[128.879971,37.752063],[128.880383,37.752193]]]},"properties":{"id":"59647","year":"2019","acc":14,"dth":1,"se":2,"sl":17,"cause":"U턴중 / 기타"}},{"type":"Feature","geometry":{"type":"Polygon","coordinates":[[[128.893858,37.752152],[128.894224,37.752341],[128.894368,37.752476],[128.894521,37.752744],[128.894909,37.752804],[128.89528,37.752995],[128.895424,37.75313],[128.89556,37.753355],[128.895946,37.753479],[128.89612,37.753589],[128.896287,37.753751],[128.896415,37.753955],[128.896885,37.753955],[128.897099,37.754004],[128.897471,37.754195],[128.897723,37.754484],[128.89779,37.754652],[128.897815,37.754828],[128.897797,37.755004],[128.897736,37.755174],[128.897634,37.755331],[128.897325,37.755583],[128.896919,37.755723],[128.896476,37.755728],[128.896253,37.755675],[128.896027,37.755696],[128.895591,37.755633],[128.895219,37.755442],[128.895051,37.755271],[128.894659,37.755146],[128.894485,37.755036],[128.894234,37.754747],[128.894155,37.754498],[128.893874,37.754398],[128.893699,37.754288],[128.893556,37.754153],[128.893402,37.753885],[128.893015,37.753825],[128.892793,37.753729],[128.892353,37.753652],[128.892155,37.753571],[128.891981,37.753461],[128.89173,37.753172],[128.891662,37.753004],[128.891637,37.752828],[128.891655,37.752652],[128.891717,37.752482],[128.891819,37.752325],[128.891957,37.752187],[128.892127,37.752073],[128.892536,37.751895],[128.892969,37.751821],[128.893404,37.751885],[128.893602,37.751966],[128.893858,37.752152]]]},"properties":{"id":"59648","year":"2019","acc":13,"dth":0,"se":1,"sl":12,"cause":"U턴중 / 기타 / 안전거리미확보"}},{"type":"Feature","geometry":{"type":"Polygon","coordinates":[[[128.875003,37.758098],[128.874984,37.758274],[128.874923,37.758443],[128.874821,37.7586],[128.874682,37.758739],[128.874222,37.759108],[128.873909,37.759224],[128.873792,37.759424],[128.873653,37.759562],[128.873289,37.759761],[128.872856,37.759835],[128.87242,37.759772],[128.872222,37.759691],[128.871905,37.759446],[128.871797,37.759291],[128.871729,37.759123],[128.871704,37.758947],[128.871723,37.758771],[128.871784,37.758601],[128.871886,37.758444],[128.872195,37.758192],[128.872507,37.758077],[128.872625,37.757877],[128.872786,37.757712],[128.873054,37.757483],[128.873418,37.757283],[128.873851,37.75721],[128.874287,37.757273],[128.874485,37.757354],[128.874659,37.757464],[128.874802,37.757599],[128.87491,37.757754],[128.874978,37.757922],[128.875003,37.758098]]]},"properties":{"id":"59649","year":"2019","acc":4,"dth":0,"se":1,"sl":3,"cause":"기타"}},{"type":"Feature","geometry":{"type":"Polygon","coordinates":[[[128.887345,37.756059],[128.887766,37.756335],[128.88811,37.756339],[128.888324,37.756388],[128.888522,37.756469],[128.888721,37.756603],[128.889068,37.756415],[128.889501,37.756341],[128.889936,37.756405],[128.890416,37.75663],[128.890799,37.756569],[128.891021,37.756584],[128.891267,37.756646],[128.891571,37.756605],[128.891793,37.75662],[128.892205,37.75675],[128.892523,37.756995],[128.892828,37.757399],[128.892896,37.757567],[128.892921,37.757743],[128.892902,37.757919],[128.892745,37.758423],[128.892643,37.75858],[128.892505,37.758719],[128.89214,37.758918],[128.891707,37.758992],[128.891485,37.758977],[128.891074,37.758848],[128.8909,37.758738],[128.890511,37.758334],[128.89034,37.758285],[128.889958,37.758346],[128.889673,37.758317],[128.889397,37.758398],[128.889176,37.758418],[128.888741,37.758355],[128.888543,37.758274],[128.888273,37.758074],[128.887922,37.758126],[128.887479,37.75806],[128.887111,37.758182],[128.886669,37.758187],[128.886257,37.758057],[128.886083,37.757947],[128.885812,37.757697],[128.885704,37.757542],[128.885637,37.757374],[128.885593,37.756829],[128.885612,37.756653],[128.885673,37.756483],[128.885775,37.756326],[128.885914,37.756188],[128.886278,37.755988],[128.886711,37.755915],[128.887147,37.755978],[128.887345,37.756059]]]},"properties":{"id":"59650","year":"2019","acc":17,"dth":0,"se":2,"sl":22,"cause":"U턴중 / 기타"}},{"type":"Feature","geometry":{"type":"Polygon","coordinates":[[[128.899712,37.762441],[128.89963,37.762605],[128.899621,37.762693],[128.899707,37.763143],[128.899832,37.763288],[128.900005,37.763421],[128.900298,37.763541],[128.900656,37.763528],[128.900916,37.763448],[128.90107,37.763322],[128.901154,37.763134],[128.901381,37.762976],[128.901463,37.762813],[128.901472,37.762725],[128.901426,37.762553],[128.9013,37.762408],[128.901067,37.762302],[128.901064,37.762128],[128.900976,37.761967],[128.900817,37.761844],[128.900611,37.761779],[128.900284,37.761809],[128.900102,37.761909],[128.899981,37.762056],[128.899944,37.76225],[128.899712,37.762441]]]},"properties":{"id":"114735","year":"2020","acc":22,"dth":0,"se":3,"sl":25,"cause":"기타"}},{"type":"Feature","geometry":{"type":"Polygon","coordinates":[[[128.890771,37.754116],[128.89071,37.754286],[128.890671,37.754615],[128.890697,37.754791],[128.890833,37.755058],[128.890765,37.755371],[128.89079,37.755547],[128.890858,37.755715],[128.890966,37.755869],[128.891109,37.756004],[128.891481,37.756195],[128.891917,37.756259],[128.892138,37.756239],[128.892545,37.756099],[128.892714,37.755985],[128.892929,37.75573],[128.893284,37.755604],[128.893454,37.75549],[128.893593,37.755352],[128.893695,37.755195],[128.893756,37.755025],[128.893775,37.754849],[128.89375,37.754673],[128.893682,37.754505],[128.893574,37.754351],[128.8933,37.754133],[128.893181,37.75395],[128.893037,37.753815],[128.892665,37.753624],[128.892451,37.753575],[128.891809,37.753547],[128.891376,37.753621],[128.891012,37.753821],[128.890873,37.753959],[128.890771,37.754116]]]},"properties":{"id":"110229","year":"2021","acc":7,"dth":0,"se":1,"sl":9,"cause":"기타"}},{"type":"Feature","geometry":{"type":"Polygon","coordinates":[[[128.892234,37.75685],[128.891823,37.756918],[128.891481,37.75693],[128.891269,37.756984],[128.890837,37.75722],[128.890698,37.757359],[128.890597,37.757516],[128.890535,37.757685],[128.890517,37.757861],[128.890542,37.758037],[128.89067,37.758394],[128.890778,37.758548],[128.890921,37.758683],[128.891095,37.758793],[128.891507,37.758923],[128.891729,37.758938],[128.892044,37.758894],[128.892306,37.759016],[128.892742,37.759079],[128.892963,37.759059],[128.893369,37.75892],[128.893539,37.758806],[128.893678,37.758667],[128.89378,37.75851],[128.893841,37.758341],[128.89386,37.758164],[128.893835,37.757989],[128.893767,37.757821],[128.893659,37.757666],[128.893515,37.757531],[128.893297,37.757403],[128.893186,37.757239],[128.893042,37.757104],[128.89267,37.756913],[128.892234,37.75685]]]},"properties":{"id":"110230","year":"2021","acc":6,"dth":0,"se":4,"sl":7,"cause":"기타"}},{"type":"Feature","geometry":{"type":"Polygon","coordinates":[[[128.87778,37.762752],[128.877347,37.762825],[128.877152,37.762911],[128.876843,37.763163],[128.876741,37.76332],[128.876678,37.76351],[128.87645,37.763604],[128.87628,37.763718],[128.876141,37.763856],[128.876039,37.764013],[128.875978,37.764183],[128.875959,37.764359],[128.875984,37.764535],[128.876052,37.764703],[128.87616,37.764858],[128.876303,37.764993],[128.876477,37.765103],[128.876705,37.76519],[128.876682,37.765378],[128.876707,37.765554],[128.876775,37.765722],[128.876882,37.765877],[128.877026,37.766011],[128.8772,37.766122],[128.877612,37.766251],[128.877913,37.766259],[128.878192,37.766335],[128.878414,37.766349],[128.878847,37.766276],[128.879042,37.76619],[128.879351,37.765938],[128.879453,37.765781],[128.879514,37.765611],[128.879532,37.765435],[128.879507,37.765259],[128.87944,37.765091],[128.879245,37.764855],[128.879233,37.764551],[128.879165,37.764382],[128.879058,37.764228],[128.878854,37.764055],[128.878932,37.76364],[128.878906,37.763464],[128.878839,37.763296],[128.878731,37.763141],[128.878413,37.762896],[128.878002,37.762766],[128.87778,37.762752]]]},"properties":{"id":"110231","year":"2021","acc":9,"dth":0,"se":1,"sl":13,"cause":"U턴중 / 기타"}},{"type":"Feature","geometry":{"type":"Polygon","coordinates":[[[128.873282,37.764008],[128.872917,37.764208],[128.872778,37.764346],[128.872656,37.76456],[128.872422,37.764849],[128.87236,37.765018],[128.872342,37.765195],[128.872367,37.76537],[128.872434,37.765538],[128.872565,37.76572],[128.872709,37.765855],[128.873081,37.766046],[128.873295,37.766094],[128.873517,37.766109],[128.873897,37.766049],[128.874129,37.766066],[128.874562,37.765992],[128.874757,37.765907],[128.875065,37.765654],[128.875167,37.765497],[128.875229,37.765328],[128.875247,37.765152],[128.875222,37.764976],[128.875154,37.764808],[128.875047,37.764653],[128.874903,37.764518],[128.874723,37.764406],[128.874522,37.764189],[128.87415,37.763998],[128.873715,37.763935],[128.873282,37.764008]]]},"properties":{"id":"110232","year":"2021","acc":6,"dth":0,"se":1,"sl":6,"cause":"기타"}},{"type":"Feature","geometry":{"type":"Polygon","coordinates":[[[128.891732,37.763985],[128.891299,37.764058],[128.890957,37.764243],[128.89067,37.764214],[128.890237,37.764287],[128.889872,37.764487],[128.889733,37.764625],[128.889631,37.764782],[128.88957,37.764952],[128.889551,37.765128],[128.889577,37.765304],[128.889644,37.765472],[128.889752,37.765626],[128.89007,37.765871],[128.890268,37.765952],[128.890703,37.766016],[128.891073,37.765958],[128.8913,37.766109],[128.891498,37.76619],[128.891712,37.766239],[128.892111,37.766238],[128.892445,37.766404],[128.892658,37.766453],[128.893101,37.766448],[128.893313,37.766394],[128.893678,37.766194],[128.893816,37.766056],[128.893918,37.765899],[128.89398,37.765729],[128.893998,37.765553],[128.893973,37.765378],[128.893906,37.765209],[128.893798,37.765055],[128.89348,37.76481],[128.893282,37.764729],[128.892847,37.764666],[128.892684,37.764374],[128.892366,37.764129],[128.891954,37.763999],[128.891732,37.763985]]]},"properties":{"id":"110233","year":"2021","acc":7,"dth":0,"se":2,"sl":5,"cause":"기타 / 신호위반"}},{"type":"Feature","geometry":{"type":"Polygon","coordinates":[[[128.897273,37.75382],[128.897171,37.753977],[128.897109,37.754147],[128.897091,37.754323],[128.897116,37.754498],[128.897184,37.754667],[128.897435,37.754956],[128.897609,37.755066],[128.898202,37.755257],[128.898255,37.755333],[128.898005,37.75539],[128.89764,37.75559],[128.897502,37.755728],[128.8974,37.755885],[128.897338,37.756055],[128.89732,37.756231],[128.897345,37.756406],[128.897413,37.756575],[128.897756,37.757039],[128.897822,37.757201],[128.897955,37.757379],[128.89798,37.757561],[128.898047,37.75773],[128.898155,37.757884],[128.898299,37.758019],[128.898671,37.75821],[128.899106,37.758274],[128.899327,37.758254],[128.899734,37.758114],[128.900042,37.757862],[128.900144,37.757705],[128.900206,37.757535],[128.900224,37.757359],[128.900199,37.757183],[128.900131,37.757015],[128.899998,37.756837],[128.899935,37.756559],[128.899977,37.756325],[128.900399,37.756252],[128.900594,37.756166],[128.900764,37.756052],[128.900902,37.755914],[128.901004,37.755757],[128.901066,37.755587],[128.901084,37.755411],[128.901059,37.755236],[128.90092,37.75487],[128.900668,37.75458],[128.900209,37.754251],[128.899999,37.754021],[128.899492,37.753698],[128.899294,37.753617],[128.898757,37.753518],[128.89843,37.753423],[128.897988,37.753428],[128.897581,37.753568],[128.897273,37.75382]]]},"properties":{"id":"110234","year":"2021","acc":16,"dth":0,"se":1,"sl":24,"cause":"U턴중 / 기타 / 안전거리미확보"}},{"type":"Feature","geometry":{"type":"Polygon","coordinates":[[[128.900129,37.761019],[128.899722,37.761158],[128.899552,37.761272],[128.899413,37.76141],[128.899312,37.761567],[128.89925,37.761737],[128.899232,37.761913],[128.899257,37.762089],[128.899323,37.762252],[128.899214,37.762416],[128.899142,37.762613],[128.899123,37.762789],[128.899148,37.762964],[128.899335,37.763419],[128.899443,37.763574],[128.899587,37.763709],[128.899864,37.763872],[128.900062,37.763953],[128.900497,37.764016],[128.901247,37.763893],[128.901612,37.763694],[128.90175,37.763556],[128.901852,37.763399],[128.901914,37.763229],[128.901997,37.762854],[128.901972,37.762678],[128.901874,37.762467],[128.90186,37.762184],[128.901792,37.762015],[128.901684,37.761861],[128.901463,37.761677],[128.901301,37.761388],[128.901157,37.761253],[128.900983,37.761143],[128.900571,37.761013],[128.900129,37.761019]]]},"properties":{"id":"110235","year":"2021","acc":15,"dth":0,"se":1,"sl":20,"cause":"기타"}},{"type":"Feature","geometry":{"type":"Polygon","coordinates":[[[128.912119,37.745302],[128.911686,37.745376],[128.911491,37.745462],[128.911321,37.745576],[128.911143,37.745775],[128.910945,37.745885],[128.910641,37.745947],[128.910007,37.746183],[128.909698,37.746435],[128.909596,37.746592],[128.909535,37.746762],[128.909465,37.7472],[128.90949,37.747375],[128.90958,37.747575],[128.9096,37.747798],[128.909668,37.747966],[128.909919,37.748255],[128.910291,37.748446],[128.910505,37.748495],[128.910727,37.74851],[128.91116,37.748436],[128.911354,37.74835],[128.911663,37.748098],[128.911765,37.747941],[128.911829,37.747743],[128.912189,37.747789],[128.912622,37.747715],[128.912816,37.74763],[128.913125,37.747377],[128.913226,37.74722],[128.913288,37.74705],[128.913306,37.746874],[128.91328,37.746695],[128.913343,37.746396],[128.913317,37.746221],[128.913178,37.745846],[128.91307,37.745692],[128.912752,37.745447],[128.91234,37.745317],[128.912119,37.745302]]]},"properties":{"id":"110236","year":"2021","acc":9,"dth":0,"se":3,"sl":12,"cause":"기타"}},{"type":"Feature","geometry":{"type":"Polygon","coordinates":[[[128.903534,37.765334],[128.903395,37.765473],[128.903294,37.76563],[128.903232,37.765799],[128.903214,37.765976],[128.903239,37.766151],[128.903307,37.766319],[128.903414,37.766474],[128.903558,37.766609],[128.903732,37.766719],[128.904048,37.766826],[128.904198,37.767086],[128.904516,37.767331],[128.904833,37.767439],[128.905206,37.767632],[128.90542,37.76768],[128.905863,37.767675],[128.906269,37.767536],[128.906439,37.767422],[128.906578,37.767283],[128.90668,37.767126],[128.906794,37.766758],[128.906813,37.766582],[128.906788,37.766406],[128.90672,37.766238],[128.906612,37.766083],[128.906468,37.765948],[128.906111,37.765763],[128.906001,37.765604],[128.905683,37.765359],[128.905272,37.765229],[128.904989,37.76522],[128.904767,37.765124],[128.904332,37.765061],[128.903899,37.765135],[128.903534,37.765334]]]},"properties":{"id":"110237","year":"2021","acc":6,"dth":0,"se":0,"sl":9,"cause":"기타 / 중앙선침범"}},{"type":"Feature","geometry":{"type":"Polygon","coordinates":[[[128.906925,37.768151],[128.906787,37.768289],[128.906685,37.768446],[128.906623,37.768616],[128.906605,37.768792],[128.90663,37.768968],[128.906698,37.769136],[128.906806,37.76929],[128.907123,37.769535],[128.907321,37.769616],[128.907657,37.769673],[128.907995,37.769842],[128.908431,37.769906],[128.908652,37.769886],[128.909059,37.769746],[128.909229,37.769632],[128.909367,37.769494],[128.909469,37.769337],[128.909531,37.769167],[128.909549,37.768991],[128.909524,37.768816],[128.909456,37.768647],[128.909151,37.768261],[128.908833,37.768016],[128.908421,37.767886],[128.908068,37.76781],[128.907846,37.767795],[128.907413,37.767869],[128.907218,37.767954],[128.906925,37.768151]]]},"properties":{"id":"110238","year":"2021","acc":7,"dth":0,"se":1,"sl":8,"cause":"기타"}},{"type":"Feature","geometry":{"type":"Polygon","coordinates":[[[128.89886,37.755722],[128.898673,37.755848],[128.898424,37.755883],[128.898174,37.756019],[128.898054,37.756167],[128.898023,37.756252],[128.898027,37.756428],[128.898185,37.756696],[128.898344,37.756819],[128.898718,37.757009],[128.899046,37.757031],[128.899334,37.756904],[128.899637,37.756443],[128.899836,37.75628],[128.900037,37.755854],[128.900034,37.755678],[128.899946,37.755517],[128.899787,37.755394],[128.899582,37.755329],[128.899414,37.755314],[128.899197,37.755351],[128.899015,37.75545],[128.898895,37.755598],[128.89886,37.755722]]]},"properties":{"id":"105920","year":"2022","acc":13,"dth":1,"se":2,"sl":22,"cause":"기타"}},{"type":"Feature","geometry":{"type":"Polygon","coordinates":[[[128.895459,37.758551],[128.895171,37.758678],[128.89505,37.758825],[128.89502,37.75891],[128.895,37.759061],[128.895024,37.759177],[128.89497,37.759298],[128.894974,37.759474],[128.895061,37.759635],[128.895133,37.759703],[128.895319,37.759798],[128.895648,37.75982],[128.895881,37.75973],[128.896092,37.75976],[128.896308,37.759723],[128.89656,37.759554],[128.896642,37.759391],[128.896671,37.759141],[128.896655,37.758915],[128.896609,37.758744],[128.896483,37.758599],[128.896297,37.758503],[128.896079,37.758472],[128.895742,37.758493],[128.895459,37.758551]]]},"properties":{"id":"105921","year":"2022","acc":12,"dth":0,"se":0,"sl":17,"cause":"기타"}},{"type":"Feature","geometry":{"type":"Polygon","coordinates":[[[128.901107,37.762035],[128.900815,37.762105],[128.900563,37.76206],[128.900346,37.762096],[128.900001,37.762241],[128.899847,37.762367],[128.899765,37.762531],[128.899725,37.762772],[128.899808,37.762998],[128.899811,37.763175],[128.899899,37.763336],[128.899971,37.763404],[128.900306,37.76356],[128.900634,37.763582],[128.901096,37.763392],[128.90125,37.763266],[128.901332,37.763103],[128.901332,37.762952],[128.901379,37.762882],[128.901592,37.76273],[128.901643,37.762652],[128.901683,37.762479],[128.901637,37.762307],[128.901511,37.762162],[128.901325,37.762067],[128.901107,37.762035]]]},"properties":{"id":"105922","year":"2022","acc":16,"dth":0,"se":4,"sl":22,"cause":"기타"}},{"type":"Feature","geometry":{"type":"Polygon","coordinates":[[[128.87673,37.746736],[128.876609,37.746884],[128.876579,37.746969],[128.876582,37.747145],[128.876752,37.747476],[128.876992,37.74767],[128.877308,37.747742],[128.877567,37.747687],[128.877895,37.747709],[128.878099,37.747639],[128.878304,37.747434],[128.878344,37.747261],[128.878331,37.747174],[128.878243,37.747012],[128.878085,37.74689],[128.877835,37.746821],[128.877684,37.746705],[128.877478,37.74664],[128.877128,37.7466],[128.876912,37.746637],[128.87673,37.746736]]]},"properties":{"id":"99530","year":"2023","acc":11,"dth":0,"se":3,"sl":13,"cause":"기타"}},{"type":"Feature","geometry":{"type":"Polygon","coordinates":[[[128.879748,37.752427],[128.879459,37.752554],[128.879156,37.752833],[128.879074,37.752996],[128.879065,37.753084],[128.879111,37.753256],[128.879237,37.753401],[128.879439,37.753554],[128.879723,37.753624],[128.879904,37.753716],[128.880121,37.753748],[128.880435,37.753668],[128.88064,37.753464],[128.88068,37.753291],[128.880634,37.753119],[128.880428,37.752923],[128.880388,37.752689],[128.880262,37.752544],[128.879969,37.752424],[128.879748,37.752427]]]},"properties":{"id":"99531","year":"2023","acc":8,"dth":0,"se":2,"sl":7,"cause":"기타 / 신호위반"}},{"type":"Feature","geometry":{"type":"Polygon","coordinates":[[[128.895124,37.758746],[128.895042,37.75891],[128.895033,37.758998],[128.89508,37.75917],[128.89516,37.759272],[128.8952,37.759511],[128.895325,37.759655],[128.895585,37.759853],[128.895791,37.759917],[128.896119,37.759888],[128.896301,37.759788],[128.896588,37.759467],[128.896639,37.759258],[128.89658,37.759032],[128.896454,37.758888],[128.896252,37.758744],[128.89581,37.758572],[128.895592,37.758541],[128.895278,37.75862],[128.895124,37.758746]]]},"properties":{"id":"99532","year":"2023","acc":11,"dth":0,"se":1,"sl":17,"cause":"기타"}},{"type":"Feature","geometry":{"type":"Polygon","coordinates":[[[128.89826,37.755605],[128.898008,37.755774],[128.897927,37.755937],[128.89793,37.756113],[128.898027,37.756283],[128.898049,37.756501],[128.897919,37.756713],[128.897922,37.756888],[128.897956,37.756973],[128.898169,37.757172],[128.898374,37.757237],[128.898596,37.757234],[128.899149,37.757052],[128.899359,37.756872],[128.899441,37.756708],[128.899435,37.756458],[128.899389,37.756286],[128.899256,37.756137],[128.899172,37.755986],[128.898793,37.75564],[128.898476,37.755568],[128.89826,37.755605]]]},"properties":{"id":"99533","year":"2023","acc":12,"dth":0,"se":2,"sl":15,"cause":"기타"}},{"type":"Feature","geometry":{"type":"Polygon","coordinates":[[[128.900631,37.761932],[128.900428,37.762002],[128.900291,37.762111],[128.900041,37.762145],[128.899858,37.762245],[128.899738,37.762393],[128.899698,37.762566],[128.899783,37.762896],[128.899978,37.763317],[128.900205,37.763467],[128.900414,37.763662],[128.90073,37.763734],[128.901044,37.763654],[128.901423,37.763381],[128.901504,37.763218],[128.901502,37.763051],[128.901543,37.762877],[128.901497,37.762705],[128.901289,37.762509],[128.901305,37.762278],[128.901217,37.762117],[128.900959,37.761954],[128.900631,37.761932]]]},"properties":{"id":"99534","year":"2023","acc":16,"dth":0,"se":1,"sl":21,"cause":"기타"}},{"type":"Feature","geometry":{"type":"Polygon","coordinates":[[[128.914085,37.744111],[128.91388,37.744316],[128.913838,37.744475],[128.91374,37.744654],[128.913744,37.74483],[128.913831,37.744991],[128.914089,37.745154],[128.914455,37.74522],[128.914672,37.745183],[128.914887,37.745056],[128.915012,37.744932],[128.915094,37.744769],[128.915111,37.744476],[128.915023,37.744314],[128.914715,37.744103],[128.914509,37.744039],[128.914288,37.744041],[128.914085,37.744111]]]},"properties":{"id":"99535","year":"2023","acc":8,"dth":0,"se":0,"sl":10,"cause":"기타"}},{"type":"Feature","geometry":{"type":"Polygon","coordinates":[[[128.876894,37.746678],[128.876684,37.74685],[128.87658,37.747059],[128.876584,37.747235],[128.876617,37.747319],[128.876824,37.747535],[128.87717,37.747701],[128.877388,37.747732],[128.877702,37.747653],[128.878045,37.747439],[128.878114,37.74737],[128.878196,37.747207],[128.878192,37.747031],[128.878105,37.74687],[128.877854,37.746667],[128.877652,37.746592],[128.877434,37.74656],[128.877097,37.746609],[128.876894,37.746678]]]},"properties":{"id":"123156","year":"2024","acc":13,"dth":0,"se":0,"sl":22,"cause":"기타"}},{"type":"Feature","geometry":{"type":"Polygon","coordinates":[[[128.895136,37.758764],[128.895054,37.758928],[128.895045,37.759016],[128.895084,37.75917],[128.895038,37.759279],[128.895041,37.759455],[128.895129,37.759617],[128.895201,37.759684],[128.895387,37.759779],[128.895715,37.759801],[128.895897,37.759741],[128.896134,37.759742],[128.896338,37.759672],[128.896492,37.759546],[128.896661,37.759211],[128.896658,37.759035],[128.896594,37.758907],[128.896551,37.758699],[128.896425,37.758554],[128.896239,37.758459],[128.895999,37.758428],[128.895782,37.758464],[128.895608,37.758559],[128.89529,37.758638],[128.895136,37.758764]]]},"properties":{"id":"123157","year":"2024","acc":12,"dth":0,"se":3,"sl":10,"cause":"기타"}},{"type":"Feature","geometry":{"type":"Polygon","coordinates":[[[128.898306,37.755668],[128.897978,37.755823],[128.897857,37.755971],[128.897827,37.756056],[128.89783,37.756232],[128.897956,37.756429],[128.897875,37.756506],[128.897793,37.756669],[128.897796,37.756845],[128.897884,37.757006],[128.898142,37.757169],[128.89836,37.757201],[128.898615,37.757147],[128.898749,37.757247],[128.898955,37.757311],[128.899176,37.757309],[128.899464,37.757182],[128.899585,37.757034],[128.899617,37.756935],[128.899761,37.756771],[128.899801,37.756598],[128.899684,37.756274],[128.899537,37.756062],[128.899279,37.755899],[128.89903,37.755871],[128.898927,37.755758],[128.898741,37.755662],[128.898523,37.755631],[128.898306,37.755668]]]},"properties":{"id":"123158","year":"2024","acc":13,"dth":0,"se":3,"sl":16,"cause":"기타"}},{"type":"Feature","geometry":{"type":"Polygon","coordinates":[[[128.899686,37.76213],[128.899566,37.762277],[128.899526,37.76245],[128.899622,37.762771],[128.899697,37.762914],[128.899706,37.763032],[128.899794,37.763193],[128.899866,37.763261],[128.900194,37.763466],[128.9004,37.763531],[128.900728,37.763501],[128.90091,37.763401],[128.901008,37.763288],[128.901291,37.763163],[128.901412,37.763015],[128.901452,37.762842],[128.901436,37.762601],[128.901348,37.76244],[128.901189,37.762317],[128.900984,37.762252],[128.900818,37.76225],[128.900553,37.762181],[128.900401,37.762065],[128.900195,37.762],[128.899868,37.76203],[128.899686,37.76213]]]},"properties":{"id":"123159","year":"2024","acc":14,"dth":0,"se":1,"sl":17,"cause":"기타"}},{"type":"Feature","geometry":{"type":"Polygon","coordinates":[[[128.881645,37.754351],[128.881357,37.754478],[128.881165,37.754648],[128.881069,37.75479],[128.881029,37.754963],[128.881042,37.755051],[128.88113,37.755212],[128.881201,37.755279],[128.881387,37.755375],[128.881605,37.755407],[128.881781,37.75538],[128.881972,37.755439],[128.882122,37.755443],[128.882333,37.755562],[128.882551,37.755594],[128.882767,37.755557],[128.883019,37.755388],[128.88307,37.75531],[128.88311,37.755137],[128.883063,37.754965],[128.882938,37.75482],[128.882752,37.754725],[128.88263,37.754699],[128.882461,37.754562],[128.882185,37.754493],[128.881973,37.754373],[128.881645,37.754351]]]},"properties":{"id":"127489","year":"2025","acc":9,"dth":1,"se":5,"sl":9,"cause":"기타"}},{"type":"Feature","geometry":{"type":"Polygon","coordinates":[[[128.899076,37.75548],[128.89886,37.755517],[128.898636,37.755658],[128.898444,37.755632],[128.898227,37.755669],[128.898045,37.755768],[128.897847,37.755998],[128.897807,37.756171],[128.897853,37.756343],[128.897979,37.756488],[128.898082,37.756549],[128.89818,37.756799],[128.898392,37.756998],[128.898598,37.757063],[128.899047,37.757058],[128.89925,37.756988],[128.899455,37.756784],[128.899495,37.756593],[128.899421,37.756382],[128.899478,37.756254],[128.899612,37.756097],[128.899643,37.756012],[128.89964,37.755836],[128.899606,37.755752],[128.89948,37.755607],[128.899294,37.755512],[128.899076,37.75548]]]},"properties":{"id":"127490","year":"2025","acc":12,"dth":1,"se":5,"sl":13,"cause":"기타"}},{"type":"Feature","geometry":{"type":"Polygon","coordinates":[[[128.900472,37.761592],[128.900144,37.761621],[128.899893,37.76179],[128.899811,37.761954],[128.899804,37.762059],[128.899708,37.762121],[128.899588,37.762268],[128.899548,37.762441],[128.899595,37.762613],[128.89972,37.762758],[128.89981,37.762814],[128.899952,37.762998],[128.900138,37.763094],[128.900356,37.763125],[128.90063,37.763085],[128.900752,37.763141],[128.90097,37.763172],[128.901283,37.763093],[128.901489,37.762888],[128.901529,37.762715],[128.901482,37.762543],[128.901298,37.762291],[128.901112,37.762195],[128.900917,37.762144],[128.900924,37.76194],[128.900836,37.761779],[128.900677,37.761656],[128.900472,37.761592]]]},"properties":{"id":"127491","year":"2025","acc":11,"dth":0,"se":4,"sl":10,"cause":"기타"}}]}