{"type":"FeatureCollection","features":[{"type":"Feature","geometry":{"type":"Polygon","coordinates":[[[128.900171,37.756428],[128.900069,37.75602],[128.899777,37.755674],[128.899339,37.755443],[128.898824,37.755362],[128.898308,37.755443],[128.897871,37.755674],[128.897579,37.75602],[128.897476,37.756428],[128.897579,37.756835],[128.897871,37.757181],[128.898308,37.757412],[128.898824,37.757493],[128.899339,37.757412],[128.899777,37.757181],[128.900069,37.756835],[128.900171,37.756428]]]},"properties":{"year":"2018","name":"옥천오거리 인근","full":"강원도 강릉시 옥천동(옥천오거리 인근)","acc":19,"cas":22,"dth":0,"se":4,"lon":128.898824,"lat":37.756428}},{"type":"Feature","geometry":{"type":"Polygon","coordinates":[[[128.874794,37.765377],[128.874691,37.764969],[128.874399,37.764624],[128.873962,37.764393],[128.873446,37.764312],[128.872931,37.764393],[128.872494,37.764624],[128.872201,37.764969],[128.872099,37.765377],[128.872201,37.765785],[128.872494,37.76613],[128.872931,37.766361],[128.873446,37.766442],[128.873962,37.766361],[128.874399,37.76613],[128.874691,37.765785],[128.874794,37.765377]]]},"properties":{"year":"2018","name":"교동교차로 인근","full":"강원도 강릉시 유천동(교동교차로 인근)","acc":12,"cas":25,"dth":0,"se":4,"lon":128.873446,"lat":37.765377}},{"type":"Feature","geometry":{"type":"Polygon","coordinates":[[[128.896644,37.754187],[128.896541,37.753779],[128.896249,37.753433],[128.895812,37.753202],[128.895296,37.753121],[128.89478,37.753202],[128.894343,37.753433],[128.894051,37.753779],[128.893949,37.754187],[128.894051,37.754594],[128.894343,37.75494],[128.89478,37.755171],[128.895296,37.755252],[128.895812,37.755171],[128.896249,37.75494],[128.896541,37.754594],[128.896644,37.754187]]]},"properties":{"year":"2018","name":"기업은행강릉지점앞교차로 인근","full":"강원도 강릉시 금학동(기업은행강릉지점앞교차로 인근)","acc":11,"cas":19,"dth":0,"se":5,"lon":128.895296,"lat":37.754187}},{"type":"Feature","geometry":{"type":"Polygon","coordinates":[[[128.900171,37.756428],[128.900069,37.75602],[128.899777,37.755674],[128.899339,37.755443],[128.898824,37.755362],[128.898308,37.755443],[128.897871,37.755674],[128.897579,37.75602],[128.897476,37.756428],[128.897579,37.756835],[128.897871,37.757181],[128.898308,37.757412],[128.898824,37.757493],[128.899339,37.757412],[128.899777,37.757181],[128.900069,37.756835],[128.900171,37.756428]]]},"properties":{"year":"2019","name":"옥천오거리 인근","full":"강원도 강릉시 옥천동(옥천오거리 인근)","acc":12,"cas":17,"dth":1,"se":4,"lon":128.898824,"lat":37.756428}},{"type":"Feature","geometry":{"type":"Polygon","coordinates":[[[128.874794,37.765377],[128.874691,37.764969],[128.874399,37.764624],[128.873962,37.764393],[128.873446,37.764312],[128.872931,37.764393],[128.872494,37.764624],[128.872201,37.764969],[128.872099,37.765377],[128.872201,37.765785],[128.872494,37.76613],[128.872931,37.766361],[128.873446,37.766442],[128.873962,37.766361],[128.874399,37.76613],[128.874691,37.765785],[128.874794,37.765377]]]},"properties":{"year":"2019","name":"교동교차로 인근","full":"강원도 강릉시 유천동(교동교차로 인근)","acc":11,"cas":25,"dth":0,"se":1,"lon":128.873446,"lat":37.765377}},{"type":"Feature","geometry":{"type":"Polygon","coordinates":[[[128.893059,37.75778],[128.892957,37.757373],[128.892665,37.757027],[128.892227,37.756796],[128.891712,37.756715],[128.891196,37.756796],[128.890759,37.757027],[128.890467,37.757373],[128.890364,37.75778],[128.890467,37.758188],[128.890759,37.758534],[128.891196,37.758765],[128.891712,37.758846],[128.892227,37.758765],[128.892665,37.758534],[128.892957,37.758188],[128.893059,37.75778]]]},"properties":{"year":"2019","name":"교동사거리 인근","full":"강원도 강릉시 교동(교동사거리 인근)","acc":10,"cas":18,"dth":0,"se":1,"lon":128.891712,"lat":37.75778}},{"type":"Feature","geometry":{"type":"Polygon","coordinates":[[[128.900171,37.756428],[128.900069,37.75602],[128.899777,37.755674],[128.899339,37.755443],[128.898824,37.755362],[128.898308,37.755443],[128.897871,37.755674],[128.897579,37.75602],[128.897476,37.756428],[128.897579,37.756835],[128.897871,37.757181],[128.898308,37.757412],[128.898824,37.757493],[128.899339,37.757412],[128.899777,37.757181],[128.900069,37.756835],[128.900171,37.756428]]]},"properties":{"year":"2020","name":"옥천오거리 인근","full":"강원도 강릉시 옥천동(옥천오거리 인근)","acc":13,"cas":16,"dth":0,"se":4,"lon":128.898824,"lat":37.756428}},{"type":"Feature","geometry":{"type":"Polygon","coordinates":[[[128.8928,37.740909],[128.892697,37.740501],[128.892405,37.740156],[128.891968,37.739925],[128.891453,37.739844],[128.890937,37.739925],[128.8905,37.740156],[128.890208,37.740501],[128.890105,37.740909],[128.890208,37.741317],[128.8905,37.741663],[128.890937,37.741894],[128.891453,37.741975],[128.891968,37.741894],[128.892405,37.741663],[128.892697,37.741317],[128.8928,37.740909]]]},"properties":{"year":"2020","name":"삼익타워앞교차로 인근","full":"강원도 강릉시 노암동(삼익타워앞교차로 인근)","acc":12,"cas":25,"dth":0,"se":7,"lon":128.891453,"lat":37.740909}},{"type":"Feature","geometry":{"type":"Polygon","coordinates":[[[128.883158,37.75474],[128.883055,37.754332],[128.882763,37.753986],[128.882326,37.753755],[128.88181,37.753674],[128.881295,37.753755],[128.880857,37.753986],[128.880565,37.754332],[128.880463,37.75474],[128.880565,37.755147],[128.880857,37.755493],[128.881295,37.755724],[128.88181,37.755805],[128.882326,37.755724],[128.882763,37.755493],[128.883055,37.755147],[128.883158,37.75474]]]},"properties":{"year":"2020","name":"터미널오거리 인근","full":"강원도 강릉시 교동(터미널오거리 인근)","acc":10,"cas":13,"dth":1,"se":4,"lon":128.88181,"lat":37.75474}},{"type":"Feature","geometry":{"type":"Polygon","coordinates":[[[128.900171,37.756428],[128.900069,37.75602],[128.899777,37.755674],[128.899339,37.755443],[128.898824,37.755362],[128.898308,37.755443],[128.897871,37.755674],[128.897579,37.75602],[128.897476,37.756428],[128.897579,37.756835],[128.897871,37.757181],[128.898308,37.757412],[128.898824,37.757493],[128.899339,37.757412],[128.899777,37.757181],[128.900069,37.756835],[128.900171,37.756428]]]},"properties":{"year":"2021","name":"옥천오거리 인근","full":"강원도 강릉시 옥천동(옥천오거리 인근)","acc":12,"cas":17,"dth":0,"se":2,"lon":128.898824,"lat":37.756428}},{"type":"Feature","geometry":{"type":"Polygon","coordinates":[[[128.874794,37.765377],[128.874691,37.764969],[128.874399,37.764624],[128.873962,37.764393],[128.873446,37.764312],[128.872931,37.764393],[128.872494,37.764624],[128.872201,37.764969],[128.872099,37.765377],[128.872201,37.765785],[128.872494,37.76613],[128.872931,37.766361],[128.873446,37.766442],[128.873962,37.766361],[128.874399,37.76613],[128.874691,37.765785],[128.874794,37.765377]]]},"properties":{"year":"2021","name":"솔올교차로 인근","full":"강원도 강릉시 유천동(솔올교차로 인근)","acc":10,"cas":16,"dth":0,"se":2,"lon":128.873446,"lat":37.765377}},{"type":"Feature","geometry":{"type":"Polygon","coordinates":[[[128.883158,37.75474],[128.883055,37.754332],[128.882763,37.753986],[128.882326,37.753755],[128.88181,37.753674],[128.881295,37.753755],[128.880857,37.753986],[128.880565,37.754332],[128.880463,37.75474],[128.880565,37.755147],[128.880857,37.755493],[128.881295,37.755724],[128.88181,37.755805],[128.882326,37.755724],[128.882763,37.755493],[128.883055,37.755147],[128.883158,37.75474]]]},"properties":{"year":"2021","name":"터미널오거리 인근","full":"강원도 강릉시 교동(터미널오거리 인근)","acc":9,"cas":14,"dth":0,"se":3,"lon":128.88181,"lat":37.75474}},{"type":"Feature","geometry":{"type":"Polygon","coordinates":[[[128.901864,37.76293],[128.901761,37.762523],[128.901469,37.762177],[128.901032,37.761946],[128.900517,37.761865],[128.900001,37.761946],[128.899564,37.762177],[128.899272,37.762523],[128.899169,37.76293],[128.899272,37.763338],[128.899564,37.763683],[128.900001,37.763914],[128.900517,37.763995],[128.901032,37.763914],[128.901469,37.763683],[128.901761,37.763338],[128.901864,37.76293]]]},"properties":{"year":"2022","name":"강릉역육거리 인근","full":"강원도 강릉시 교동(강릉역육거리 인근)","acc":16,"cas":22,"dth":0,"se":1,"lon":128.900517,"lat":37.76293}},{"type":"Feature","geometry":{"type":"Polygon","coordinates":[[[128.899859,37.755155],[128.899757,37.754747],[128.899465,37.754401],[128.899028,37.754171],[128.898512,37.754089],[128.897996,37.754171],[128.897559,37.754401],[128.897267,37.754747],[128.897164,37.755155],[128.897267,37.755562],[128.897559,37.755908],[128.897996,37.756139],[128.898512,37.75622],[128.899028,37.756139],[128.899465,37.755908],[128.899757,37.755562],[128.899859,37.755155]]]},"properties":{"year":"2022","name":"금학동1021 인근","full":"강원도 강릉시 옥천동(금학동1021 인근)","acc":15,"cas":25,"dth":0,"se":1,"lon":128.898512,"lat":37.755155}},{"type":"Feature","geometry":{"type":"Polygon","coordinates":[[[128.878509,37.76417],[128.878406,37.763763],[128.878114,37.763417],[128.877677,37.763186],[128.877161,37.763105],[128.876646,37.763186],[128.876209,37.763417],[128.875916,37.763763],[128.875814,37.76417],[128.875916,37.764578],[128.876209,37.764924],[128.876646,37.765154],[128.877161,37.765236],[128.877677,37.765154],[128.878114,37.764924],[128.878406,37.764578],[128.878509,37.76417]]]},"properties":{"year":"2022","name":"스타벅스강릉교동광장 인근","full":"강원도 강릉시 교동(스타벅스강릉교동광장 인근)","acc":10,"cas":16,"dth":0,"se":0,"lon":128.877161,"lat":37.76417}},{"type":"Feature","geometry":{"type":"Polygon","coordinates":[[[128.901864,37.762697],[128.901761,37.762288],[128.901469,37.761941],[128.901032,37.761709],[128.900517,37.761627],[128.900001,37.761709],[128.899564,37.761941],[128.899272,37.762288],[128.899169,37.762697],[128.899272,37.763106],[128.899564,37.763453],[128.900001,37.763685],[128.900517,37.763767],[128.901032,37.763685],[128.901469,37.763453],[128.901761,37.763106],[128.901864,37.762697]]]},"properties":{"year":"2023","name":"강릉역육거리 인근","full":"강원도 강릉시 교동(강릉역육거리 인근)","acc":21,"cas":32,"dth":0,"se":7,"lon":128.900517,"lat":37.76293}},{"type":"Feature","geometry":{"type":"Polygon","coordinates":[[[128.900842,37.755603],[128.900739,37.755194],[128.900447,37.754847],[128.90001,37.754615],[128.899494,37.754533],[128.898979,37.754615],[128.898542,37.754847],[128.898249,37.755194],[128.898147,37.755603],[128.898249,37.756013],[128.898542,37.75636],[128.898979,37.756592],[128.899494,37.756673],[128.90001,37.756592],[128.900447,37.75636],[128.900739,37.756013],[128.900842,37.755603]]]},"properties":{"year":"2023","name":"옥천오거리 인근","full":"강원도 강릉시 옥천동(옥천오거리 인근)","acc":16,"cas":29,"dth":1,"se":2,"lon":128.899494,"lat":37.755836}},{"type":"Feature","geometry":{"type":"Polygon","coordinates":[[[128.897178,37.75893],[128.897076,37.758521],[128.896784,37.758174],[128.896347,37.757942],[128.895831,37.757861],[128.895315,37.757942],[128.894878,37.758174],[128.894586,37.758521],[128.894484,37.75893],[128.894586,37.75934],[128.894878,37.759687],[128.895315,37.759919],[128.895831,37.76],[128.896347,37.759919],[128.896784,37.759687],[128.897076,37.75934],[128.897178,37.75893]]]},"properties":{"year":"2023","name":"임당사거리 인근","full":"강원도 강릉시 교동(임당사거리 인근)","acc":14,"cas":19,"dth":0,"se":0,"lon":128.895831,"lat":37.759164}},{"type":"Feature","geometry":{"type":"Polygon","coordinates":[[[128.90038,37.755928],[128.900277,37.755518],[128.899985,37.755171],[128.899548,37.754939],[128.899032,37.754858],[128.898517,37.754939],[128.89808,37.755171],[128.897788,37.755518],[128.897685,37.755928],[128.897788,37.756337],[128.89808,37.756684],[128.898517,37.756916],[128.899032,37.756998],[128.899548,37.756916],[128.899985,37.756684],[128.900277,37.756337],[128.90038,37.755928]]]},"properties":{"year":"2024","name":"옥천오거리 부근","full":"강원 강릉시 옥천동(옥천오거리 부근)","acc":20,"cas":25,"dth":0,"se":5,"lon":128.899032,"lat":37.756161}},{"type":"Feature","geometry":{"type":"Polygon","coordinates":[[[128.902574,37.762129],[128.902472,37.76172],[128.90218,37.761373],[128.901742,37.761141],[128.901227,37.76106],[128.900711,37.761141],[128.900274,37.761373],[128.899982,37.76172],[128.899879,37.762129],[128.899982,37.762539],[128.900274,37.762886],[128.900711,37.763118],[128.901227,37.763199],[128.901742,37.763118],[128.90218,37.762886],[128.902472,37.762539],[128.902574,37.762129]]]},"properties":{"year":"2024","name":"강릉역육거리 회전교차로 부근","full":"강원 강릉시 옥천동(강릉역육거리 회전교차로 부근)","acc":18,"cas":27,"dth":0,"se":1,"lon":128.901227,"lat":37.762363}},{"type":"Feature","geometry":{"type":"Polygon","coordinates":[[[128.878955,37.746487],[128.878852,37.746078],[128.87856,37.745731],[128.878123,37.745499],[128.877607,37.745417],[128.877092,37.745499],[128.876654,37.745731],[128.876362,37.746078],[128.87626,37.746487],[128.876362,37.746897],[128.876654,37.747244],[128.877092,37.747476],[128.877607,37.747557],[128.878123,37.747476],[128.87856,37.747244],[128.878852,37.746897],[128.878955,37.746487]]]},"properties":{"year":"2024","name":"홍제회전교차로 부근","full":"강원 강릉시 홍제동(홍제회전교차로 부근)","acc":14,"cas":20,"dth":0,"se":3,"lon":128.877607,"lat":37.74672}},{"type":"Feature","geometry":{"type":"Polygon","coordinates":[[[128.901805,37.762956],[128.901702,37.762546],[128.90141,37.762199],[128.900973,37.761967],[128.900457,37.761886],[128.899942,37.761967],[128.899504,37.762199],[128.899212,37.762546],[128.89911,37.762956],[128.899212,37.763365],[128.899504,37.763712],[128.899942,37.763944],[128.900457,37.764025],[128.900973,37.763944],[128.90141,37.763712],[128.901702,37.763365],[128.901805,37.762956]]]},"properties":{"year":"2025","name":"강릉역육거리 회전교차로 부근","full":"강원 강릉시 옥천동(강릉역육거리 회전교차로 부근)","acc":18,"cas":24,"dth":0,"se":3,"lon":128.900457,"lat":37.763189}},{"type":"Feature","geometry":{"type":"Polygon","coordinates":[[[128.89988,37.756524],[128.899778,37.756115],[128.899486,37.755768],[128.899049,37.755536],[128.898533,37.755454],[128.898017,37.755536],[128.89758,37.755768],[128.897288,37.756115],[128.897185,37.756524],[128.897288,37.756933],[128.89758,37.757281],[128.898017,37.757512],[128.898533,37.757594],[128.899049,37.757512],[128.899486,37.757281],[128.899778,37.756933],[128.89988,37.756524]]]},"properties":{"year":"2025","name":"옥천오거리 부근","full":"강원 강릉시 옥천동(옥천오거리 부근)","acc":16,"cas":22,"dth":0,"se":4,"lon":128.898533,"lat":37.756757}},{"type":"Feature","geometry":{"type":"Polygon","coordinates":[[[128.878958,37.746343],[128.878855,37.745934],[128.878563,37.745586],[128.878126,37.745355],[128.87761,37.745273],[128.877095,37.745355],[128.876657,37.745586],[128.876365,37.745934],[128.876263,37.746343],[128.876365,37.746752],[128.876657,37.7471],[128.877095,37.747332],[128.87761,37.747413],[128.878126,37.747332],[128.878563,37.7471],[128.878855,37.746752],[128.878958,37.746343]]]},"properties":{"year":"2025","name":"홍제회전교차로 부근","full":"강원 강릉시 홍제동(홍제회전교차로 부근)","acc":14,"cas":23,"dth":0,"se":0,"lon":128.87761,"lat":37.746576}}]}