{"type":"FeatureCollection","features":[{"type":"Feature","geometry":{"type":"Point","coordinates":[128.881868,37.754815]},"properties":{"sev":"fatal","year":"2025","ym":"2025년 1월","dn":"야간","dth":1,"se":2,"sl":0,"type":"차대차 - 추돌","road":"교차로 - 교차로안","viol":"기타"}},{"type":"Feature","geometry":{"type":"Point","coordinates":[128.878153,37.750579]},"properties":{"sev":"serious","year":"2025","ym":"2025년 1월","dn":"야간","dth":0,"se":1,"sl":0,"type":"차대차 - 충돌","road":"교차로 - 교차로안","viol":"중앙선침범"}},{"type":"Feature","geometry":{"type":"Point","coordinates":[128.899032,37.756038]},"properties":{"sev":"serious","year":"2025","ym":"2025년 1월","dn":"주간","dth":0,"se":1,"sl":0,"type":"차대사람 - 횡단중","road":"교차로 - 교차로횡단보도내","viol":"보행자보호의무위반"}},{"type":"Feature","geometry":{"type":"Point","coordinates":[128.881642,37.757118]},"properties":{"sev":"serious","year":"2025","ym":"2025년 1월","dn":"주간","dth":0,"se":1,"sl":0,"type":"차대차 - 충돌","road":"교차로 - 교차로안","viol":"신호위반"}},{"type":"Feature","geometry":{"type":"Point","coordinates":[128.904497,37.75515]},"properties":{"sev":"serious","year":"2025","ym":"2025년 1월","dn":"주간","dth":0,"se":1,"sl":0,"type":"차대차 - 충돌","road":"단일로 - 기타","viol":"안전운전불이행"}},{"type":"Feature","geometry":{"type":"Point","coordinates":[128.908833,37.757083]},"properties":{"sev":"serious","year":"2025","ym":"2025년 2월","dn":"주간","dth":0,"se":1,"sl":0,"type":"차대사람 - 횡단중","road":"교차로 - 교차로횡단보도내","viol":"보행자보호의무위반"}},{"type":"Feature","geometry":{"type":"Point","coordinates":[128.877267,37.769277]},"properties":{"sev":"serious","year":"2025","ym":"2025년 2월","dn":"야간","dth":0,"se":1,"sl":0,"type":"차대차 - 충돌","road":"교차로 - 교차로안","viol":"안전운전불이행"}},{"type":"Feature","geometry":{"type":"Point","coordinates":[128.897199,37.75348]},"properties":{"sev":"serious","year":"2025","ym":"2025년 2월","dn":"주간","dth":0,"se":1,"sl":0,"type":"차대사람 - 횡단중","road":"단일로 - 기타","viol":"보행자보호의무위반"}},{"type":"Feature","geometry":{"type":"Point","coordinates":[128.879776,37.753163]},"properties":{"sev":"serious","year":"2025","ym":"2025년 3월","dn":"주간","dth":0,"se":1,"sl":0,"type":"차대차 - 충돌","road":"교차로 - 교차로안","viol":"안전운전불이행"}},{"type":"Feature","geometry":{"type":"Point","coordinates":[128.904353,37.776096]},"properties":{"sev":"serious","year":"2025","ym":"2025년 3월","dn":"주간","dth":0,"se":4,"sl":1,"type":"차대차 - 충돌","road":"단일로 - 기타","viol":"중앙선침범"}},{"type":"Feature","geometry":{"type":"Point","coordinates":[128.898001,37.757199]},"properties":{"sev":"serious","year":"2025","ym":"2025년 3월","dn":"야간","dth":0,"se":1,"sl":0,"type":"차대사람 - 횡단중","road":"단일로 - 기타","viol":"안전운전불이행"}},{"type":"Feature","geometry":{"type":"Point","coordinates":[128.891554,37.756944]},"properties":{"sev":"serious","year":"2025","ym":"2025년 3월","dn":"주간","dth":0,"se":1,"sl":0,"type":"차대사람 - 횡단중","road":"단일로 - 기타","viol":"안전운전불이행"}},{"type":"Feature","geometry":{"type":"Point","coordinates":[128.874898,37.764956]},"properties":{"sev":"serious","year":"2025","ym":"2025년 3월","dn":"야간","dth":0,"se":1,"sl":1,"type":"차대차 - 충돌","road":"단일로 - 기타","viol":"신호위반"}},{"type":"Feature","geometry":{"type":"Point","coordinates":[128.91062,37.771504]},"properties":{"sev":"serious","year":"2025","ym":"2025년 3월","dn":"주간","dth":0,"se":1,"sl":3,"type":"차대차 - 추돌","road":"교차로 - 교차로안","viol":"안전운전불이행"}},{"type":"Feature","geometry":{"type":"Point","coordinates":[128.874774,37.764947]},"properties":{"sev":"serious","year":"2025","ym":"2025년 3월","dn":"주간","dth":0,"se":1,"sl":0,"type":"차대차 - 충돌","road":"교차로 - 교차로횡단보도내","viol":"안전운전불이행"}},{"type":"Feature","geometry":{"type":"Point","coordinates":[128.90057,37.762622]},"properties":{"sev":"serious","year":"2025","ym":"2025년 3월","dn":"주간","dth":0,"se":2,"sl":0,"type":"차대차 - 충돌","road":"교차로 - 교차로안","viol":"안전운전불이행"}},{"type":"Feature","geometry":{"type":"Point","coordinates":[128.877015,37.763372]},"properties":{"sev":"serious","year":"2025","ym":"2025년 3월","dn":"주간","dth":0,"se":1,"sl":0,"type":"차대사람 - 길가장자리구역통행중","road":"단일로 - 기타","viol":"안전운전불이행"}},{"type":"Feature","geometry":{"type":"Point","coordinates":[128.891909,37.770232]},"properties":{"sev":"serious","year":"2025","ym":"2025년 4월","dn":"야간","dth":0,"se":1,"sl":1,"type":"차대차 - 충돌","road":"교차로 - 교차로안","viol":"신호위반"}},{"type":"Feature","geometry":{"type":"Point","coordinates":[128.877484,37.765349]},"properties":{"sev":"serious","year":"2025","ym":"2025년 4월","dn":"야간","dth":0,"se":1,"sl":0,"type":"차대사람 - 횡단중","road":"교차로 - 교차로횡단보도내","viol":"보행자보호의무위반"}},{"type":"Feature","geometry":{"type":"Point","coordinates":[128.897555,37.749262]},"properties":{"sev":"serious","year":"2025","ym":"2025년 5월","dn":"주간","dth":0,"se":1,"sl":0,"type":"차대차 - 충돌","road":"단일로 - 기타","viol":"안전운전불이행"}},{"type":"Feature","geometry":{"type":"Point","coordinates":[128.899994,37.755284]},"properties":{"sev":"serious","year":"2025","ym":"2025년 5월","dn":"주간","dth":0,"se":1,"sl":0,"type":"차대사람 - 보도통행중","road":"단일로 - 기타","viol":"보행자보호의무위반"}},{"type":"Feature","geometry":{"type":"Point","coordinates":[128.894817,37.760591]},"properties":{"sev":"fatal","year":"2025","ym":"2025년 5월","dn":"주간","dth":1,"se":0,"sl":0,"type":"차대차 - 충돌","road":"교차로 - 교차로부근","viol":"안전운전불이행"}},{"type":"Feature","geometry":{"type":"Point","coordinates":[128.895607,37.753779]},"properties":{"sev":"serious","year":"2025","ym":"2025년 6월","dn":"주간","dth":0,"se":1,"sl":0,"type":"차대사람 - 기타","road":"단일로 - 기타","viol":"안전운전불이행"}},{"type":"Feature","geometry":{"type":"Point","coordinates":[128.94248,37.766813]},"properties":{"sev":"fatal","year":"2025","ym":"2025년 6월","dn":"주간","dth":1,"se":1,"sl":0,"type":"차대차 - 충돌","road":"단일로 - 기타","viol":"안전운전불이행"}},{"type":"Feature","geometry":{"type":"Point","coordinates":[128.920924,37.766876]},"properties":{"sev":"serious","year":"2025","ym":"2025년 6월","dn":"주간","dth":0,"se":1,"sl":0,"type":"차량단독 - 충돌","road":"교차로 - 교차로안","viol":"안전운전불이행"}},{"type":"Feature","geometry":{"type":"Point","coordinates":[128.920754,37.790071]},"properties":{"sev":"serious","year":"2025","ym":"2025년 6월","dn":"주간","dth":0,"se":1,"sl":0,"type":"차대차 - 충돌","road":"단일로 - 기타","viol":"안전운전불이행"}},{"type":"Feature","geometry":{"type":"Point","coordinates":[128.891743,37.75521]},"properties":{"sev":"serious","year":"2025","ym":"2025년 6월","dn":"야간","dth":0,"se":1,"sl":0,"type":"차대사람 - 횡단중","road":"단일로 - 기타","viol":"중앙선침범"}},{"type":"Feature","geometry":{"type":"Point","coordinates":[128.912203,37.772926]},"properties":{"sev":"serious","year":"2025","ym":"2025년 7월","dn":"주간","dth":0,"se":1,"sl":0,"type":"차대차 - 추돌","road":"단일로 - 기타","viol":"안전운전불이행"}},{"type":"Feature","geometry":{"type":"Point","coordinates":[128.925286,37.78817]},"properties":{"sev":"serious","year":"2025","ym":"2025년 7월","dn":"주간","dth":0,"se":1,"sl":0,"type":"차대차 - 충돌","road":"교차로 - 교차로안","viol":"안전운전불이행"}},{"type":"Feature","geometry":{"type":"Point","coordinates":[128.900482,37.76266]},"properties":{"sev":"serious","year":"2025","ym":"2025년 7월","dn":"주간","dth":0,"se":1,"sl":1,"type":"차대차 - 충돌","road":"교차로 - 교차로안","viol":"안전운전불이행"}},{"type":"Feature","geometry":{"type":"Point","coordinates":[128.89968,37.799143]},"properties":{"sev":"fatal","year":"2025","ym":"2025년 7월","dn":"야간","dth":1,"se":0,"sl":0,"type":"차량단독 - 전도전복","road":"단일로 - 기타","viol":"안전운전불이행"}},{"type":"Feature","geometry":{"type":"Point","coordinates":[128.882163,37.743573]},"properties":{"sev":"serious","year":"2025","ym":"2025년 8월","dn":"주간","dth":0,"se":1,"sl":1,"type":"차대사람 - 횡단중","road":"교차로 - 교차로횡단보도내","viol":"신호위반"}},{"type":"Feature","geometry":{"type":"Point","coordinates":[128.893548,37.752115]},"properties":{"sev":"serious","year":"2025","ym":"2025년 8월","dn":"주간","dth":0,"se":1,"sl":0,"type":"차대차 - 기타","road":"단일로 - 기타","viol":"안전운전불이행"}},{"type":"Feature","geometry":{"type":"Point","coordinates":[128.903021,37.805774]},"properties":{"sev":"serious","year":"2025","ym":"2025년 8월","dn":"야간","dth":0,"se":1,"sl":1,"type":"차대차 - 충돌","road":"교차로 - 교차로안","viol":"안전운전불이행"}},{"type":"Feature","geometry":{"type":"Point","coordinates":[128.890717,37.764908]},"properties":{"sev":"serious","year":"2025","ym":"2025년 8월","dn":"야간","dth":0,"se":1,"sl":0,"type":"차대사람 - 차도통행중","road":"단일로 - 기타","viol":"안전운전불이행"}},{"type":"Feature","geometry":{"type":"Point","coordinates":[128.943677,37.76911]},"properties":{"sev":"fatal","year":"2025","ym":"2025년 8월","dn":"야간","dth":1,"se":1,"sl":0,"type":"차대차 - 충돌","road":"교차로 - 교차로안","viol":"기타"}},{"type":"Feature","geometry":{"type":"Point","coordinates":[128.882093,37.772219]},"properties":{"sev":"serious","year":"2025","ym":"2025년 9월","dn":"주간","dth":0,"se":1,"sl":0,"type":"차대차 - 충돌","road":"교차로 - 교차로부근","viol":"신호위반"}},{"type":"Feature","geometry":{"type":"Point","coordinates":[128.903767,37.752891]},"properties":{"sev":"serious","year":"2025","ym":"2025년 11월","dn":"주간","dth":0,"se":1,"sl":0,"type":"차대사람 - 횡단중","road":"교차로 - 교차로횡단보도내","viol":"신호위반"}},{"type":"Feature","geometry":{"type":"Point","coordinates":[128.882081,37.772036]},"properties":{"sev":"serious","year":"2025","ym":"2025년 11월","dn":"야간","dth":0,"se":1,"sl":0,"type":"차대차 - 충돌","road":"단일로 - 기타","viol":"안전운전불이행"}},{"type":"Feature","geometry":{"type":"Point","coordinates":[128.882101,37.754925]},"properties":{"sev":"serious","year":"2025","ym":"2025년 11월","dn":"야간","dth":0,"se":1,"sl":0,"type":"차대사람 - 횡단중","road":"교차로 - 교차로부근","viol":"안전운전불이행"}},{"type":"Feature","geometry":{"type":"Point","coordinates":[128.900521,37.762623]},"properties":{"sev":"serious","year":"2025","ym":"2025년 12월","dn":"야간","dth":0,"se":1,"sl":0,"type":"차대차 - 기타","road":"교차로 - 교차로안","viol":"안전운전불이행"}},{"type":"Feature","geometry":{"type":"Point","coordinates":[128.908328,37.762625]},"properties":{"sev":"serious","year":"2025","ym":"2025년 12월","dn":"야간","dth":0,"se":1,"sl":0,"type":"차대차 - 충돌","road":"교차로 - 교차로안","viol":"안전운전불이행"}},{"type":"Feature","geometry":{"type":"Point","coordinates":[128.892092,37.751476]},"properties":{"sev":"fatal","year":"2025","ym":"2025년 12월","dn":"야간","dth":1,"se":0,"sl":0,"type":"차대사람 - 횡단중","road":"단일로 - 기타","viol":"보행자보호의무위반"}},{"type":"Feature","geometry":{"type":"Point","coordinates":[128.89966,37.773606]},"properties":{"sev":"serious","year":"2025","ym":"2025년 4월","dn":"주간","dth":0,"se":1,"sl":0,"type":"차대차 - 충돌","road":"교차로 - 교차로부근","viol":"안전운전불이행"}},{"type":"Feature","geometry":{"type":"Point","coordinates":[128.910246,37.771147]},"properties":{"sev":"serious","year":"2025","ym":"2025년 4월","dn":"야간","dth":0,"se":1,"sl":1,"type":"차대차 - 추돌","road":"단일로 - 기타","viol":"안전운전불이행"}},{"type":"Feature","geometry":{"type":"Point","coordinates":[128.917266,37.761313]},"properties":{"sev":"serious","year":"2025","ym":"2025년 4월","dn":"야간","dth":0,"se":1,"sl":0,"type":"차대사람 - 횡단중","road":"단일로 - 기타","viol":"보행자보호의무위반"}},{"type":"Feature","geometry":{"type":"Point","coordinates":[128.899471,37.749996]},"properties":{"sev":"serious","year":"2025","ym":"2025년 6월","dn":"야간","dth":0,"se":1,"sl":0,"type":"차대사람 - 횡단중","road":"교차로 - 교차로횡단보도내","viol":"보행자보호의무위반"}},{"type":"Feature","geometry":{"type":"Point","coordinates":[128.885209,37.748146]},"properties":{"sev":"fatal","year":"2025","ym":"2025년 7월","dn":"주간","dth":1,"se":0,"sl":0,"type":"차대사람 - 횡단중","road":"단일로 - 기타","viol":"보행자보호의무위반"}},{"type":"Feature","geometry":{"type":"Point","coordinates":[128.920471,37.759921]},"properties":{"sev":"serious","year":"2025","ym":"2025년 7월","dn":"주간","dth":0,"se":1,"sl":0,"type":"차대차 - 충돌","road":"교차로 - 교차로안","viol":"안전운전불이행"}},{"type":"Feature","geometry":{"type":"Point","coordinates":[128.908585,37.768179]},"properties":{"sev":"serious","year":"2025","ym":"2025년 7월","dn":"야간","dth":0,"se":1,"sl":0,"type":"차대차 - 기타","road":"단일로 - 기타","viol":"안전운전불이행"}},{"type":"Feature","geometry":{"type":"Point","coordinates":[128.87456,37.764088]},"properties":{"sev":"serious","year":"2025","ym":"2025년 7월","dn":"주간","dth":0,"se":1,"sl":1,"type":"차대차 - 충돌","road":"교차로 - 교차로안","viol":"안전운전불이행"}},{"type":"Feature","geometry":{"type":"Point","coordinates":[128.898549,37.7562]},"properties":{"sev":"fatal","year":"2025","ym":"2025년 7월","dn":"주간","dth":1,"se":0,"sl":0,"type":"차대사람 - 횡단중","road":"단일로 - 기타","viol":"보행자보호의무위반"}},{"type":"Feature","geometry":{"type":"Point","coordinates":[128.946474,37.773271]},"properties":{"sev":"serious","year":"2025","ym":"2025년 8월","dn":"야간","dth":0,"se":2,"sl":0,"type":"차대차 - 충돌","road":"주차장 - 주차장","viol":"안전운전불이행"}},{"type":"Feature","geometry":{"type":"Point","coordinates":[128.89737,37.750915]},"properties":{"sev":"serious","year":"2025","ym":"2025년 10월","dn":"야간","dth":0,"se":2,"sl":0,"type":"차대차 - 충돌","road":"주차장 - 주차장","viol":"안전운전불이행"}},{"type":"Feature","geometry":{"type":"Point","coordinates":[128.895452,37.74443]},"properties":{"sev":"serious","year":"2025","ym":"2025년 10월","dn":"야간","dth":0,"se":1,"sl":0,"type":"차대사람 - 기타","road":"교차로 - 교차로안","viol":"안전운전불이행"}},{"type":"Feature","geometry":{"type":"Point","coordinates":[128.912325,37.770422]},"properties":{"sev":"serious","year":"2025","ym":"2025년 10월","dn":"야간","dth":0,"se":1,"sl":0,"type":"차대사람 - 기타","road":"교차로 - 교차로안","viol":"안전운전불이행"}},{"type":"Feature","geometry":{"type":"Point","coordinates":[128.911435,37.756215]},"properties":{"sev":"serious","year":"2025","ym":"2025년 10월","dn":"야간","dth":0,"se":1,"sl":0,"type":"차대사람 - 차도통행중","road":"단일로 - 기타","viol":"안전운전불이행"}},{"type":"Feature","geometry":{"type":"Point","coordinates":[128.90725,37.763443]},"properties":{"sev":"serious","year":"2025","ym":"2025년 10월","dn":"주간","dth":0,"se":1,"sl":0,"type":"차대차 - 충돌","road":"교차로 - 교차로안","viol":"기타"}},{"type":"Feature","geometry":{"type":"Point","coordinates":[128.887853,37.764005]},"properties":{"sev":"serious","year":"2025","ym":"2025년 11월","dn":"주간","dth":0,"se":1,"sl":0,"type":"차대사람 - 기타","road":"단일로 - 기타","viol":"안전운전불이행"}},{"type":"Feature","geometry":{"type":"Point","coordinates":[128.925054,37.773254]},"properties":{"sev":"serious","year":"2025","ym":"2025년 11월","dn":"야간","dth":0,"se":1,"sl":0,"type":"차대차 - 기타","road":"교차로 - 교차로안","viol":"안전운전불이행"}},{"type":"Feature","geometry":{"type":"Point","coordinates":[128.911165,37.76983]},"properties":{"sev":"fatal","year":"2025","ym":"2025년 11월","dn":"주간","dth":1,"se":0,"sl":0,"type":"차대사람 - 차도통행중","road":"교차로 - 교차로안","viol":"안전운전불이행"}},{"type":"Feature","geometry":{"type":"Point","coordinates":[128.915122,37.788897]},"properties":{"sev":"serious","year":"2025","ym":"2025년 1월","dn":"주간","dth":0,"se":1,"sl":0,"type":"차대차 - 충돌","road":"교차로 - 교차로안","viol":"신호위반"}},{"type":"Feature","geometry":{"type":"Point","coordinates":[128.897303,37.757717]},"properties":{"sev":"serious","year":"2025","ym":"2025년 1월","dn":"야간","dth":0,"se":1,"sl":0,"type":"차대사람 - 횡단중","road":"교차로 - 교차로안","viol":"안전운전불이행"}},{"type":"Feature","geometry":{"type":"Point","coordinates":[128.900068,37.755308]},"properties":{"sev":"serious","year":"2025","ym":"2025년 1월","dn":"야간","dth":0,"se":1,"sl":0,"type":"차대사람 - 횡단중","road":"교차로 - 교차로횡단보도내","viol":"보행자보호의무위반"}},{"type":"Feature","geometry":{"type":"Point","coordinates":[128.898587,37.756137]},"properties":{"sev":"serious","year":"2025","ym":"2025년 1월","dn":"주간","dth":0,"se":1,"sl":0,"type":"차대사람 - 횡단중","road":"단일로 - 기타","viol":"보행자보호의무위반"}},{"type":"Feature","geometry":{"type":"Point","coordinates":[128.910636,37.766553]},"properties":{"sev":"serious","year":"2025","ym":"2025년 2월","dn":"주간","dth":0,"se":1,"sl":0,"type":"차대사람 - 횡단중","road":"교차로 - 교차로횡단보도내","viol":"안전운전불이행"}},{"type":"Feature","geometry":{"type":"Point","coordinates":[128.883469,37.747352]},"properties":{"sev":"serious","year":"2025","ym":"2025년 2월","dn":"야간","dth":0,"se":1,"sl":0,"type":"차대차 - 추돌","road":"단일로 - 교량","viol":"안전운전불이행"}},{"type":"Feature","geometry":{"type":"Point","coordinates":[128.877991,37.767788]},"properties":{"sev":"serious","year":"2025","ym":"2025년 2월","dn":"야간","dth":0,"se":1,"sl":0,"type":"차대차 - 충돌","road":"단일로 - 기타","viol":"안전운전불이행"}},{"type":"Feature","geometry":{"type":"Point","coordinates":[128.894751,37.760551]},"properties":{"sev":"serious","year":"2025","ym":"2025년 2월","dn":"주간","dth":0,"se":1,"sl":0,"type":"차대사람 - 횡단중","road":"교차로 - 교차로횡단보도내","viol":"보행자보호의무위반"}},{"type":"Feature","geometry":{"type":"Point","coordinates":[128.881692,37.756481]},"properties":{"sev":"serious","year":"2025","ym":"2025년 2월","dn":"야간","dth":0,"se":1,"sl":0,"type":"차대사람 - 횡단중","road":"단일로 - 기타","viol":"안전운전불이행"}},{"type":"Feature","geometry":{"type":"Point","coordinates":[128.898909,37.754505]},"properties":{"sev":"serious","year":"2025","ym":"2025년 2월","dn":"주간","dth":0,"se":1,"sl":0,"type":"차대사람 - 횡단중","road":"단일로 - 기타","viol":"보행자보호의무위반"}},{"type":"Feature","geometry":{"type":"Point","coordinates":[128.898691,37.756412]},"properties":{"sev":"serious","year":"2025","ym":"2025년 2월","dn":"주간","dth":0,"se":1,"sl":0,"type":"차대차 - 충돌","road":"교차로 - 교차로안","viol":"안전운전불이행"}},{"type":"Feature","geometry":{"type":"Point","coordinates":[128.889253,37.745744]},"properties":{"sev":"serious","year":"2025","ym":"2025년 2월","dn":"주간","dth":0,"se":1,"sl":0,"type":"차대사람 - 차도통행중","road":"단일로 - 기타","viol":"안전운전불이행"}},{"type":"Feature","geometry":{"type":"Point","coordinates":[128.915128,37.788913]},"properties":{"sev":"fatal","year":"2025","ym":"2025년 5월","dn":"주간","dth":1,"se":0,"sl":0,"type":"차대사람 - 횡단중","road":"교차로 - 교차로횡단보도내","viol":"보행자보호의무위반"}},{"type":"Feature","geometry":{"type":"Point","coordinates":[128.895531,37.74875]},"properties":{"sev":"serious","year":"2025","ym":"2025년 5월","dn":"주간","dth":0,"se":1,"sl":0,"type":"차대사람 - 횡단중","road":"단일로 - 기타","viol":"안전운전불이행"}},{"type":"Feature","geometry":{"type":"Point","coordinates":[128.885997,37.751553]},"properties":{"sev":"serious","year":"2025","ym":"2025년 5월","dn":"주간","dth":0,"se":1,"sl":0,"type":"차대사람 - 횡단중","road":"교차로 - 교차로횡단보도내","viol":"보행자보호의무위반"}},{"type":"Feature","geometry":{"type":"Point","coordinates":[128.913525,37.764193]},"properties":{"sev":"serious","year":"2025","ym":"2025년 5월","dn":"주간","dth":0,"se":1,"sl":0,"type":"차량단독 - 전도전복","road":"단일로 - 기타","viol":"안전운전불이행"}},{"type":"Feature","geometry":{"type":"Point","coordinates":[128.87431,37.771941]},"properties":{"sev":"serious","year":"2025","ym":"2025년 5월","dn":"야간","dth":0,"se":1,"sl":0,"type":"차대사람 - 횡단중","road":"교차로 - 교차로횡단보도내","viol":"보행자보호의무위반"}},{"type":"Feature","geometry":{"type":"Point","coordinates":[128.899029,37.756458]},"properties":{"sev":"serious","year":"2025","ym":"2025년 5월","dn":"주간","dth":0,"se":1,"sl":0,"type":"차대차 - 충돌","road":"교차로 - 교차로부근","viol":"안전운전불이행"}},{"type":"Feature","geometry":{"type":"Point","coordinates":[128.892144,37.763357]},"properties":{"sev":"serious","year":"2025","ym":"2025년 5월","dn":"야간","dth":0,"se":1,"sl":0,"type":"차대차 - 충돌","road":"교차로 - 교차로안","viol":"신호위반"}},{"type":"Feature","geometry":{"type":"Point","coordinates":[128.881608,37.747717]},"properties":{"sev":"fatal","year":"2025","ym":"2025년 5월","dn":"주간","dth":1,"se":0,"sl":0,"type":"차대차 - 충돌","road":"단일로 - 기타","viol":"안전운전불이행"}},{"type":"Feature","geometry":{"type":"Point","coordinates":[128.895964,37.791791]},"properties":{"sev":"serious","year":"2025","ym":"2025년 5월","dn":"야간","dth":0,"se":2,"sl":0,"type":"차대차 - 충돌","road":"단일로 - 기타","viol":"기타"}},{"type":"Feature","geometry":{"type":"Point","coordinates":[128.903352,37.770345]},"properties":{"sev":"fatal","year":"2025","ym":"2025년 6월","dn":"야간","dth":1,"se":0,"sl":0,"type":"차량단독 - 충돌","road":"단일로 - 기타","viol":"안전운전불이행"}},{"type":"Feature","geometry":{"type":"Point","coordinates":[128.897927,37.757229]},"properties":{"sev":"serious","year":"2025","ym":"2025년 6월","dn":"주간","dth":0,"se":1,"sl":0,"type":"차대사람 - 횡단중","road":"단일로 - 기타","viol":"보행자보호의무위반"}},{"type":"Feature","geometry":{"type":"Point","coordinates":[128.898865,37.756162]},"properties":{"sev":"serious","year":"2025","ym":"2025년 6월","dn":"주간","dth":0,"se":1,"sl":0,"type":"차대차 - 기타","road":"교차로 - 교차로안","viol":"안전운전불이행"}},{"type":"Feature","geometry":{"type":"Point","coordinates":[128.893663,37.75826]},"properties":{"sev":"serious","year":"2025","ym":"2025년 6월","dn":"주간","dth":0,"se":1,"sl":0,"type":"차대사람 - 횡단중","road":"교차로 - 교차로부근","viol":"안전운전불이행"}},{"type":"Feature","geometry":{"type":"Point","coordinates":[128.900401,37.759519]},"properties":{"sev":"serious","year":"2025","ym":"2025년 6월","dn":"야간","dth":0,"se":1,"sl":0,"type":"차대사람 - 길가장자리구역통행중","road":"교차로 - 교차로부근","viol":"안전운전불이행"}},{"type":"Feature","geometry":{"type":"Point","coordinates":[128.909408,37.770229]},"properties":{"sev":"serious","year":"2025","ym":"2025년 7월","dn":"주간","dth":0,"se":1,"sl":0,"type":"차대차 - 기타","road":"단일로 - 기타","viol":"안전운전불이행"}},{"type":"Feature","geometry":{"type":"Point","coordinates":[128.914453,37.798993]},"properties":{"sev":"serious","year":"2025","ym":"2025년 8월","dn":"야간","dth":0,"se":1,"sl":0,"type":"차대차 - 기타","road":"단일로 - 기타","viol":"안전운전불이행"}},{"type":"Feature","geometry":{"type":"Point","coordinates":[128.943079,37.773643]},"properties":{"sev":"serious","year":"2025","ym":"2025년 8월","dn":"주간","dth":0,"se":1,"sl":0,"type":"차대차 - 추돌","road":"교차로 - 교차로부근","viol":"신호위반"}},{"type":"Feature","geometry":{"type":"Point","coordinates":[128.902615,37.808431]},"properties":{"sev":"serious","year":"2025","ym":"2025년 8월","dn":"야간","dth":0,"se":1,"sl":0,"type":"차대사람 - 횡단중","road":"단일로 - 기타","viol":"보행자보호의무위반"}},{"type":"Feature","geometry":{"type":"Point","coordinates":[128.903208,37.766481]},"properties":{"sev":"serious","year":"2025","ym":"2025년 8월","dn":"주간","dth":0,"se":1,"sl":1,"type":"차대사람 - 횡단중","road":"교차로 - 교차로횡단보도내","viol":"보행자보호의무위반"}},{"type":"Feature","geometry":{"type":"Point","coordinates":[128.930725,37.776062]},"properties":{"sev":"serious","year":"2025","ym":"2025년 9월","dn":"주간","dth":0,"se":1,"sl":0,"type":"차대사람 - 횡단중","road":"단일로 - 기타","viol":"안전운전불이행"}},{"type":"Feature","geometry":{"type":"Point","coordinates":[128.912749,37.752759]},"properties":{"sev":"serious","year":"2025","ym":"2025년 9월","dn":"주간","dth":0,"se":1,"sl":0,"type":"차대차 - 기타","road":"교차로 - 교차로안","viol":"안전운전불이행"}},{"type":"Feature","geometry":{"type":"Point","coordinates":[128.900028,37.755293]},"properties":{"sev":"serious","year":"2025","ym":"2025년 9월","dn":"야간","dth":0,"se":1,"sl":1,"type":"차대차 - 충돌","road":"교차로 - 교차로안","viol":"안전운전불이행"}},{"type":"Feature","geometry":{"type":"Point","coordinates":[128.899492,37.762138]},"properties":{"sev":"fatal","year":"2025","ym":"2025년 9월","dn":"야간","dth":1,"se":0,"sl":0,"type":"차대사람 - 기타","road":"단일로 - 기타","viol":"기타"}},{"type":"Feature","geometry":{"type":"Point","coordinates":[128.895419,37.750376]},"properties":{"sev":"serious","year":"2025","ym":"2025년 9월","dn":"주간","dth":0,"se":1,"sl":0,"type":"차대차 - 충돌","road":"교차로 - 교차로안","viol":"신호위반"}},{"type":"Feature","geometry":{"type":"Point","coordinates":[128.880475,37.739373]},"properties":{"sev":"serious","year":"2025","ym":"2025년 9월","dn":"주간","dth":0,"se":1,"sl":1,"type":"차대차 - 충돌","road":"교차로 - 교차로안","viol":"안전운전불이행"}},{"type":"Feature","geometry":{"type":"Point","coordinates":[128.891848,37.758743]},"properties":{"sev":"serious","year":"2025","ym":"2025년 9월","dn":"주간","dth":0,"se":1,"sl":3,"type":"차대차 - 충돌","road":"교차로 - 교차로안","viol":"신호위반"}},{"type":"Feature","geometry":{"type":"Point","coordinates":[128.890491,37.749284]},"properties":{"sev":"serious","year":"2025","ym":"2025년 9월","dn":"주간","dth":0,"se":1,"sl":0,"type":"차대차 - 충돌","road":"교차로 - 교차로안","viol":"신호위반"}},{"type":"Feature","geometry":{"type":"Point","coordinates":[128.873724,37.765078]},"properties":{"sev":"serious","year":"2025","ym":"2025년 9월","dn":"주간","dth":0,"se":1,"sl":0,"type":"차대사람 - 횡단중","road":"교차로 - 교차로부근","viol":"안전운전불이행"}},{"type":"Feature","geometry":{"type":"Point","coordinates":[128.889599,37.753647]},"properties":{"sev":"serious","year":"2025","ym":"2025년 11월","dn":"주간","dth":0,"se":1,"sl":0,"type":"차대사람 - 횡단중","road":"교차로 - 교차로횡단보도내","viol":"보행자보호의무위반"}},{"type":"Feature","geometry":{"type":"Point","coordinates":[128.878206,37.750613]},"properties":{"sev":"serious","year":"2025","ym":"2025년 11월","dn":"주간","dth":0,"se":1,"sl":2,"type":"차대차 - 충돌","road":"단일로 - 기타","viol":"안전운전불이행"}},{"type":"Feature","geometry":{"type":"Point","coordinates":[128.89401,37.7533]},"properties":{"sev":"serious","year":"2025","ym":"2025년 11월","dn":"주간","dth":0,"se":1,"sl":0,"type":"차대차 - 충돌","road":"단일로 - 기타","viol":"안전운전불이행"}},{"type":"Feature","geometry":{"type":"Point","coordinates":[128.881855,37.754813]},"properties":{"sev":"serious","year":"2025","ym":"2025년 11월","dn":"주간","dth":0,"se":2,"sl":0,"type":"차대차 - 충돌","road":"교차로 - 교차로안","viol":"안전운전불이행"}},{"type":"Feature","geometry":{"type":"Point","coordinates":[128.894697,37.769684]},"properties":{"sev":"serious","year":"2025","ym":"2025년 11월","dn":"야간","dth":0,"se":1,"sl":0,"type":"차대사람 - 횡단중","road":"교차로 - 교차로횡단보도내","viol":"보행자보호의무위반"}},{"type":"Feature","geometry":{"type":"Point","coordinates":[128.913823,37.764026]},"properties":{"sev":"serious","year":"2025","ym":"2025년 11월","dn":"야간","dth":0,"se":1,"sl":0,"type":"차대차 - 충돌","road":"교차로 - 교차로안","viol":"신호위반"}},{"type":"Feature","geometry":{"type":"Point","coordinates":[128.914932,37.78444]},"properties":{"sev":"serious","year":"2025","ym":"2025년 12월","dn":"주간","dth":0,"se":2,"sl":0,"type":"차대차 - 추돌","road":"기타 - 기타","viol":"안전운전불이행"}},{"type":"Feature","geometry":{"type":"Point","coordinates":[128.921044,37.771085]},"properties":{"sev":"serious","year":"2025","ym":"2025년 12월","dn":"주간","dth":0,"se":1,"sl":0,"type":"차대차 - 충돌","road":"단일로 - 기타","viol":"안전운전불이행"}},{"type":"Feature","geometry":{"type":"Point","coordinates":[128.90491,37.752416]},"properties":{"sev":"serious","year":"2025","ym":"2025년 12월","dn":"주간","dth":0,"se":1,"sl":0,"type":"차대차 - 충돌","road":"교차로 - 교차로안","viol":"안전운전불이행"}},{"type":"Feature","geometry":{"type":"Point","coordinates":[128.896512,37.752924]},"properties":{"sev":"serious","year":"2025","ym":"2025년 12월","dn":"야간","dth":0,"se":1,"sl":0,"type":"차대사람 - 횡단중","road":"교차로 - 교차로횡단보도내","viol":"보행자보호의무위반"}},{"type":"Feature","geometry":{"type":"Point","coordinates":[128.898779,37.76149]},"properties":{"sev":"fatal","year":"2025","ym":"2025년 12월","dn":"야간","dth":1,"se":0,"sl":0,"type":"차대사람 - 횡단중","road":"단일로 - 기타","viol":"보행자보호의무위반"}},{"type":"Feature","geometry":{"type":"Point","coordinates":[128.917988,37.795553]},"properties":{"sev":"serious","year":"2025","ym":"2025년 12월","dn":"주간","dth":0,"se":1,"sl":0,"type":"차대사람 - 횡단중","road":"교차로 - 교차로부근","viol":"안전운전불이행"}},{"type":"Feature","geometry":{"type":"Point","coordinates":[128.886782,37.757112]},"properties":{"sev":"serious","year":"2025","ym":"2025년 12월","dn":"주간","dth":0,"se":1,"sl":0,"type":"차대사람 - 횡단중","road":"교차로 - 교차로횡단보도내","viol":"보행자보호의무위반"}},{"type":"Feature","geometry":{"type":"Point","coordinates":[128.898653,37.774496]},"properties":{"sev":"serious","year":"2024","ym":"2024년 6월","dn":"주간","dth":0,"se":1,"sl":0,"type":"차대차 - 충돌","road":"교차로 - 교차로부근","viol":"안전운전불이행"}},{"type":"Feature","geometry":{"type":"Point","coordinates":[128.900553,37.770842]},"properties":{"sev":"fatal","year":"2024","ym":"2024년 7월","dn":"주간","dth":1,"se":0,"sl":0,"type":"차대차 - 기타","road":"교차로 - 교차로횡단보도내","viol":"안전운전불이행"}},{"type":"Feature","geometry":{"type":"Point","coordinates":[128.920003,37.75584]},"properties":{"sev":"serious","year":"2024","ym":"2024년 10월","dn":"야간","dth":0,"se":1,"sl":0,"type":"차대사람 - 횡단중","road":"교차로 - 교차로횡단보도내","viol":"보행자보호의무위반"}},{"type":"Feature","geometry":{"type":"Point","coordinates":[128.907536,37.773397]},"properties":{"sev":"serious","year":"2024","ym":"2024년 10월","dn":"주간","dth":0,"se":1,"sl":0,"type":"차대사람 - 기타","road":"단일로 - 기타","viol":"안전운전불이행"}},{"type":"Feature","geometry":{"type":"Point","coordinates":[128.917457,37.769824]},"properties":{"sev":"serious","year":"2024","ym":"2024년 7월","dn":"주간","dth":0,"se":1,"sl":0,"type":"차대사람 - 횡단중","road":"단일로 - 기타","viol":"안전운전불이행"}},{"type":"Feature","geometry":{"type":"Point","coordinates":[128.897651,37.7606]},"properties":{"sev":"serious","year":"2024","ym":"2024년 4월","dn":"야간","dth":0,"se":1,"sl":0,"type":"차대사람 - 횡단중","road":"단일로 - 기타","viol":"보행자보호의무위반"}},{"type":"Feature","geometry":{"type":"Point","coordinates":[128.917079,37.761435]},"properties":{"sev":"serious","year":"2024","ym":"2024년 5월","dn":"야간","dth":0,"se":1,"sl":0,"type":"차대차 - 충돌","road":"교차로 - 교차로안","viol":"안전운전불이행"}},{"type":"Feature","geometry":{"type":"Point","coordinates":[128.900168,37.760762]},"properties":{"sev":"serious","year":"2024","ym":"2024년 1월","dn":"주간","dth":0,"se":1,"sl":0,"type":"차대사람 - 길가장자리구역통행중","road":"교차로 - 교차로부근","viol":"중앙선침범"}},{"type":"Feature","geometry":{"type":"Point","coordinates":[128.920008,37.754309]},"properties":{"sev":"serious","year":"2024","ym":"2024년 8월","dn":"야간","dth":0,"se":1,"sl":0,"type":"차대사람 - 기타","road":"교차로 - 교차로횡단보도내","viol":"보행자보호의무위반"}},{"type":"Feature","geometry":{"type":"Point","coordinates":[128.908457,37.754748]},"properties":{"sev":"serious","year":"2024","ym":"2024년 5월","dn":"주간","dth":0,"se":1,"sl":0,"type":"차대차 - 추돌","road":"기타 - 기타","viol":"안전운전불이행"}},{"type":"Feature","geometry":{"type":"Point","coordinates":[128.903308,37.752568]},"properties":{"sev":"serious","year":"2024","ym":"2024년 1월","dn":"야간","dth":0,"se":1,"sl":0,"type":"차대사람 - 횡단중","road":"단일로 - 기타","viol":"안전운전불이행"}},{"type":"Feature","geometry":{"type":"Point","coordinates":[128.903751,37.752945]},"properties":{"sev":"serious","year":"2024","ym":"2024년 12월","dn":"야간","dth":0,"se":1,"sl":0,"type":"차대차 - 충돌","road":"교차로 - 교차로안","viol":"신호위반"}},{"type":"Feature","geometry":{"type":"Point","coordinates":[128.903508,37.751654]},"properties":{"sev":"serious","year":"2024","ym":"2024년 2월","dn":"야간","dth":0,"se":1,"sl":0,"type":"차대사람 - 기타","road":"기타 - 기타","viol":"안전운전불이행"}},{"type":"Feature","geometry":{"type":"Point","coordinates":[128.903637,37.753001]},"properties":{"sev":"serious","year":"2024","ym":"2024년 2월","dn":"야간","dth":0,"se":1,"sl":0,"type":"차대차 - 기타","road":"교차로 - 교차로부근","viol":"안전운전불이행"}},{"type":"Feature","geometry":{"type":"Point","coordinates":[128.874844,37.765799]},"properties":{"sev":"serious","year":"2024","ym":"2024년 7월","dn":"주간","dth":0,"se":1,"sl":0,"type":"차대사람 - 차도통행중","road":"주차장 - 주차장","viol":"안전운전불이행"}},{"type":"Feature","geometry":{"type":"Point","coordinates":[128.873433,37.765214]},"properties":{"sev":"serious","year":"2024","ym":"2024년 4월","dn":"주간","dth":0,"se":1,"sl":2,"type":"차대차 - 추돌","road":"교차로 - 교차로부근","viol":"안전운전불이행"}},{"type":"Feature","geometry":{"type":"Point","coordinates":[128.87206,37.761138]},"properties":{"sev":"fatal","year":"2024","ym":"2024년 5월","dn":"야간","dth":1,"se":0,"sl":0,"type":"차대사람 - 기타","road":"단일로 - 기타","viol":"안전운전불이행"}},{"type":"Feature","geometry":{"type":"Point","coordinates":[128.914428,37.769951]},"properties":{"sev":"serious","year":"2024","ym":"2024년 8월","dn":"주간","dth":0,"se":1,"sl":0,"type":"차대사람 - 횡단중","road":"교차로 - 교차로안","viol":"안전운전불이행"}},{"type":"Feature","geometry":{"type":"Point","coordinates":[128.905112,37.759381]},"properties":{"sev":"serious","year":"2024","ym":"2024년 12월","dn":"주간","dth":0,"se":1,"sl":0,"type":"차대차 - 충돌","road":"단일로 - 기타","viol":"안전운전불이행"}},{"type":"Feature","geometry":{"type":"Point","coordinates":[128.914377,37.761212]},"properties":{"sev":"serious","year":"2024","ym":"2024년 12월","dn":"야간","dth":0,"se":1,"sl":0,"type":"차대사람 - 차도통행중","road":"단일로 - 기타","viol":"안전운전불이행"}},{"type":"Feature","geometry":{"type":"Point","coordinates":[128.915761,37.762462]},"properties":{"sev":"serious","year":"2024","ym":"2024년 7월","dn":"야간","dth":0,"se":1,"sl":0,"type":"차대사람 - 기타","road":"기타 - 기타","viol":"안전운전불이행"}},{"type":"Feature","geometry":{"type":"Point","coordinates":[128.895045,37.760002]},"properties":{"sev":"serious","year":"2024","ym":"2024년 3월","dn":"주간","dth":0,"se":1,"sl":0,"type":"차대차 - 추돌","road":"교차로 - 교차로부근","viol":"안전운전불이행"}},{"type":"Feature","geometry":{"type":"Point","coordinates":[128.895783,37.759283]},"properties":{"sev":"serious","year":"2024","ym":"2024년 8월","dn":"주간","dth":0,"se":1,"sl":0,"type":"차대차 - 기타","road":"교차로 - 교차로안","viol":"안전운전불이행"}},{"type":"Feature","geometry":{"type":"Point","coordinates":[128.895714,37.758942]},"properties":{"sev":"serious","year":"2024","ym":"2024년 10월","dn":"야간","dth":0,"se":1,"sl":0,"type":"차대차 - 기타","road":"교차로 - 교차로안","viol":"안전운전불이행"}},{"type":"Feature","geometry":{"type":"Point","coordinates":[128.895612,37.75903]},"properties":{"sev":"serious","year":"2024","ym":"2024년 8월","dn":"주간","dth":0,"se":1,"sl":0,"type":"차대차 - 기타","road":"교차로 - 교차로안","viol":"안전운전불이행"}},{"type":"Feature","geometry":{"type":"Point","coordinates":[128.899164,37.755921]},"properties":{"sev":"serious","year":"2024","ym":"2024년 8월","dn":"주간","dth":0,"se":1,"sl":0,"type":"차대차 - 추돌","road":"단일로 - 기타","viol":"안전운전불이행"}},{"type":"Feature","geometry":{"type":"Point","coordinates":[128.898984,37.757345]},"properties":{"sev":"serious","year":"2024","ym":"2024년 8월","dn":"주간","dth":0,"se":1,"sl":0,"type":"차대차 - 충돌","road":"교차로 - 교차로횡단보도내","viol":"안전운전불이행"}},{"type":"Feature","geometry":{"type":"Point","coordinates":[128.898578,37.756196]},"properties":{"sev":"serious","year":"2024","ym":"2024년 8월","dn":"주간","dth":0,"se":1,"sl":0,"type":"차대사람 - 횡단중","road":"교차로 - 교차로횡단보도내","viol":"보행자보호의무위반"}},{"type":"Feature","geometry":{"type":"Point","coordinates":[128.899079,37.756578]},"properties":{"sev":"serious","year":"2024","ym":"2024년 8월","dn":"주간","dth":0,"se":1,"sl":0,"type":"차대사람 - 횡단중","road":"기타 - 기타","viol":"보행자보호의무위반"}},{"type":"Feature","geometry":{"type":"Point","coordinates":[128.896835,37.75511]},"properties":{"sev":"serious","year":"2024","ym":"2024년 3월","dn":"주간","dth":0,"se":1,"sl":1,"type":"차대차 - 충돌","road":"단일로 - 기타","viol":"안전운전불이행"}},{"type":"Feature","geometry":{"type":"Point","coordinates":[128.896155,37.754653]},"properties":{"sev":"serious","year":"2024","ym":"2024년 11월","dn":"야간","dth":0,"se":1,"sl":0,"type":"차대사람 - 보도통행중","road":"단일로 - 기타","viol":"기타"}},{"type":"Feature","geometry":{"type":"Point","coordinates":[128.896519,37.752922]},"properties":{"sev":"serious","year":"2024","ym":"2024년 6월","dn":"주간","dth":0,"se":1,"sl":0,"type":"차대사람 - 횡단중","road":"교차로 - 교차로횡단보도내","viol":"보행자보호의무위반"}},{"type":"Feature","geometry":{"type":"Point","coordinates":[128.89802,37.753993]},"properties":{"sev":"serious","year":"2024","ym":"2024년 10월","dn":"야간","dth":0,"se":1,"sl":0,"type":"차대사람 - 기타","road":"교차로 - 교차로안","viol":"안전운전불이행"}},{"type":"Feature","geometry":{"type":"Point","coordinates":[128.89611,37.754658]},"properties":{"sev":"serious","year":"2024","ym":"2024년 10월","dn":"야간","dth":0,"se":1,"sl":0,"type":"차량단독 - 기타","road":"단일로 - 기타","viol":"안전운전불이행"}},{"type":"Feature","geometry":{"type":"Point","coordinates":[128.916301,37.791679]},"properties":{"sev":"serious","year":"2024","ym":"2024년 8월","dn":"주간","dth":0,"se":2,"sl":3,"type":"차대차 - 기타","road":"교차로 - 교차로부근","viol":"안전운전불이행"}},{"type":"Feature","geometry":{"type":"Point","coordinates":[128.919297,37.791607]},"properties":{"sev":"serious","year":"2024","ym":"2024년 6월","dn":"주간","dth":0,"se":1,"sl":1,"type":"차대차 - 충돌","road":"교차로 - 교차로안","viol":"신호위반"}},{"type":"Feature","geometry":{"type":"Point","coordinates":[128.919887,37.782832]},"properties":{"sev":"serious","year":"2024","ym":"2024년 10월","dn":"야간","dth":0,"se":1,"sl":1,"type":"차대사람 - 횡단중","road":"교차로 - 교차로횡단보도내","viol":"보행자보호의무위반"}},{"type":"Feature","geometry":{"type":"Point","coordinates":[128.895516,37.742284]},"properties":{"sev":"serious","year":"2024","ym":"2024년 8월","dn":"야간","dth":0,"se":1,"sl":0,"type":"차대차 - 충돌","road":"단일로 - 기타","viol":"안전운전불이행"}},{"type":"Feature","geometry":{"type":"Point","coordinates":[128.937991,37.779272]},"properties":{"sev":"serious","year":"2024","ym":"2024년 6월","dn":"주간","dth":0,"se":1,"sl":0,"type":"차대차 - 충돌","road":"기타 - 기타","viol":"안전운전불이행"}},{"type":"Feature","geometry":{"type":"Point","coordinates":[128.893496,37.756694]},"properties":{"sev":"serious","year":"2024","ym":"2024년 2월","dn":"주간","dth":0,"se":1,"sl":0,"type":"차대사람 - 차도통행중","road":"기타 - 기타","viol":"안전운전불이행"}},{"type":"Feature","geometry":{"type":"Point","coordinates":[128.893687,37.758296]},"properties":{"sev":"serious","year":"2024","ym":"2024년 8월","dn":"주간","dth":0,"se":1,"sl":0,"type":"차대차 - 충돌","road":"교차로 - 교차로안","viol":"안전운전불이행"}},{"type":"Feature","geometry":{"type":"Point","coordinates":[128.891577,37.755969]},"properties":{"sev":"serious","year":"2024","ym":"2024년 8월","dn":"주간","dth":0,"se":1,"sl":0,"type":"차대사람 - 보도통행중","road":"단일로 - 기타","viol":"기타"}},{"type":"Feature","geometry":{"type":"Point","coordinates":[128.912049,37.800885]},"properties":{"sev":"serious","year":"2024","ym":"2024년 5월","dn":"야간","dth":0,"se":1,"sl":0,"type":"차대사람 - 횡단중","road":"교차로 - 교차로안","viol":"안전운전불이행"}},{"type":"Feature","geometry":{"type":"Point","coordinates":[128.90988,37.798551]},"properties":{"sev":"serious","year":"2024","ym":"2024년 10월","dn":"주간","dth":0,"se":1,"sl":0,"type":"차대사람 - 보도통행중","road":"단일로 - 교량","viol":"기타"}},{"type":"Feature","geometry":{"type":"Point","coordinates":[128.889813,37.753721]},"properties":{"sev":"serious","year":"2024","ym":"2024년 4월","dn":"주간","dth":0,"se":1,"sl":0,"type":"차대사람 - 횡단중","road":"교차로 - 교차로횡단보도내","viol":"보행자보호의무위반"}},{"type":"Feature","geometry":{"type":"Point","coordinates":[128.88169,37.761354]},"properties":{"sev":"serious","year":"2024","ym":"2024년 12월","dn":"야간","dth":0,"se":1,"sl":0,"type":"차대차 - 충돌","road":"교차로 - 교차로안","viol":"안전운전불이행"}},{"type":"Feature","geometry":{"type":"Point","coordinates":[128.895401,37.75175]},"properties":{"sev":"serious","year":"2024","ym":"2024년 8월","dn":"주간","dth":0,"se":1,"sl":0,"type":"차대사람 - 횡단중","road":"기타 - 기타","viol":"안전운전불이행"}},{"type":"Feature","geometry":{"type":"Point","coordinates":[128.893199,37.752496]},"properties":{"sev":"serious","year":"2024","ym":"2024년 11월","dn":"주간","dth":0,"se":1,"sl":0,"type":"차대사람 - 횡단중","road":"교차로 - 교차로부근","viol":"안전운전불이행"}},{"type":"Feature","geometry":{"type":"Point","coordinates":[128.879876,37.753318]},"properties":{"sev":"serious","year":"2024","ym":"2024년 4월","dn":"야간","dth":0,"se":1,"sl":0,"type":"차대사람 - 횡단중","road":"교차로 - 교차로횡단보도내","viol":"보행자보호의무위반"}},{"type":"Feature","geometry":{"type":"Point","coordinates":[128.879734,37.753065]},"properties":{"sev":"serious","year":"2024","ym":"2024년 5월","dn":"야간","dth":0,"se":1,"sl":0,"type":"차대차 - 충돌","road":"교차로 - 교차로안","viol":"신호위반"}},{"type":"Feature","geometry":{"type":"Point","coordinates":[128.884443,37.768612]},"properties":{"sev":"serious","year":"2024","ym":"2024년 8월","dn":"야간","dth":0,"se":1,"sl":0,"type":"차대사람 - 횡단중","road":"교차로 - 교차로횡단보도내","viol":"보행자보호의무위반"}},{"type":"Feature","geometry":{"type":"Point","coordinates":[128.881512,37.77149]},"properties":{"sev":"serious","year":"2024","ym":"2024년 7월","dn":"주간","dth":0,"se":1,"sl":0,"type":"차대차 - 충돌","road":"교차로 - 교차로횡단보도내","viol":"신호위반"}},{"type":"Feature","geometry":{"type":"Point","coordinates":[128.877831,37.763741]},"properties":{"sev":"serious","year":"2024","ym":"2024년 1월","dn":"주간","dth":0,"se":1,"sl":0,"type":"차대차 - 충돌","road":"교차로 - 교차로횡단보도내","viol":"안전운전불이행"}},{"type":"Feature","geometry":{"type":"Point","coordinates":[128.91283,37.751406]},"properties":{"sev":"serious","year":"2024","ym":"2024년 9월","dn":"야간","dth":0,"se":1,"sl":0,"type":"차량단독 - 충돌","road":"교차로 - 교차로부근","viol":"기타"}},{"type":"Feature","geometry":{"type":"Point","coordinates":[128.885394,37.76234]},"properties":{"sev":"serious","year":"2024","ym":"2024년 5월","dn":"야간","dth":0,"se":1,"sl":1,"type":"차대차 - 충돌","road":"교차로 - 교차로안","viol":"신호위반"}},{"type":"Feature","geometry":{"type":"Point","coordinates":[128.88786,37.76407]},"properties":{"sev":"serious","year":"2024","ym":"2024년 12월","dn":"야간","dth":0,"se":1,"sl":0,"type":"차대차 - 충돌","road":"단일로 - 기타","viol":"안전운전불이행"}},{"type":"Feature","geometry":{"type":"Point","coordinates":[128.913143,37.770286]},"properties":{"sev":"serious","year":"2024","ym":"2024년 11월","dn":"야간","dth":0,"se":1,"sl":0,"type":"차대사람 - 기타","road":"단일로 - 기타","viol":"안전운전불이행"}},{"type":"Feature","geometry":{"type":"Point","coordinates":[128.908167,37.768814]},"properties":{"sev":"serious","year":"2024","ym":"2024년 8월","dn":"야간","dth":0,"se":1,"sl":0,"type":"차대사람 - 횡단중","road":"교차로 - 교차로안","viol":"안전운전불이행"}},{"type":"Feature","geometry":{"type":"Point","coordinates":[128.910571,37.771456]},"properties":{"sev":"serious","year":"2024","ym":"2024년 4월","dn":"야간","dth":0,"se":1,"sl":0,"type":"차대차 - 충돌","road":"교차로 - 교차로안","viol":"신호위반"}},{"type":"Feature","geometry":{"type":"Point","coordinates":[128.910671,37.770707]},"properties":{"sev":"serious","year":"2024","ym":"2024년 6월","dn":"야간","dth":0,"se":1,"sl":0,"type":"차대사람 - 기타","road":"교차로 - 교차로안","viol":"안전운전불이행"}},{"type":"Feature","geometry":{"type":"Point","coordinates":[128.907867,37.768763]},"properties":{"sev":"serious","year":"2024","ym":"2024년 9월","dn":"주간","dth":0,"se":1,"sl":0,"type":"차대차 - 충돌","road":"교차로 - 교차로안","viol":"신호위반"}},{"type":"Feature","geometry":{"type":"Point","coordinates":[128.9069,37.767982]},"properties":{"sev":"serious","year":"2024","ym":"2024년 4월","dn":"주간","dth":0,"se":1,"sl":0,"type":"차대사람 - 횡단중","road":"단일로 - 기타","viol":"안전운전불이행"}},{"type":"Feature","geometry":{"type":"Point","coordinates":[128.892228,37.763144]},"properties":{"sev":"serious","year":"2024","ym":"2024년 3월","dn":"야간","dth":0,"se":1,"sl":0,"type":"차대사람 - 횡단중","road":"교차로 - 교차로횡단보도내","viol":"안전운전불이행"}},{"type":"Feature","geometry":{"type":"Point","coordinates":[128.892085,37.763501]},"properties":{"sev":"serious","year":"2024","ym":"2024년 4월","dn":"주간","dth":0,"se":1,"sl":0,"type":"차대사람 - 횡단중","road":"교차로 - 교차로횡단보도내","viol":"신호위반"}},{"type":"Feature","geometry":{"type":"Point","coordinates":[128.891711,37.755157]},"properties":{"sev":"serious","year":"2024","ym":"2024년 5월","dn":"야간","dth":0,"se":1,"sl":0,"type":"차대사람 - 횡단중","road":"교차로 - 교차로부근","viol":"안전운전불이행"}},{"type":"Feature","geometry":{"type":"Point","coordinates":[128.915269,37.798067]},"properties":{"sev":"serious","year":"2024","ym":"2024년 8월","dn":"주간","dth":0,"se":2,"sl":0,"type":"차대차 - 충돌","road":"주차장 - 주차장","viol":"안전운전불이행"}},{"type":"Feature","geometry":{"type":"Point","coordinates":[128.885656,37.740081]},"properties":{"sev":"serious","year":"2024","ym":"2024년 9월","dn":"주간","dth":0,"se":1,"sl":0,"type":"차대사람 - 횡단중","road":"단일로 - 기타","viol":"안전운전불이행"}},{"type":"Feature","geometry":{"type":"Point","coordinates":[128.937054,37.773875]},"properties":{"sev":"serious","year":"2024","ym":"2024년 6월","dn":"주간","dth":0,"se":1,"sl":0,"type":"차대차 - 충돌","road":"교차로 - 교차로안","viol":"안전운전불이행"}},{"type":"Feature","geometry":{"type":"Point","coordinates":[128.948034,37.772036]},"properties":{"sev":"serious","year":"2024","ym":"2024년 6월","dn":"야간","dth":0,"se":1,"sl":0,"type":"차대사람 - 횡단중","road":"단일로 - 기타","viol":"안전운전불이행"}},{"type":"Feature","geometry":{"type":"Point","coordinates":[128.943671,37.769082]},"properties":{"sev":"serious","year":"2024","ym":"2024년 8월","dn":"주간","dth":0,"se":1,"sl":2,"type":"차대차 - 충돌","road":"교차로 - 교차로안","viol":"안전운전불이행"}},{"type":"Feature","geometry":{"type":"Point","coordinates":[128.933145,37.774524]},"properties":{"sev":"serious","year":"2024","ym":"2024년 2월","dn":"야간","dth":0,"se":1,"sl":0,"type":"차대차 - 기타","road":"기타 - 기타","viol":"안전운전불이행"}},{"type":"Feature","geometry":{"type":"Point","coordinates":[128.900344,37.762824]},"properties":{"sev":"serious","year":"2024","ym":"2024년 1월","dn":"주간","dth":0,"se":1,"sl":1,"type":"차대차 - 충돌","road":"교차로 - 교차로안","viol":"안전운전불이행"}},{"type":"Feature","geometry":{"type":"Point","coordinates":[128.900689,37.760715]},"properties":{"sev":"serious","year":"2024","ym":"2024년 5월","dn":"야간","dth":0,"se":1,"sl":0,"type":"차대차 - 충돌","road":"교차로 - 교차로안","viol":"교차로운행방법위반"}},{"type":"Feature","geometry":{"type":"Point","coordinates":[128.900387,37.762067]},"properties":{"sev":"serious","year":"2024","ym":"2024년 11월","dn":"야간","dth":0,"se":1,"sl":0,"type":"차대사람 - 횡단중","road":"교차로 - 교차로횡단보도내","viol":"보행자보호의무위반"}},{"type":"Feature","geometry":{"type":"Point","coordinates":[128.899214,37.764059]},"properties":{"sev":"serious","year":"2024","ym":"2024년 10월","dn":"주간","dth":0,"se":1,"sl":0,"type":"차대사람 - 횡단중","road":"교차로 - 교차로횡단보도내","viol":"안전운전불이행"}},{"type":"Feature","geometry":{"type":"Point","coordinates":[128.893651,37.749939]},"properties":{"sev":"serious","year":"2024","ym":"2024년 6월","dn":"주간","dth":0,"se":1,"sl":0,"type":"차대차 - 충돌","road":"단일로 - 기타","viol":"안전운전불이행"}},{"type":"Feature","geometry":{"type":"Point","coordinates":[128.89039,37.746213]},"properties":{"sev":"serious","year":"2024","ym":"2024년 7월","dn":"야간","dth":0,"se":1,"sl":0,"type":"차대차 - 충돌","road":"교차로 - 교차로안","viol":"신호위반"}},{"type":"Feature","geometry":{"type":"Point","coordinates":[128.891377,37.749255]},"properties":{"sev":"serious","year":"2024","ym":"2024년 8월","dn":"야간","dth":0,"se":1,"sl":0,"type":"차대차 - 충돌","road":"단일로 - 기타","viol":"안전운전불이행"}},{"type":"Feature","geometry":{"type":"Point","coordinates":[128.883365,37.744337]},"properties":{"sev":"serious","year":"2024","ym":"2024년 2월","dn":"야간","dth":0,"se":1,"sl":0,"type":"차대사람 - 횡단중","road":"단일로 - 기타","viol":"보행자보호의무위반"}},{"type":"Feature","geometry":{"type":"Point","coordinates":[128.883602,37.747214]},"properties":{"sev":"fatal","year":"2024","ym":"2024년 9월","dn":"주간","dth":2,"se":2,"sl":0,"type":"차대차 - 추돌","road":"단일로 - 교량","viol":"안전거리미확보"}},{"type":"Feature","geometry":{"type":"Point","coordinates":[128.89644,37.750544]},"properties":{"sev":"serious","year":"2024","ym":"2024년 3월","dn":"야간","dth":0,"se":1,"sl":0,"type":"차량단독 - 충돌","road":"교차로 - 교차로부근","viol":"안전운전불이행"}},{"type":"Feature","geometry":{"type":"Point","coordinates":[128.897286,37.749176]},"properties":{"sev":"serious","year":"2024","ym":"2024년 4월","dn":"야간","dth":0,"se":1,"sl":0,"type":"차대사람 - 횡단중","road":"교차로 - 교차로부근","viol":"안전운전불이행"}},{"type":"Feature","geometry":{"type":"Point","coordinates":[128.897113,37.749123]},"properties":{"sev":"serious","year":"2024","ym":"2024년 6월","dn":"야간","dth":0,"se":1,"sl":0,"type":"차대사람 - 횡단중","road":"교차로 - 교차로횡단보도내","viol":"신호위반"}},{"type":"Feature","geometry":{"type":"Point","coordinates":[128.899843,37.750221]},"properties":{"sev":"fatal","year":"2024","ym":"2024년 11월","dn":"주간","dth":1,"se":0,"sl":0,"type":"차대차 - 충돌","road":"단일로 - 기타","viol":"기타"}},{"type":"Feature","geometry":{"type":"Point","coordinates":[128.90666,37.76536]},"properties":{"sev":"serious","year":"2024","ym":"2024년 6월","dn":"야간","dth":0,"se":1,"sl":2,"type":"차대차 - 충돌","road":"교차로 - 교차로안","viol":"안전운전불이행"}},{"type":"Feature","geometry":{"type":"Point","coordinates":[128.90523,37.764994]},"properties":{"sev":"serious","year":"2024","ym":"2024년 1월","dn":"야간","dth":0,"se":1,"sl":0,"type":"차대차 - 충돌","road":"교차로 - 교차로안","viol":"안전운전불이행"}},{"type":"Feature","geometry":{"type":"Point","coordinates":[128.88166,37.745222]},"properties":{"sev":"serious","year":"2024","ym":"2024년 4월","dn":"야간","dth":0,"se":1,"sl":0,"type":"차대사람 - 횡단중","road":"단일로 - 기타","viol":"안전운전불이행"}},{"type":"Feature","geometry":{"type":"Point","coordinates":[128.885061,37.74603]},"properties":{"sev":"serious","year":"2024","ym":"2024년 6월","dn":"야간","dth":0,"se":1,"sl":3,"type":"차대차 - 추돌","road":"교차로 - 교차로부근","viol":"안전운전불이행"}},{"type":"Feature","geometry":{"type":"Point","coordinates":[128.883944,37.750755]},"properties":{"sev":"serious","year":"2024","ym":"2024년 3월","dn":"야간","dth":0,"se":1,"sl":0,"type":"차대차 - 기타","road":"교차로 - 교차로부근","viol":"안전운전불이행"}},{"type":"Feature","geometry":{"type":"Point","coordinates":[128.906793,37.804439]},"properties":{"sev":"serious","year":"2024","ym":"2024년 10월","dn":"주간","dth":0,"se":1,"sl":2,"type":"차대차 - 충돌","road":"교차로 - 교차로부근","viol":"중앙선침범"}},{"type":"Feature","geometry":{"type":"Point","coordinates":[128.916299,37.763868]},"properties":{"sev":"fatal","year":"2024","ym":"2024년 3월","dn":"주간","dth":1,"se":0,"sl":0,"type":"차대사람 - 기타","road":"주차장 - 주차장","viol":"안전운전불이행"}},{"type":"Feature","geometry":{"type":"Point","coordinates":[128.915078,37.76309]},"properties":{"sev":"serious","year":"2024","ym":"2024년 5월","dn":"야간","dth":0,"se":1,"sl":0,"type":"차대차 - 기타","road":"기타 - 기타","viol":"안전운전불이행"}},{"type":"Feature","geometry":{"type":"Point","coordinates":[128.913707,37.764045]},"properties":{"sev":"serious","year":"2024","ym":"2024년 1월","dn":"야간","dth":0,"se":1,"sl":0,"type":"차대차 - 충돌","road":"교차로 - 교차로안","viol":"신호위반"}},{"type":"Feature","geometry":{"type":"Point","coordinates":[128.876249,37.779622]},"properties":{"sev":"serious","year":"2024","ym":"2024년 5월","dn":"주간","dth":0,"se":1,"sl":1,"type":"차대차 - 충돌","road":"교차로 - 교차로안","viol":"안전운전불이행"}},{"type":"Feature","geometry":{"type":"Point","coordinates":[128.881645,37.758916]},"properties":{"sev":"serious","year":"2024","ym":"2024년 8월","dn":"주간","dth":0,"se":1,"sl":0,"type":"차대차 - 충돌","road":"교차로 - 교차로안","viol":"안전운전불이행"}},{"type":"Feature","geometry":{"type":"Point","coordinates":[128.912228,37.762609]},"properties":{"sev":"serious","year":"2024","ym":"2024년 1월","dn":"주간","dth":0,"se":1,"sl":0,"type":"차대사람 - 횡단중","road":"교차로 - 교차로횡단보도내","viol":"보행자보호의무위반"}},{"type":"Feature","geometry":{"type":"Point","coordinates":[128.887558,37.775865]},"properties":{"sev":"fatal","year":"2024","ym":"2024년 4월","dn":"야간","dth":1,"se":0,"sl":0,"type":"차대차 - 기타","road":"단일로 - 기타","viol":"중앙선침범"}},{"type":"Feature","geometry":{"type":"Point","coordinates":[128.883185,37.779653]},"properties":{"sev":"serious","year":"2024","ym":"2024년 9월","dn":"주간","dth":0,"se":3,"sl":0,"type":"차대차 - 충돌","road":"교차로 - 교차로안","viol":"안전운전불이행"}},{"type":"Feature","geometry":{"type":"Point","coordinates":[128.885538,37.777748]},"properties":{"sev":"serious","year":"2024","ym":"2024년 11월","dn":"주간","dth":0,"se":1,"sl":0,"type":"차대차 - 충돌","road":"교차로 - 교차로안","viol":"안전운전불이행"}},{"type":"Feature","geometry":{"type":"Point","coordinates":[128.889546,37.773194]},"properties":{"sev":"serious","year":"2024","ym":"2024년 8월","dn":"주간","dth":0,"se":1,"sl":5,"type":"차대차 - 충돌","road":"단일로 - 기타","viol":"안전운전불이행"}},{"type":"Feature","geometry":{"type":"Point","coordinates":[128.895947,37.778677]},"properties":{"sev":"serious","year":"2024","ym":"2024년 9월","dn":"주간","dth":0,"se":2,"sl":1,"type":"차대차 - 충돌","road":"교차로 - 교차로안","viol":"교차로운행방법위반"}},{"type":"Feature","geometry":{"type":"Point","coordinates":[128.897138,37.770292]},"properties":{"sev":"serious","year":"2024","ym":"2024년 5월","dn":"주간","dth":0,"se":1,"sl":2,"type":"차대차 - 충돌","road":"교차로 - 교차로안","viol":"안전운전불이행"}}]}