{"type":"FeatureCollection","features":[{"type":"Feature","geometry":{"type":"LineString","coordinates":[[128.8814046162,37.77970488],[128.8815863729,37.7797638156],[128.881638926,37.7797808562],[128.8817339046,37.7798294776],[128.8818722972,37.7799082605],[128.881964559,37.7799607823],[128.8820457289,37.7800235068],[128.8821246971,37.7800882563],[128.8821641813,37.7801206311],[128.8822866886,37.7802143188],[128.8824165619,37.7803017634],[128.8830520423,37.7797770181],[128.8831328903,37.7797137471],[128.8832077704,37.779645728],[128.8832212707,37.7796446972],[128.883342478,37.7795497473],[128.8833821692,37.7795175326],[128.8835012425,37.7794208886],[128.8835806245,37.7793564592],[128.8836599299,37.7792919705],[128.8837390908,37.7792273699],[128.8838182515,37.7791627694],[128.8838985157,37.7790990424],[128.8839391055,37.7790675412],[128.8840608746,37.7789730376],[128.8841420539,37.7789100351],[128.8841826435,37.7788785338],[128.884263233,37.7788150572],[128.8843436663,37.778751455],[128.884464316,37.7786560516],[128.8845045325,37.7786242504],[128.8845849654,37.778560648],[128.8846653981,37.7784970455],[128.8847458307,37.7784334431],[128.8848262632,37.7783698405],[128.8849066955,37.7783062379],[128.8849871277,37.7782426352],[128.8850675597,37.7781790325],[128.8851477226,37.7781152175],[128.8852273748,37.7780509997],[128.8852672009,37.7780188907],[128.885346853,37.7779546728],[128.8853866789,37.7779225638],[128.8855453049,37.7777936315],[128.8856002518,37.7777409934],[128.885744813,37.777879699],[128.885844567,37.777922733],[128.8859443212,37.7779657669],[128.8860440755,37.7780088007],[128.8861937071,37.7780733512],[128.8862435843,37.778094868],[128.8863433389,37.7781379016],[128.886492971,37.7782024517],[128.8865927259,37.7782454851],[128.8867423585,37.7783100349],[128.886792236,37.7783315515],[128.8869917466,37.7784176175],[128.8870675701,37.778408338],[128.887250046,37.778520507],[128.8873623893,37.7785335411],[128.8875155047,37.7785907805],[128.8876664019,37.7786534493],[128.8877670002,37.7786952283],[128.8878675986,37.7787370073],[128.8879681971,37.7787787861],[128.8880687957,37.7788205649],[128.8882196938,37.7788832329],[128.8882699932,37.7789041222],[128.8884711912,37.7789876791],[128.8885214907,37.7790085683],[128.8886220899,37.7790503466],[128.8887226893,37.7790921248],[128.8888735885,37.779154792],[128.8889741395,37.7791966433],[128.8890745155,37.7792387588],[128.8891748916,37.7792808742],[128.8893773716,37.7793623195],[128.8894806408,37.7793997705],[128.8895322754,37.779418496],[128.8896355447,37.7794559469],[128.8897388141,37.7794933977],[128.8899453533,37.779568299],[128.8899969881,37.7795870243],[128.8901002579,37.7796244748],[128.8902551628,37.7796806503],[128.8903067978,37.7796993755],[128.8904100679,37.7797368257],[128.8905649732,37.7797930008],[128.8906682435,37.7798304508],[128.8910189127,37.7799576165],[128.8911221835,37.7799950661],[128.8913344121,37.7800590814],[128.8914407658,37.780090631],[128.8914939426,37.7801064058],[128.8916002965,37.7801379552],[128.8917598274,37.7801852792],[128.8918130044,37.7802010539],[128.8919725355,37.7802483776],[128.8921482286,37.7803004953],[128.8922534263,37.780334397],[128.8924111826,37.7803853318],[128.892568939,37.7804362663],[128.8926741101,37.7804702226],[128.8927792813,37.7805041787],[128.8928844526,37.7805381347],[128.8930947954,37.7806060465],[128.8931473812,37.7806230244],[128.8933051387,37.7806739579],[128.8933577245,37.7806909357],[128.8935154822,37.780741869],[128.8936206542,37.7807758243],[128.8937258262,37.7808097796],[128.8938309983,37.7808437348],[128.8939361705,37.7808776899],[128.8941465153,37.7809455997],[128.8942516878,37.7809795545],[128.894304274,37.7809965319],[128.8945146194,37.7810644411],[128.8945986977,37.7810915853],[128.8946589072,37.7810560322],[128.8947443509,37.7809980597],[128.8948055892,37.780922175],[128.8948562814,37.7808421268],[128.8948759347,37.7807998552],[128.894895588,37.7807575836],[128.8949352672,37.7806731551],[128.8949995315,37.7805479742],[128.8950424946,37.7804646974],[128.8950646094,37.780423199],[128.8951088389,37.780340202],[128.8951514942,37.7802566942],[128.8952140641,37.7801309739],[128.8952553496,37.7800470282],[128.8953163013,37.7799208082],[128.8953805313,37.7797927627],[128.8954019639,37.7797510395],[128.8954662618,37.7796258697],[128.8955091269,37.7795424232],[128.8955305594,37.7795006999],[128.8955686351,37.7794158432],[128.8956227495,37.779287675],[128.8956768637,37.7791595067],[128.8957309778,37.7790313385],[128.8957670537,37.778945893],[128.8958255266,37.7788189675],[128.8958661948,37.7787348313],[128.895906863,37.778650695],[128.8959258237,37.7786082541],[128.8959749867,37.7784788354],[128.8960077628,37.7783925565],[128.8960487613,37.778261706],[128.8960728766,37.7781278946],[128.896080915,37.7780832908],[128.8960996207,37.7779852034],[128.8961196083,37.7778964952],[128.8961495896,37.7777634329],[128.8961595833,37.7777190788],[128.896188812,37.7775859169],[128.8961975071,37.7775413907],[128.8962409825,37.7773187601],[128.8962510503,37.7772744316],[128.8963048042,37.7771688719],[128.8963727607,37.7770971413],[128.8964813763,37.7769930518],[128.8965200701,37.7769600828],[128.8966361515,37.7768611758],[128.8966748452,37.7768282068],[128.8968122196,37.776685265],[128.8968443187,37.7766481022],[128.8969212964,37.7765281977],[128.8969658127,37.7764452983],[128.8970197317,37.7763179238],[128.8970484329,37.7761846913],[128.8970565526,37.7761400968],[128.8970809116,37.7760063132],[128.8971012684,37.7759177305],[128.8971264114,37.7758298525],[128.8971515543,37.7757419745],[128.8971657791,37.7756983874],[128.8972341998,37.7755266289],[128.8973145803,37.7754074756],[128.8973435133,37.7753687097],[128.897594593,37.7751204546],[128.8977267268,37.7750351843],[128.8977718516,37.7750078484],[128.8979535839,37.7748998232],[128.8980442085,37.7748455589],[128.8981354855,37.7747919717],[128.8981810705,37.7747651206],[128.8982742288,37.7747136543],[128.8984615744,37.7746118567],[128.8985076686,37.7745855591],[128.898645497,37.7745061957],[128.8987347742,37.7744505263],[128.8988680627,37.7743664001],[128.8989556106,37.7743090365],[128.8990413398,37.7742499692],[128.899160919,37.7741538357],[128.8992413302,37.7740902674],[128.8993214727,37.7740264627],[128.8993993727,37.7739609291],[128.8994728756,37.7738922591],[128.8995438369,37.7738219349],[128.8996444526,37.7737129316],[128.8997125556,37.7736334663],[128.8997630232,37.7735527446],[128.8998367627,37.7734309251],[128.8998874813,37.7733503049],[128.8999288978,37.7732664213],[128.8999964079,37.7731424454],[128.9000462598,37.7730680733],[128.9000750934,37.7730292612],[128.9001797527,37.7728890472],[128.9002099582,37.7728508983],[128.9002983898,37.7726854409],[128.9003346532,37.7726000463],[128.9003724369,37.7725150719],[128.9004157034,37.7723877683],[128.9004264194,37.7723435294],[128.9004494924,37.772209725],[128.9004600424,37.7721200154],[128.9004706416,37.7720303009],[128.9004742192,37.7719853326],[128.9004816706,37.7718503175],[128.9004818541,37.7717152819],[128.9004763173,37.7716704389],[128.9004789786,37.7715807132],[128.9005012972,37.7714434377],[128.9005303205,37.7713102445],[128.9005489548,37.7712213539],[128.9005721451,37.7710874398],[128.9005796376,37.7709979319],[128.9005938878,37.7708542163],[128.9007571332,37.7708157459],[128.9008106721,37.7708008512],[128.9009169436,37.7707691563],[128.901023215,37.7707374614],[128.901182622,37.7706899188],[128.9012888932,37.7706582236],[128.9014482999,37.7706106807],[128.9016641325,37.7705467075],[128.9017706147,37.7705154621],[128.9018770968,37.7704842166],[128.9020900607,37.7704217254],[128.9021965425,37.7703904797],[128.9022803569,37.7703678777],[128.9023635905,37.770354989],[128.9025889483,37.7703330361],[128.9027018432,37.7703256063],[128.9028153306,37.7703278987],[128.9030108693,37.7703313556],[128.9032375941,37.7703407422],[128.9033509418,37.7703457642],[128.9034076157,37.7703482752],[128.9035209614,37.7703533243],[128.903737215,37.7703633625],[128.9038609753,37.7703687953],[128.9039278034,37.7703718461],[128.9041544716,37.7703822713],[128.9043811398,37.770392696],[128.9044944739,37.7703979082],[128.9046078081,37.7704031203],[128.9046644751,37.7704057263],[128.9047778093,37.7704109383],[128.9048911435,37.7704161501],[128.9050044777,37.7704213618],[128.9051179035,37.7704248593],[128.9052881247,37.7704285883],[128.905516714,37.7704351851],[128.9056301583,37.7704385653],[128.9057436026,37.7704419454],[128.9058003248,37.7704436355],[128.9059014354,37.7703967757],[128.905903395,37.7703517448],[128.905927171,37.7702684533],[128.9060067561,37.7702041903],[128.9060863412,37.7701399272],[128.9061261337,37.7701077956],[128.9062453753,37.7700112958],[128.9063374518,37.7699376091],[128.9064177083,37.769873875],[128.9065723812,37.7697523047],[128.9066529998,37.769688859],[128.9067336146,37.7696254104],[128.9068137669,37.769561602],[128.9068943189,37.7694981044],[128.9069802479,37.7694308921],[128.9070607807,37.7693673782],[128.9071815488,37.7692720824],[128.9072620607,37.7692085519],[128.9073424288,37.7691449067],[128.9074282111,37.7690772967],[128.9075088489,37.769013867],[128.9075892636,37.7689502593],[128.9076696162,37.768886602],[128.9077499687,37.7688229447],[128.9078308854,37.7687597402],[128.907762627,37.7687059843],[128.907722332,37.7686742505],[128.9076026851,37.768578069],[128.9075229636,37.768513914],[128.9074432421,37.768449759],[128.907403875,37.7684173032],[128.9073258845,37.7683518212],[128.9072478941,37.7682863392],[128.9071309088,37.7681881162],[128.9070529188,37.768122634],[128.9070139239,37.768089893],[128.9068969392,37.7679916696],[128.906863629,37.7679555907],[128.9067628142,37.7678848],[128.9066822545,37.7678213088],[128.9066016949,37.7677578176],[128.9065614151,37.767726072],[128.906440576,37.767630835],[128.9064002964,37.7675990893],[128.9062794577,37.7675038521],[128.9061988988,37.7674403606],[128.90611834,37.767376869],[128.9060780607,37.7673451232],[128.9059271994,37.7672243715],[128.9058082626,37.7671276378],[128.9057288278,37.767063261],[128.9056888445,37.7670312803],[128.9055688948,37.7669353382],[128.9055289117,37.7669033575],[128.9054089625,37.7668074152],[128.9053289965,37.7667434536],[128.9052890135,37.7667114728],[128.9051690649,37.7666155303],[128.9050266378,37.7665013392],[128.9049867251,37.7664693033],[128.904866987,37.7663731954],[128.9047871619,37.7663091234],[128.9047472493,37.7662770874],[128.9046275119,37.7661809793],[128.9045476871,37.7661169071],[128.9044678625,37.7660528349],[128.904388038,37.7659887627],[128.9043082137,37.7659246903],[128.9041110799,37.7657643234],[128.9040318306,37.765699803],[128.9039525813,37.7656352826],[128.9038334987,37.765538664],[128.9037540919,37.7654742658],[128.9036746853,37.7654098676],[128.9036349755,37.7653776735],[128.9035113259,37.7652774621],[128.9033921755,37.7651808965],[128.9033524587,37.765148708],[128.9032333086,37.7650521423],[128.9031141589,37.7649555764],[128.9030744424,37.7649233878],[128.9029950094,37.7648590104],[128.9028354524,37.764730808],[128.9027538659,37.7646681512],[128.9027130727,37.7646368227],[128.9025499003,37.7645115087],[128.9025091073,37.7644801802],[128.9023867284,37.7643861945],[128.9021873855,37.7642268295],[128.902107511,37.764162798],[128.9020276366,37.7640987664],[128.9018838532,37.7639835037],[128.9018039782,37.7639194728],[128.9017241033,37.7638554418],[128.9016841659,37.7638234262],[128.9015643539,37.7637273796],[128.9014588187,37.7636430144],[128.9013140018,37.7635250207],[128.9012744035,37.7634927409],[128.9012348053,37.7634604611],[128.9010764128,37.7633313418],[128.9009972167,37.763266782],[128.9009576187,37.7632345021],[128.9008783238,37.7631700191],[128.9007864981,37.7630957757],[128.9006671684,37.7629993522],[128.900547839,37.7629029287],[128.9005074767,37.7629346062],[128.9003863896,37.7630296388],[128.9003056648,37.7630929937],[128.9002653023,37.7631246712],[128.9002249398,37.7631563487],[128.9001845772,37.7631880261],[128.900103852,37.7632513809],[128.9000634893,37.7632830583],[128.9000231266,37.7633147357],[128.8999827639,37.7633464131],[128.8999424011,37.7633780904],[128.8999020383,37.7634097678],[128.8998213126,37.7634731224],[128.8997383884,37.7635382024],[128.8996614282,37.7636041862],[128.899627007,37.7636400122],[128.8995925857,37.7636758381],[128.8995237432,37.7637474899],[128.8994893218,37.7637833158],[128.899420479,37.7638549675],[128.899317233,37.7639624562],[128.8992829058,37.763998339],[128.8991799239,37.7641059874],[128.8991455966,37.7641418702],[128.8990426143,37.7642495185],[128.8990082869,37.7642854012],[128.8989396318,37.7643571667],[128.898836649,37.7644648148],[128.8988023213,37.7645006975],[128.8987331624,37.764572155],[128.8986283792,37.7646787028],[128.8985934514,37.7647142187],[128.8985585236,37.7647497346],[128.8985235957,37.7647852505],[128.8984886678,37.7648207663],[128.8984484815,37.7648524134],[128.8983645642,37.7649130996],[128.8982806468,37.7649737857],[128.8981547703,37.7650648148],[128.8981128115,37.7650951578],[128.8981547703,37.7650648148],[128.8982806468,37.7649737857],[128.8983645642,37.7649130996],[128.8984484815,37.7648524134],[128.8984886678,37.7648207663],[128.8985235957,37.7647852505],[128.8985585236,37.7647497346],[128.8985934514,37.7647142187],[128.8986283792,37.7646787028],[128.8987331624,37.764572155],[128.8988023213,37.7645006975],[128.898836649,37.7644648148],[128.8989396318,37.7643571667],[128.8990082869,37.7642854012],[128.8990426143,37.7642495185],[128.8991455966,37.7641418702],[128.8991799239,37.7641059874],[128.8992829058,37.763998339],[128.899317233,37.7639624562],[128.899420479,37.7638549675],[128.8994893218,37.7637833158],[128.8995237432,37.7637474899],[128.8995925857,37.7636758381],[128.899627007,37.7636400122],[128.8996614282,37.7636041862],[128.8997383884,37.7635382024],[128.8998213126,37.7634731224],[128.8999020383,37.7634097678],[128.8999424011,37.7633780904],[128.8999827639,37.7633464131],[128.9000231266,37.7633147357],[128.9000634893,37.7632830583],[128.900103852,37.7632513809],[128.9001845772,37.7631880261],[128.9002249398,37.7631563487],[128.9002653023,37.7631246712],[128.9003056648,37.7630929937],[128.9003863896,37.7630296388],[128.9005074767,37.7629346062],[128.900547839,37.7629029287],[128.9003915328,37.7627749763],[128.9003128349,37.7627100342],[128.9002734859,37.7626775631],[128.9002343814,37.7626449066],[128.9001953088,37.762612226],[128.9001561092,37.7625796415],[128.9001168322,37.7625471156],[128.8999990017,37.7624495378],[128.8999204482,37.7623844858],[128.8998811715,37.7623519599],[128.8998418948,37.7623194338],[128.8997633415,37.7622543818],[128.8997240649,37.7622218557],[128.8996847884,37.7621893297],[128.8996451461,37.7621570949],[128.8996040509,37.7621260173],[128.8995629558,37.7620949396],[128.8995218606,37.7620638619],[128.8994807656,37.7620327843],[128.8994396705,37.7620017066],[128.8993574805,37.7619395511],[128.8993163856,37.7619084734],[128.8992752907,37.7618773956],[128.8992341958,37.7618463178],[128.8991931009,37.76181524],[128.8990698166,37.7617220066],[128.8990287219,37.7616909287],[128.8989876273,37.7616598509],[128.8989465326,37.761628773],[128.898905438,37.7615976951],[128.8988643435,37.7615666172],[128.8987822462,37.7615043849],[128.8987167927,37.7614549296],[128.8985934471,37.7613617477],[128.8985112169,37.7612996264],[128.8983943329,37.7612113296],[128.8983121001,37.7611492106],[128.8982298675,37.7610870914],[128.898193673,37.7610597481],[128.8980703281,37.7609665661],[128.8979469835,37.760873384],[128.8979058687,37.7608423233],[128.8977414099,37.7607180802],[128.8977015364,37.7606860358],[128.897588164,37.7605910848],[128.8975103423,37.7605254821],[128.8973936101,37.7604270781],[128.8972768781,37.7603286739],[128.897199057,37.760263071],[128.897121236,37.7601974681],[128.8970045047,37.7600990636],[128.8968525943,37.7599756426],[128.8968126773,37.7599436125],[128.8967727603,37.7599115825],[128.8967328434,37.7598795524],[128.8966530097,37.7598154923],[128.8965731762,37.7597514321],[128.8964935567,37.7596872043],[128.896453778,37.7596550662],[128.8964139994,37.759622928],[128.8963742207,37.7595907898],[128.8962946636,37.7595265134],[128.8962151066,37.7594622369],[128.8961355497,37.7593979604],[128.896055993,37.7593336838],[128.8960162147,37.7593015455],[128.8959366581,37.7592372688],[128.8958571018,37.759172992],[128.8957706319,37.7591013285],[128.8956217897,37.7589652498],[128.8955844265,37.7589313565],[128.8954987938,37.7588722059],[128.8954131716,37.7588130458],[128.8953378063,37.7587608077],[128.8952382192,37.7587195069],[128.8951839098,37.7587064269],[128.8950768311,37.7586810493],[128.8948843518,37.7586315207],[128.894722434,37.7585897282],[128.8946144889,37.7585618665],[128.8945065439,37.7585340046],[128.8943986807,37.758505946],[128.894330598,37.7584878937],[128.8941322197,37.7584369793],[128.894024444,37.7584087077],[128.8938627805,37.7583663002],[128.8938088928,37.7583521643],[128.893666164,37.7583148129],[128.8935583428,37.7582866515],[128.8934538989,37.7582599075],[128.8932711526,37.7582122305],[128.8931636034,37.758183421],[128.8931098289,37.7581690162],[128.8928724237,37.7581054599],[128.8927708425,37.7580777248],[128.892658607,37.7580523418],[128.8924962834,37.7580117473],[128.8923446136,37.7579722249],[128.8922367681,37.757944123],[128.8921828453,37.7579300721],[128.8920492757,37.757893262],[128.8919959751,37.7578777871],[128.8918635933,37.7578392365],[128.8918103323,37.7578236759],[128.8916132998,37.7577766282],[128.8915018726,37.7577594631],[128.8913904455,37.7577422979],[128.8912790191,37.7577251297],[128.8912233093,37.757716532],[128.8911064638,37.7576984992],[128.891050754,37.7576899015],[128.8908836247,37.7576641081],[128.8908279149,37.7576555102],[128.8907198993,37.7576387826],[128.8905528336,37.757612731],[128.8904414564,37.7575953638],[128.8902688033,37.7575687143],[128.8901016602,37.7575429779],[128.8900459459,37.757534399],[128.8899151511,37.7575142578],[128.889803723,37.7574970978],[128.889692295,37.7574799377],[128.889580867,37.7574627775],[128.889469445,37.7574455934],[128.8893579793,37.7574285922],[128.8892377085,37.7574100133],[128.8891262949,37.7573927949],[128.8890148813,37.7573755765],[128.8889034677,37.757358358],[128.8887920542,37.7573411393],[128.8886806408,37.7573239206],[128.888624934,37.7573153112],[128.8885692273,37.7573067017],[128.888457814,37.7572894828],[128.8882591729,37.7572587856],[128.8881477587,37.7572415703],[128.8879660842,37.7572139902],[128.8878546548,37.7571968371],[128.8877432255,37.7571796839],[128.8876875109,37.7571711073],[128.8875760817,37.7571539539],[128.8874089379,37.7571282236],[128.8872975088,37.75711107],[128.8872417943,37.7571024931],[128.8870859518,37.7570785051],[128.8869745223,37.7570613532],[128.886862816,37.7570454121],[128.8867369619,37.7570271775],[128.8866258795,37.7570086611],[128.8865147972,37.7569901445],[128.886459256,37.7569808862],[128.8863481738,37.7569623694],[128.8862384656,37.7569393358],[128.8861837246,37.7569274471],[128.8860207519,37.7568884136],[128.8859134361,37.7568592485],[128.8858082838,37.7568253202],[128.8857064336,37.756785551],[128.8856046155,37.756745725],[128.8855537065,37.756725812],[128.8854020677,37.7566644988],[128.8853535702,37.7566410973],[128.8852809083,37.7566045701],[128.8851163225,37.756517555],[128.8850218473,37.7564676086],[128.8849273723,37.7564176622],[128.8848801348,37.756392689],[128.88478566,37.7563427424],[128.8847384226,37.7563177691],[128.884643948,37.7562678225],[128.8845022362,37.7561929024],[128.8844077619,37.7561429555],[128.8843132877,37.7560930086],[128.884218024,37.7560440302],[128.8841219406,37.7559960575],[128.8840738989,37.7559720711],[128.8839431652,37.7559032416],[128.8838490722,37.7558528441],[128.8838020612,37.7558276032],[128.8837080394,37.7557771215],[128.8835670069,37.7557013988],[128.8835199962,37.7556761578],[128.8833803431,37.7555988502],[128.8833331631,37.7555738092],[128.883193052,37.7555000605],[128.8830984508,37.7554502662],[128.8830038497,37.7554004719],[128.8829565493,37.7553755746],[128.882814648,37.7553008829],[128.8827758331,37.7552804527],[128.8826347173,37.7552048864],[128.8825445767,37.7551501242],[128.8824994809,37.7551227696],[128.8824025225,37.7550640487],[128.8823122778,37.755009395],[128.8822750598,37.7549868611],[128.8822220321,37.7549547423],[128.8821317865,37.7549000894],[128.8820392971,37.754847904],[128.8818999911,37.7547611841],[128.8818230551,37.7547191778],[128.8817742921,37.7546961284],[128.881676766,37.7546500295],[128.8816199974,37.7546232223],[128.881512289,37.7547820384],[128.8813965746,37.7549370966],[128.8812851409,37.754947112],[128.8812284988,37.7549497652],[128.8811151228,37.7549539978],[128.8809318605,37.7549595079],[128.8808751466,37.7549611301],[128.8807050325,37.7549665087],[128.8805916738,37.7549710247],[128.8805349944,37.7549732826],[128.8804216357,37.7549777984],[128.8803082769,37.7549823141],[128.8801382388,37.7549890874],[128.88002488,37.7549936028],[128.8799682006,37.7549958605],[128.8798548418,37.7550003757],[128.8796733365,37.7550076041],[128.8796166666,37.7550100075],[128.8795599923,37.755012345],[128.8793899567,37.7550191516],[128.879333266,37.7550212233],[128.8792198846,37.7550253668],[128.8791065032,37.7550295102],[128.8789931218,37.7550336535],[128.8788230496,37.7550398682],[128.8786735529,37.7550453345],[128.8786529776,37.7550460857],[128.8785395976,37.7550502539],[128.8784262175,37.7550544219],[128.8783128375,37.7550585899],[128.8781994574,37.7550627577],[128.8780860773,37.7550669254],[128.8779727281,37.7550715796],[128.8778593951,37.7550764883],[128.877746062,37.7550813969],[128.8775760624,37.7550887596],[128.8774649552,37.7550935762],[128.8774060654,37.7550961608],[128.8772927381,37.7551011535],[128.8771227115,37.7551081087],[128.8770093501,37.7551125874],[128.8769526691,37.7551148205],[128.8768393069,37.7551192866],[128.8767826258,37.7551215196],[128.876741471,37.7551250488],[128.8765905248,37.7551822307],[128.8765474606,37.7552115767],[128.8764218021,37.7553024712],[128.8763840792,37.7553361342],[128.8762709103,37.7554371234],[128.8761954642,37.7555044495],[128.8761200179,37.7555717755],[128.8760478137,37.7556412493],[128.8760128574,37.7556767453],[128.8759079883,37.7557832332],[128.8758730318,37.7558187291],[128.8757681623,37.7559252168],[128.8756982492,37.7559962086],[128.8756283359,37.7560672003],[128.8755933792,37.7561026962],[128.8754885089,37.7562091837],[128.8754535521,37.7562446795],[128.8753848453,37.7563164058],[128.8753507452,37.7563524232],[128.8752825448,37.7564244578],[128.8752143443,37.7564964924],[128.8751461437,37.7565685269],[128.8750438425,37.7566765787],[128.8750690115,37.7568473392],[128.8750323867,37.7568817015],[128.8749349537,37.7569925518],[128.8749020731,37.7570292771],[128.8748363119,37.7571027279],[128.8746389243,37.7571113153],[128.8745717391,37.7571839491],[128.8745383513,37.7572203832],[128.8744728879,37.7572940015],[128.8744074244,37.7573676198],[128.8743092288,37.7574780472],[128.8742764969,37.7575148563],[128.874211033,37.7575884745],[128.8741452784,37.7576619292],[128.8740794817,37.7577353602],[128.8740136848,37.7578087912],[128.8739149893,37.7579189376],[128.8738820907,37.757955653],[128.8738162934,37.7580290839],[128.8737833948,37.7580657993],[128.8737175973,37.7581392301],[128.8736517997,37.7582126609],[128.8735728835,37.758300732],[128.8735140245,37.7583777834],[128.8734253619,37.7584931828],[128.8733959114,37.7585316996],[128.8733370103,37.7586087332],[128.873278109,37.7586857667],[128.8732217808,37.7587639985],[128.8731658434,37.7588424122],[128.8731099058,37.7589208259],[128.8730539682,37.7589992396],[128.8729980304,37.7590776532],[128.8729225556,37.7591982312],[128.8729048809,37.7592410487],[128.8728695314,37.7593266836],[128.8728597802,37.7594163225],[128.8728515755,37.7595062032],[128.8728536153,37.7595962289],[128.8728577803,37.7596862847],[128.8728834921,37.7597734125],[128.8729341875,37.7599024563],[128.8729679846,37.7599884855],[128.8729848832,37.7600315001],[128.8730186804,37.7601175293],[128.873052489,37.7602035556],[128.8730693965,37.760246568],[128.8731032114,37.7603325928],[128.8731370265,37.7604186175],[128.8731708416,37.7605046423],[128.8732231201,37.760633287],[128.8732405825,37.7606761595],[128.8732755073,37.7607619043],[128.8733278947,37.7608905216],[128.8733453572,37.7609333941],[128.8733977449,37.7610620113],[128.8734095048,37.7610909326],[128.8734442883,37.7611767137],[128.8734964638,37.7613053854],[128.8735307582,37.7613912903],[128.8735478363,37.7614342602],[128.8735819927,37.7615202],[128.8736332273,37.7616491098],[128.8736673839,37.7617350496],[128.8737015405,37.7618209894],[128.8737186189,37.7618639593],[128.8737527248,37.7619499118],[128.8737868011,37.7620358717],[128.8738208775,37.7621218316],[128.8738379157,37.7621648115],[128.8738719922,37.7622507714],[128.8739060687,37.7623367313],[128.8739571837,37.7624656711],[128.8740073472,37.7625649131],[128.8740145445,37.7626104032],[128.874066021,37.7627392524],[128.8741003387,37.7628251518],[128.8741346566,37.7629110512],[128.8741689745,37.7629969506],[128.8741861335,37.7630399003],[128.8742032925,37.76308285],[128.8742547696,37.7632116991],[128.8742719287,37.7632546487],[128.8743234061,37.7633834977],[128.8743405652,37.7634264474],[128.8743748836,37.7635123467],[128.8744092021,37.763598246],[128.8744435207,37.7636841453],[128.8744774854,37.7637701281],[128.8745229824,37.7639003878],[128.8745381481,37.7639438077],[128.8745836453,37.7640740674],[128.8746139769,37.7641609071],[128.8746291427,37.764204327],[128.8746594744,37.7642911667],[128.8746898062,37.7643780065],[128.874720138,37.7644648462],[128.87475047,37.7645516859],[128.8747808019,37.7646385256],[128.874811134,37.7647253653],[128.8748263001,37.7647687851],[128.874853529,37.7648562527],[128.8748895862,37.7649792672],[128.8749410445,37.7651548093],[128.8749539091,37.7651986948],[128.8749796384,37.7652864659],[128.8750182325,37.7654181224],[128.8750299343,37.7654622056],[128.8750517257,37.7655506459],[128.8750844129,37.7656833063],[128.8751062044,37.7657717466],[128.875110446,37.7657889611],[128.8751322375,37.7658774014],[128.8751649247,37.7660100619],[128.8751867163,37.7660985022],[128.875208508,37.7661869425],[128.8752302996,37.7662753828],[128.8752411955,37.7663196029],[128.8752738832,37.7664522633],[128.8752847791,37.7664964834],[128.875317467,37.7666291438],[128.8753392589,37.7667175841],[128.8753501549,37.7667618042],[128.875382843,37.7668944646],[128.8753925949,37.7669340477],[128.8754148078,37.767022422],[128.8754366413,37.7671108543],[128.8754575031,37.7671994358],[128.8754783651,37.7672880173],[128.8754992271,37.7673765987],[128.8755096581,37.7674208895],[128.8755305202,37.7675094709],[128.8755618134,37.7676423431],[128.8755722444,37.7676866339],[128.8755931067,37.7677752153],[128.8756246955,37.7679080433],[128.8756458292,37.7679965842],[128.8756741137,37.7681565352],[128.8756882917,37.7682459459],[128.8756915152,37.768290881],[128.8756956425,37.7684260156],[128.875698394,37.7685161054],[128.8756997697,37.7685611503],[128.875703897,37.768696285],[128.8757060147,37.7687413081],[128.8757116444,37.7688313135],[128.875720089,37.7689663215],[128.8757229039,37.7690113242],[128.8757313486,37.7691463322],[128.8757341635,37.7691913349],[128.8757473922,37.7694028226],[128.8757586525,37.7695828333],[128.8757614676,37.7696278359],[128.8757671214,37.7697178403],[128.8757700383,37.7697628389],[128.8757787889,37.7698978347],[128.8757846227,37.7699878318],[128.8757875396,37.7700328304],[128.8757962903,37.7701678262],[128.8758021241,37.7702578233],[128.875805041,37.7703028219],[128.8758108748,37.7703928191],[128.8758191295,37.7705201616],[128.8758220557,37.7705651598],[128.8758279072,37.7706551562],[128.8758337586,37.7707451527],[128.8758396102,37.7708351491],[128.8758454617,37.7709251455],[128.8758513132,37.7710151419],[128.8758600906,37.7711501366],[128.8758659422,37.771240133],[128.875868868,37.7712851312],[128.8758775703,37.7714201288],[128.8758803662,37.7714651322],[128.8758859579,37.7715551391],[128.8758887537,37.7716001425],[128.8758943455,37.7716901493],[128.8758719898,37.771905273],[128.8759691031,37.7718984259],[128.8760256553,37.7718945402],[128.8761304992,37.7718873175],[128.8763083749,37.7718747378],[128.8763649147,37.7718707403],[128.8764779943,37.7718627453],[128.8765910739,37.7718547502],[128.8767041534,37.771846755],[128.8768737727,37.7718347619],[128.8769303124,37.7718307642],[128.8770998834,37.7718183751],[128.8772129797,37.7718105315],[128.8772695279,37.7718066097],[128.8773826242,37.771798766],[128.8774391725,37.7717948455],[128.8775522867,37.7717871671],[128.877665401,37.7717794885],[128.8777946983,37.7717707118],[128.8779077716,37.7717627156],[128.8780205045,37.7717520745],[128.8781314223,37.7717418961],[128.8782442388,37.7717318296],[128.8783570553,37.7717217631],[128.8784698717,37.7717116964],[128.8785826881,37.7717016297],[128.8786390963,37.7716965962],[128.8788083208,37.7716814958],[128.8789211371,37.7716714287],[128.8790904256,37.7716568029],[128.8791468969,37.7716522372],[128.8792825643,37.7716411014],[128.8793390242,37.7716364479],[128.8794519439,37.7716271407],[128.8796213235,37.7716131798],[128.8796777833,37.7716085261],[128.8797907029,37.7715992186],[128.8798471627,37.7715945648],[128.8799600823,37.7715852572],[128.8800730019,37.7715759495],[128.8801859214,37.7715666416],[128.8803553666,37.7715532062],[128.8804118741,37.771548933],[128.8805248891,37.7715403866],[128.8807589731,37.7715228232],[128.8808720036,37.7715144077],[128.8809850341,37.7715059922],[128.8810975716,37.7715137476],[128.8812099571,37.7715264926],[128.8813186882,37.7715502851],[128.8814244638,37.771583012],[128.881477209,37.771599633],[128.8815820707,37.7716409638],[128.8816800596,37.7716854211],[128.8818065532,37.7717759204],[128.8818487177,37.7718060867],[128.8819239837,37.7718729556],[128.8819915755,37.7719453588],[128.8820591675,37.772017762],[128.8821664256,37.7721318178],[128.882202723,37.7721664601],[128.8822753177,37.7722357446],[128.8823479126,37.772305029],[128.8823842101,37.7723396712],[128.8824205076,37.7723743134],[128.8824567181,37.7724090107],[128.8824911546,37.77244483],[128.8825600278,37.7725164686],[128.8826289012,37.7725881071],[128.8826633379,37.7726239264],[128.8827322114,37.7726955649],[128.8828010806,37.772767206],[128.882869837,37.7728389154],[128.8829385935,37.7729106248],[128.8830073502,37.7729823341],[128.883076107,37.7730540434],[128.8831811058,37.7731604313],[128.8832173655,37.7731950987],[128.883289885,37.7732644334],[128.8833986645,37.7733684354],[128.8834349244,37.7734031027],[128.8835074443,37.7734724373],[128.8835799644,37.7735417719],[128.8836524845,37.7736111064],[128.8837250048,37.7736804408],[128.8838281532,37.7737790572],[128.8838644137,37.7738137242],[128.8839006743,37.7738483913],[128.8839369349,37.7738830583],[128.8839728859,37.7739179249],[128.8840082125,37.7739531943],[128.8840788657,37.7740237331],[128.8841848458,37.7741295412],[128.8842201726,37.7741648105],[128.8842766094,37.7742211553],[128.884347184,37.7742917438],[128.8844177587,37.7743623323],[128.8844883335,37.7744329207],[128.8845589085,37.7745035091],[128.8845869024,37.774542602],[128.8846136458,37.7745823463],[128.8846671326,37.7746618348],[128.8847206195,37.7747413233],[128.8847741065,37.7748208117],[128.8848275936,37.7749003002],[128.8848719926,37.7749831694],[128.8849147322,37.775066656],[128.8849574719,37.7751501425],[128.8849803291,37.7752380342],[128.8850071971,37.7753715152],[128.8850160529,37.7754160211],[128.8850413715,37.7755496928],[128.8850582506,37.7756388072],[128.8850666902,37.7756833644],[128.885092009,37.7758170361],[128.8851004486,37.7758615933],[128.8851173279,37.7759507077],[128.8851426469,37.7760843793],[128.8851595263,37.7761734937],[128.885167906,37.7762180576],[128.8851825245,37.7763074233],[128.8852044524,37.776441472],[128.8852117617,37.7764861549],[128.8852263803,37.7765755207],[128.8852336897,37.7766202035],[128.8852556177,37.7767542522],[128.8852629271,37.776798935],[128.8852775459,37.7768883008],[128.8852951858,37.7769773069],[128.885314236,37.7770661452],[128.8853332862,37.7771549835],[128.8853618617,37.7772882409],[128.8853809121,37.7773770792],[128.8853967538,37.777420286],[128.8854138496,37.7774632522],[128.8854651371,37.7775921506],[128.885482233,37.7776351168],[128.8855164248,37.7777210491],[128.8855453049,37.7777936315]]},"properties":{"route":"A","distance_km":10.72}},{"type":"Feature","geometry":{"type":"LineString","coordinates":[[128.8814046162,37.77970488],[128.8815863729,37.7797638156],[128.881638926,37.7797808562],[128.8817339046,37.7798294776],[128.8818722972,37.7799082605],[128.881964559,37.7799607823],[128.8820457289,37.7800235068],[128.8821246971,37.7800882563],[128.8821641813,37.7801206311],[128.8822866886,37.7802143188],[128.8824165619,37.7803017634],[128.8826757456,37.7805691034],[128.882554794,37.7806642682],[128.8824741594,37.7807277114],[128.8823935247,37.7807911545],[128.8823532073,37.780822876],[128.8822725723,37.780886319],[128.8821919372,37.780949762],[128.882111302,37.7810132049],[128.8819903489,37.7811083692],[128.8819097134,37.7811718119],[128.8818290777,37.7812352547],[128.8817887598,37.781266976],[128.8816678059,37.78136214],[128.8815871698,37.7814255825],[128.8815065335,37.781489025],[128.8814662153,37.7815207463],[128.8813855789,37.7815841887],[128.8813049423,37.7816476311],[128.8812243056,37.7817110734],[128.8811436687,37.7817745157],[128.8811033502,37.7818062368],[128.8810227131,37.781869679],[128.8809420759,37.7819331211],[128.8808211198,37.7820282842],[128.8807404823,37.7820917263],[128.8806598446,37.7821551682],[128.8806195257,37.7821868892],[128.8804982508,37.7822817952],[128.8804212441,37.7823478831],[128.8803501693,37.7824181222],[128.8803165712,37.782454401],[128.8802249924,37.7825683659],[128.8799909646,37.7822612307],[128.8799135304,37.7823271389],[128.8797909215,37.7824090789],[128.8797193472,37.7825487446],[128.8797594449,37.7825806419],[128.8798334937,37.7826478445],[128.8798813758,37.7827295556],[128.8799531991,37.7828521221],[128.8799846369,37.7829185405],[128.8800198714,37.7830042077],[128.880055106,37.7830898749],[128.8801079581,37.7832183757],[128.8801431929,37.7833040429],[128.8801608103,37.7833468765],[128.8801960452,37.7834325437],[128.8802493973,37.7835609139],[128.8802672805,37.7836036781],[128.8803015012,37.7836855103],[128.8803372678,37.7837710386],[128.8803730344,37.7838565669],[128.8804088011,37.7839420952],[128.8804507632,37.7840257821],[128.8805065332,37.7841027413],[128.8806351383,37.7841902818],[128.8806825947,37.7842147409],[128.8807887833,37.7842458524],[128.8809194584,37.7842416692],[128.8809759706,37.7842373708],[128.8810884006,37.7842257619],[128.8811992009,37.7842060641],[128.8813074121,37.7841790195],[128.8814630005,37.7841252781],[128.8815063375,37.7840961707],[128.8815930114,37.784037956],[128.8816876683,37.7839887671],[128.8817950267,37.7839594257],[128.8819080137,37.7839523528],[128.8820213633,37.7839526795],[128.8821334876,37.7839630876],[128.8822956784,37.7840043308],[128.8824034828,37.7840326236],[128.8825110066,37.7840615061],[128.8825632336,37.7840791727],[128.8827199147,37.7841321722],[128.8828211623,37.7841720545],[128.8829137617,37.7842242068],[128.8830063612,37.7842763589],[128.8830989608,37.784328511],[128.8831452607,37.784354587],[128.8832378605,37.784406739],[128.883373239,37.7844887296],[128.8834629039,37.7845440178],[128.8835077364,37.7845716619],[128.8835975186,37.7846268296],[128.8837326621,37.7847090979],[128.8838227428,37.784763959],[128.8839128066,37.7848188377],[128.8839672291,37.784851999],[128.8841036886,37.784932869],[128.8841495979,37.7849593769],[128.8842414164,37.7850123925],[128.8843332351,37.7850654081],[128.8844250539,37.7851184237],[128.8845168729,37.7851714391],[128.8846086897,37.785224457],[128.8847004975,37.7852774846],[128.8847923055,37.7853305122],[128.884931162,37.7854087585],[128.885025258,37.7854591969],[128.8851193542,37.7855096352],[128.8852134505,37.7855600734],[128.8853075469,37.7856105115],[128.885449023,37.7856857681],[128.8854968911,37.7857099959],[128.8855926275,37.7857584514],[128.8857373036,37.7858296792],[128.8858443166,37.7858749434],[128.8858944192,37.7858961355],[128.885994919,37.7859380495],[128.8861518573,37.7859897081],[128.886261368,37.7860135264],[128.8863708787,37.7860373445],[128.8864818866,37.7860540927],[128.8866518442,37.7860629427],[128.8867085114,37.7860655438],[128.88682206,37.7860656544],[128.8869356086,37.7860657648],[128.8869923829,37.78606582],[128.8871183232,37.7860659424],[128.8872318718,37.7860660526],[128.8873454203,37.7860661627],[128.8874589689,37.7860662727],[128.8875725175,37.7860663825],[128.8876860661,37.7860664923],[128.8877995712,37.786064501],[128.8879130541,37.7860614341],[128.888026537,37.786058367],[128.8881400198,37.7860552999],[128.8882535027,37.7860522327],[128.8884237532,37.7860482981],[128.8885372556,37.7860457282],[128.8885940113,37.7860445996],[128.8887075437,37.7860430801],[128.8888210762,37.7860415604],[128.8889346086,37.7860400406],[128.8890874423,37.7859838181],[128.8891376384,37.7859627657],[128.8892878829,37.7858990959],[128.8893879524,37.7858565102],[128.8894379872,37.7858352173],[128.8895380565,37.7857926315],[128.889586407,37.7857691039],[128.8896810182,37.7857192759],[128.8897756259,37.7856694439],[128.8899140764,37.7855908658],[128.889958985,37.7855632991],[128.8901118415,37.7855081995],[128.8901660323,37.7854947631],[128.8902744138,37.7854678902],[128.8903827953,37.7854410173],[128.8904946511,37.7854397857],[128.8907208565,37.7854557251],[128.8907765723,37.7854643469],[128.8908322641,37.7854731019],[128.8909373462,37.7855055807],[128.8910919286,37.7855623152],[128.8911953297,37.7855995513],[128.8912470302,37.7856181693],[128.8914021321,37.7856740231],[128.8914538327,37.785692641],[128.8915923331,37.7857697986],[128.8916364146,37.7857981938],[128.8917686593,37.7858833793],[128.8918473037,37.785947879],[128.8918839702,37.7859822798],[128.8919573033,37.7860510813],[128.8920306366,37.7861198827],[128.89210397,37.7861886841],[128.8921773035,37.7862574855],[128.8922958926,37.7863525983],[128.8923448285,37.7863754436],[128.892427289,37.7863989253],[128.8925340765,37.7864295577],[128.8926408642,37.78646019],[128.8927994921,37.7865088209],[128.8928489066,37.7865310078],[128.8929971503,37.7865975685],[128.8930460756,37.7866204081],[128.8931905109,37.7866920488],[128.8932386561,37.786715929],[128.8933626036,37.7868261759],[128.8934172398,37.7868139258],[128.8935265123,37.7867894254],[128.8935642641,37.7867267738],[128.8936357846,37.7867649249],[128.8936722834,37.7868969581],[128.8936844483,37.7869409694],[128.8937359291,37.7870697835],[128.8937708768,37.7871555248],[128.8937883506,37.7871983955],[128.8938232984,37.7872841368],[128.8938582462,37.7873698781],[128.8939106681,37.78749849],[128.8939456162,37.7875842313],[128.8939805643,37.7876699725],[128.8939980384,37.7877128431],[128.8940530534,37.7878407626],[128.8940717929,37.7878832953],[128.894109272,37.7879683606],[128.8941467512,37.7880534259],[128.8941842306,37.7881384912],[128.8942404497,37.7882660892],[128.8942591894,37.7883086218],[128.894296669,37.7883936871],[128.8943341486,37.7884787523],[128.8943903683,37.7886063502],[128.8944091082,37.7886488828],[128.8944653281,37.7887764806],[128.8945028071,37.7888615461],[128.8945061832,37.7888692094],[128.8945436382,37.7889542816],[128.8945998063,37.7890818938],[128.8946185291,37.7891244312],[128.8946559747,37.789209506],[128.8946934204,37.7892945807],[128.8947308662,37.7893796555],[128.8947682587,37.789464745],[128.8948055444,37.789549864],[128.8948428302,37.789634983],[128.8948801161,37.789720102],[128.8949174021,37.789805221],[128.8949546882,37.78989034],[128.8949919744,37.789975459],[128.8950292606,37.7900605779],[128.8950851902,37.7901882563],[128.8951038334,37.7902308157],[128.89514112,37.7903159346],[128.8951784066,37.7904010535],[128.8952343367,37.7905287318],[128.8952529801,37.7905712912],[128.8953089104,37.7906989695],[128.8953275539,37.7907415289],[128.8953834845,37.7908692071],[128.8954021281,37.7909117665],[128.8954394154,37.7909968853],[128.8954767027,37.7910820041],[128.8955326338,37.7912096822],[128.8955699214,37.7912948009],[128.8955885652,37.7913373603],[128.8956444967,37.7914650383],[128.8956631406,37.7915075977],[128.8957190724,37.7916352757],[128.8957377164,37.791677835],[128.8957563604,37.7917203944],[128.8957936485,37.791805513],[128.8958682249,37.7919757502],[128.895886869,37.7920183095],[128.8959241574,37.7921034281],[128.8959428016,37.7921459874],[128.8959800902,37.792231106],[128.8960173788,37.7923162246],[128.8960546674,37.7924013431],[128.8960919562,37.7924864616],[128.8961478896,37.7926141394],[128.8961851786,37.7926992579],[128.8962224676,37.7927843763],[128.8962597568,37.7928694948],[128.8962784014,37.792912054],[128.8963343354,37.7930397317],[128.8963529801,37.7930822909],[128.8964089144,37.7932099685],[128.8964275592,37.7932525277],[128.8964769538,37.7933818682],[128.8965089497,37.7934683328],[128.8965249477,37.793511565],[128.8965569437,37.7935980295],[128.8966049379,37.7937277262],[128.8966209373,37.7937709581],[128.8966573903,37.7938694126],[128.8966894009,37.7939558737],[128.8967214116,37.7940423348],[128.896737417,37.7940855653],[128.8967854333,37.794215257],[128.896799927,37.7942588031],[128.8968385628,37.7943904533],[128.8968514414,37.7944343367],[128.8968771987,37.7945221035],[128.8969158347,37.7946537537],[128.8969287134,37.794697637],[128.8969544709,37.7947854038],[128.8969931072,37.7949170539],[128.897005986,37.7949609373],[128.8970317437,37.795048704],[128.8970703803,37.7951803541],[128.8970965241,37.7952694483],[128.8971197263,37.795403274],[128.8971504181,37.7955362348],[128.8971708794,37.7956248753],[128.8971811101,37.7956691956],[128.8972015715,37.7957578362],[128.8972220329,37.7958464767],[128.8972527252,37.7959794375],[128.8972629559,37.7960237577],[128.8972834175,37.7961123982],[128.89731411,37.796245359],[128.8973345717,37.7963339995],[128.8973470412,37.796377882],[128.8973977139,37.7965069359],[128.8974146049,37.7965499539],[128.8974483869,37.7966359898],[128.897482169,37.7967220257],[128.8975393369,37.7968493359],[128.8975588313,37.7968916549],[128.8975978201,37.796976293],[128.8976486545,37.797056869],[128.8976741359,37.7970971351],[128.8977250987,37.7971776671],[128.8978015432,37.7972984651],[128.8978779878,37.7974192631],[128.8979034695,37.7974595291],[128.8979544328,37.797540061],[128.8980059359,37.7976203628],[128.8980906677,37.7977376282],[128.8981189116,37.7977767167],[128.8982053661,37.7978931177],[128.8982701616,37.797967126],[128.8983349572,37.7980411342],[128.8984321508,37.7981521465],[128.8985293447,37.7982631587],[128.8985617428,37.7983001627],[128.8986698668,37.798403325],[128.8987562354,37.7984618396],[128.898842604,37.7985203542],[128.8989289729,37.7985788688],[128.8990585263,37.7986666404],[128.8991448955,37.7987251548],[128.8992312648,37.7987836691],[128.8993176342,37.7988421833],[128.8994471886,37.7989299546],[128.8995335583,37.7989884686],[128.8996631132,37.7990762396],[128.8997062982,37.7991054966],[128.8998358535,37.7991932674],[128.8999222239,37.7992517811],[128.9000517797,37.7993395517],[128.9001381504,37.7993980653],[128.9002245213,37.7994565788],[128.9003108922,37.7995150923],[128.900440449,37.7996028623],[128.9005268203,37.7996613756],[128.9006764179,37.7997665244],[128.9007435347,37.7998069106],[128.9008751552,37.7998927261],[128.9009629023,37.7999499364],[128.9010506496,37.8000071466],[128.901138397,37.8000643567],[128.9012261446,37.8001215667],[128.9013138923,37.8001787767],[128.901445514,37.8002645916],[128.9015332621,37.8003218014],[128.9016210102,37.8003790111],[128.9017965069,37.8004934304],[128.9018842555,37.8005506399],[128.9019281298,37.8005792447],[128.9021036275,37.8006936635],[128.9021913765,37.8007508728],[128.9022352511,37.8007794774],[128.902366875,37.8008652911],[128.9024107497,37.8008938957],[128.902542374,37.8009797092],[128.9026301237,37.8010369182],[128.9027178735,37.8010941271],[128.9028933736,37.8012085446],[128.9029372487,37.801237149],[128.9031004555,37.8013621738],[128.9031400475,37.8013944738],[128.9032588238,37.8014913736],[128.9032984159,37.8015236735],[128.9033787541,37.8015892161],[128.9034497241,37.801657689],[128.903553335,37.8017649875],[128.903622409,37.8018365198],[128.9036914832,37.801908052],[128.9037605575,37.8019795842],[128.9038641693,37.8020868824],[128.9039332439,37.8021584144],[128.9040023187,37.8022299465],[128.9041375632,37.8023695844],[128.9041713963,37.8024057649],[128.9042385875,37.8024784178],[128.9042721832,37.8025147442],[128.9043057789,37.8025510706],[128.9043393746,37.802587397],[128.9044065661,37.8026600498],[128.9045073537,37.8027690289],[128.9045738778,37.8028420305],[128.9046314575,37.8029197059],[128.9046602474,37.8029585435],[128.9047466172,37.8030750565],[128.9048329874,37.8031915694],[128.9048877878,37.8032704518],[128.9049392073,37.8033508022],[128.9050163368,37.8034713279],[128.9050533408,37.8035291506],[128.9051047619,37.8036095005],[128.9051818938,37.8037300253],[128.9052333153,37.8038103751],[128.9053557485,37.803958217],[128.9054006654,37.8039857861],[128.9054970391,37.8040327173],[128.9055983428,37.8040734616],[128.9056996466,37.8041142057],[128.9058973411,37.8042028666],[128.9059464372,37.8042255099],[128.9060483056,37.8042649089],[128.9062056583,37.8043167198],[128.9063175057,37.8043291621],[128.906430565,37.8043377491],[128.9065436356,37.8043462395],[128.9066671427,37.8043116908],[128.9067582827,37.8042583044],[128.9068541401,37.8042102666],[128.9069553174,37.8041693249],[128.9070573347,37.8041297989],[128.9072078986,37.8040665514],[128.9073046753,37.8040194757],[128.9074005067,37.8039711103],[128.9075442536,37.8038985621],[128.9075921692,37.8038743793],[128.9077359158,37.8038018309],[128.9078317466,37.8037534651],[128.9079254262,37.8037025641],[128.9080642255,37.8036241855],[128.9081567581,37.8035719329],[128.9082492907,37.8035196804],[128.9083418231,37.8034674277],[128.9084343554,37.803415175],[128.9085183987,37.8033550529],[128.9085977466,37.8032905783],[128.9086770943,37.8032261035],[128.9088357894,37.803097154],[128.9088754631,37.8030649165],[128.9089935108,37.8029674647],[128.9090323907,37.8029346241],[128.90918791,37.8028032616],[128.9092614431,37.8027346779],[128.9093322141,37.8026641973],[128.9094029848,37.8025937166],[128.9094737555,37.8025232359],[128.9095870846,37.802422486],[128.9096658739,37.8023575893],[128.9097471653,37.8022946583],[128.9098691023,37.8022002617],[128.9099503934,37.8021373305],[128.9099910389,37.8021058649],[128.9101129752,37.8020114681],[128.9101492204,37.8019770674],[128.9102454634,37.8018655328],[128.9103417061,37.801753998],[128.9104058677,37.8016796415],[128.9104700292,37.8016052849],[128.9105021099,37.8015681066],[128.9106304324,37.8014193933],[128.9106904732,37.801343076],[128.9107429228,37.8012631465],[128.9108215971,37.8011432522],[128.9108478218,37.8011032874],[128.9109264958,37.800983393],[128.9109789449,37.8009034634],[128.911031394,37.8008235338],[128.9111008714,37.8007006062],[128.9111180787,37.8006576672],[128.9111697004,37.8005288503],[128.9112041149,37.8004429723],[128.9112557363,37.8003141553],[128.9112901506,37.8002282772],[128.9113245647,37.8001423992],[128.9113417717,37.8000994602],[128.9113659851,37.8000114445],[128.9114082228,37.7998343752],[128.9114283763,37.7997456906],[128.9114384531,37.7997013482],[128.9114686832,37.7995683212],[128.9114787599,37.7995239788],[128.9115190667,37.7993466094],[128.9115392199,37.7992579247],[128.9115593732,37.79916924],[128.9115795264,37.7990805553],[128.9115996795,37.7989918706],[128.9116299092,37.7988588435],[128.9116500622,37.7987701588],[128.9116702152,37.798681474],[128.9117004446,37.7985484469],[128.9117407504,37.7983710774],[128.9117609032,37.7982823927],[128.9117911323,37.7981493656],[128.911811285,37.7980606808],[128.9118314376,37.797971996],[128.9118415139,37.7979276536],[128.9118616665,37.7978389689],[128.911881819,37.7977502841],[128.9119120477,37.7976172569],[128.9119322001,37.7975285722],[128.9119523525,37.7974398874],[128.9119926571,37.7972625178],[128.912014731,37.7971741313],[128.912038187,37.7970859595],[128.912049915,37.7970418736],[128.9120851705,37.7969096279],[128.9121209273,37.7967774669],[128.9121328462,37.7967334132],[128.9121708389,37.7966017345],[128.9122064892,37.7965161749],[128.9122421394,37.7964306154],[128.9122965722,37.7963652446],[128.912359177,37.7962900596],[128.9124852885,37.7961403264],[128.9125721012,37.79608223],[128.9126589137,37.7960241336],[128.912745726,37.7959660371],[128.9127891322,37.7959369889],[128.9129193504,37.795849844],[128.9129502463,37.7957954958],[128.9130765181,37.7957693172],[128.9132701196,37.7956750765],[128.9133669201,37.795627956],[128.9134637205,37.7955808354],[128.9135605597,37.7955337659],[128.9136581439,37.7954876748],[128.91380452,37.795418538],[128.9139021039,37.7953724466],[128.9139508958,37.7953494009],[128.9140484795,37.7953033095],[128.9142436466,37.7952111264],[128.91434123,37.7951650347],[128.9143900216,37.7951419888],[128.9144876048,37.795095897],[128.9146339793,37.7950267591],[128.9147315601,37.7949806645],[128.9148779303,37.7949115211],[128.9149755102,37.7948654255],[128.9150730901,37.7948193297],[128.9152194596,37.794750186],[128.9152682493,37.794727138],[128.9154146417,37.794658025],[128.9155807934,37.7946838043],[128.9156526102,37.7947536047],[128.9157607061,37.7948580733],[128.9158327703,37.794927719],[128.9159048345,37.7949973646],[128.9159768989,37.7950670102],[128.9160849958,37.7951714785],[128.9161210281,37.7952063013],[128.9162291254,37.7953107694],[128.916337223,37.7954152375],[128.9163732556,37.7954500602],[128.9164813536,37.7955545281],[128.9165173863,37.7955893507],[128.9167139279,37.79558141],[128.9167651134,37.7955621273],[128.917214163,37.7950749117],[128.9172963166,37.7949675747],[128.9173380144,37.7949888773],[128.9178304753,37.7948022233],[128.9179400744,37.7947786277],[128.9181003975,37.7947331646],[128.9182068143,37.7947017065],[128.9183491324,37.7946298562],[128.9184458003,37.7945741112],[128.9184925421,37.7945485327],[128.9186282723,37.7944234518],[128.9186951472,37.7943506199],[128.9187821915,37.7942481326],[128.9188451896,37.7941731559],[128.9189375703,37.7940599479],[128.9189918532,37.7939807952],[128.9190189947,37.7939412188],[128.919119981,37.7937929106],[128.9191775907,37.7937152528],[128.9192032402,37.7936751618],[128.9192920434,37.7935092801],[128.9193364449,37.7934263392],[128.9193936912,37.7933489252],[128.9194570577,37.7932741446],[128.919520424,37.7931993639],[128.9195837902,37.7931245832],[128.9197105223,37.7929750217],[128.9197422052,37.7929376314],[128.919837925,37.7928258203],[128.9198698448,37.792788557],[128.9199656041,37.7926767671],[128.9200294434,37.7926022405],[128.9201282071,37.7924921427],[128.9201619921,37.7924559299],[128.9202633468,37.7923472913],[128.9203647013,37.7922386526],[128.9204707377,37.7921328837],[128.9205419643,37.7920626993],[128.9206131907,37.7919925149],[128.9206488038,37.7919574227],[128.9207935781,37.7918185716],[128.920866738,37.7917496512],[128.9209033179,37.791715191],[128.9210130573,37.7916118103],[128.9211227965,37.7915084295],[128.9211593761,37.7914739693],[128.9212691149,37.7913705883],[128.9213788533,37.7912672073],[128.9214512126,37.7911977635],[128.9214868614,37.7911626944],[128.9216294563,37.7910224177],[128.9217007536,37.7909522793],[128.9217364022,37.7909172101],[128.9218433477,37.7908120024],[128.921950293,37.7907067946],[128.9219849111,37.7906711151],[128.9220493708,37.7905969265],[128.9221782898,37.7904485492],[128.9222427491,37.7903743605],[128.9223072082,37.7903001718],[128.9223733181,37.7902270065],[128.9224859809,37.7901256269],[128.922523535,37.7900918337],[128.9225986433,37.7900242473],[128.9227488594,37.7898890743],[128.9228324584,37.7898281528],[128.9229167951,37.7897678102],[128.9230011316,37.7897074676],[128.923127636,37.7896169536],[128.9232119722,37.7895566109],[128.9232541402,37.7895264395],[128.923422812,37.7894057538],[128.9235086988,37.7893468166],[128.9235952013,37.7892884374],[128.9236817037,37.7892300582],[128.9238114569,37.7891424892],[128.9238998983,37.7890861408],[128.9239947543,37.7890366597],[128.924142816,37.78896984],[128.9242432717,37.7889278784],[128.9242939437,37.7889075546],[128.9244464579,37.7888476973],[128.9245878019,37.7888121475],[128.9246727825,37.7887523778],[128.924757763,37.7886926081],[128.9248427433,37.7886328382],[128.9249702136,37.7885431834],[128.9250551936,37.7884834134],[128.9251826634,37.7883937583],[128.9252251533,37.7883638733],[128.9253395741,37.7882626046],[128.9254407156,37.7882062902],[128.925523457,37.7881445741],[128.9256475707,37.7880520014],[128.9257717421,37.7879594776],[128.9258545229,37.787897795],[128.9259373036,37.7878361123],[128.9260206664,37.787774945],[128.926150046,37.787687031],[128.9262362989,37.7876284216],[128.9263225517,37.7875698121],[128.926366197,37.7875410072],[128.9264996722,37.7874570383],[128.926633147,37.7873730692],[128.9267792582,37.7873046896],[128.9268870945,37.7872770673],[128.9269968945,37.7872541015],[128.9271066943,37.7872311355],[128.92726934,37.7871912104],[128.9273753376,37.7871592898],[128.9274267672,37.7871402043],[128.9276261588,37.7870546745],[128.9277221874,37.7870065844],[128.9277894571,37.786966653],[128.9278751569,37.7869075357],[128.927998698,37.7868147267],[128.9280760431,37.7867487718],[128.9281822116,37.7866431003],[128.9282159606,37.786606868],[128.9282834585,37.7865344034],[128.9283509563,37.7864619387],[128.9284905862,37.7863199739],[128.9285300771,37.7862876026],[128.9286509972,37.7861924845],[128.9287765291,37.786101127],[128.9288602168,37.786040222],[128.9289440523,37.7859794462],[128.9290707391,37.7858890988],[128.9291548078,37.7858285361],[128.9291956094,37.7857972056],[128.9293588157,37.7856718835],[128.9294404186,37.7856092224],[128.9294812201,37.7855778918],[128.9296006117,37.7854815091],[128.92971905,37.7853843698],[128.9297980086,37.7853196102],[128.9298756665,37.7852538684],[128.9299565794,37.7851906584],[128.9300378558,37.785127731],[128.9301597701,37.7850333397],[128.9302004082,37.785001876],[128.9303220259,37.7849072444],[128.9304432865,37.7848123248],[128.9305240228,37.7847489613],[128.930645127,37.784653916],[128.930685495,37.7846222342],[128.9308067843,37.7845273379],[128.9309281523,37.784432505],[128.9310090641,37.7843692831],[128.9310899758,37.7843060611],[128.9311708873,37.784242839],[128.9312517987,37.7841796169],[128.9313731656,37.7840847836],[128.9314136211,37.7840531725],[128.9315752518,37.7839265744],[128.9316557894,37.7838630527],[128.9316960582,37.7838312918],[128.9317765956,37.78376777],[128.93193767,37.7836407261],[128.9319779385,37.7836089651],[128.9320981625,37.783513221],[128.9322181336,37.7834172764],[128.9322581239,37.7833852949],[128.9323381044,37.7833213318],[128.9324571292,37.7832246519],[128.9325750079,37.783127089],[128.9326549331,37.7830630953],[128.9327364471,37.7830003943],[128.9328641145,37.7829109254],[128.9329066703,37.7828811023],[128.9330328995,37.7827903937],[128.9330738575,37.7827591935],[128.9332376895,37.7826343924],[128.9333196053,37.7825719918],[128.9334015209,37.7825095911],[128.9335244028,37.7824159973],[128.9336068854,37.782354069],[128.9336893679,37.7822921406],[128.933730609,37.7822611764],[128.9338158886,37.7822018461],[128.9339995803,37.7820963083],[128.9340979256,37.782051543],[128.9342600962,37.7820102509],[128.9343604377,37.7819705946],[128.9344521436,37.7819174623],[128.9345767757,37.7818253387],[128.934659863,37.7817639223],[128.9347429501,37.7817025058],[128.9347844936,37.7816717975],[128.9349506672,37.7815489643],[128.9350336875,37.7814874916],[128.9351160814,37.7814254899],[128.9351984753,37.7813634882],[128.9353220657,37.7812704855],[128.9353632625,37.7812394846],[128.9354871156,37.7811467037],[128.9355701472,37.7810852406],[128.9356946943,37.7809930458],[128.9357777256,37.7809315825],[128.9358192412,37.7809008508],[128.9359853032,37.7807779241],[128.9360679549,37.7807161423],[128.9361499516,37.7806538105],[128.9362729465,37.7805603128],[128.9363549429,37.7804979809],[128.9363959411,37.780466815],[128.9365599334,37.780342151],[128.9366009314,37.780310985],[128.9367239518,37.7802175089],[128.9368060609,37.7801552709],[128.9369292244,37.7800619138],[128.9370113332,37.7799996757],[128.9370934419,37.7799374375],[128.9372166046,37.7798440801],[128.9373019921,37.7797847801],[128.9374336239,37.7796990119],[128.9374767301,37.7796696938],[128.9375628477,37.7796109682],[128.937691983,37.7795228424],[128.9377771538,37.7794632534],[128.9378623245,37.7794036643],[128.9379900802,37.7793142806],[128.9380326654,37.779284486],[128.9381604208,37.7791951022],[128.9382455908,37.7791355128],[128.9383737341,37.7790464799],[128.9384594487,37.7789873865],[128.9385457502,37.778928832],[128.938588251,37.7788989835],[128.9386704067,37.7788367855],[128.9388232448,37.7787265659],[128.9389094971,37.778667966],[128.9389972746,37.7786108311],[128.9390860384,37.7785546437],[128.9392142527,37.7784657146],[128.9392542983,37.7784338516],[128.939329783,37.7783666012],[128.9394437632,37.7782666859],[128.9395661393,37.7781727886],[128.9396539939,37.7781157086],[128.9397443892,37.7780612658],[128.9397856433,37.778036739],[128.9399530135,37.7779157293],[128.9400311704,37.7778503661],[128.9400702487,37.7778176845],[128.9401490352,37.7777527997],[128.94030501,37.7776218246],[128.9403815967,37.777555311],[128.94045708,37.7774879976],[128.9405335135,37.7774213802],[128.9406512197,37.7773236923],[128.9407331759,37.7772613945],[128.9408169174,37.777200545],[128.9409006587,37.7771396955],[128.9409844852,37.7770789209],[128.9411116817,37.7769890398],[128.9411540805,37.7769590794],[128.9412806373,37.7768686322],[128.9413649177,37.7768082537],[128.9414503377,37.776748899],[128.941579143,37.7766604737],[128.941622078,37.7766309985],[128.9417487301,37.7765406364],[128.9418742446,37.7764492902],[128.9419569589,37.7763875627],[128.942039673,37.7763258352],[128.94208103,37.7762949714],[128.9422440553,37.7761695259],[128.9422846718,37.7761380487],[128.9424065211,37.7760436171],[128.9424485397,37.7760133363],[128.9425759918,37.7759236853],[128.9427031079,37.7758337362],[128.9427450385,37.7758033642],[128.9428709864,37.7757123893],[128.9429572319,37.7756537864],[128.9430853343,37.7755647776],[128.9431669814,37.7755021622],[128.9432078048,37.7754708545],[128.943332169,37.7753785414],[128.943416462,37.7753181754],[128.9435428793,37.7752276078],[128.9435838158,37.7751963934],[128.9437066254,37.7751027501],[128.9437475618,37.7750715357],[128.9438294346,37.7750091067],[128.9439967038,37.7748872318],[128.9440385799,37.774856813],[128.9441632888,37.7747647688],[128.9442874789,37.7746722804],[128.944328805,37.7746413915],[128.9444113084,37.7745794882],[128.944535309,37.7744868411],[128.9446183832,37.7744254209],[128.9447014573,37.7743640006],[128.9448229372,37.7742692721],[128.9449039195,37.7742061164],[128.9449418607,37.7741726258],[128.945088189,37.7740348811],[128.9451588516,37.7739643502],[128.9452301975,37.7738942761],[128.9453057493,37.773827014],[128.9454190768,37.7737261207],[128.9454946283,37.7736588585]]},"properties":{"route":"C","distance_km":9.52}},{"type":"Feature","geometry":{"type":"LineString","coordinates":[[128.8952553496,37.7800470282],[128.8952140641,37.7801309739],[128.8951514942,37.7802566942],[128.8951088389,37.780340202],[128.8950646094,37.780423199],[128.8950424946,37.7804646974],[128.8949995315,37.7805479742],[128.8949352672,37.7806731551],[128.894895588,37.7807575836],[128.8948759347,37.7807998552],[128.8948562814,37.7808421268],[128.8948055892,37.780922175],[128.8947443509,37.7809980597],[128.8947601702,37.7811345659],[128.8948139944,37.7811488927],[128.8949216428,37.7811775463],[128.8950292914,37.7812061998],[128.8951340068,37.7812407418],[128.8952372402,37.781278259],[128.8953920905,37.7813345347],[128.8954953242,37.7813720517],[128.8955469411,37.7813908102],[128.8957017919,37.7814470855],[128.8957534089,37.7814658439],[128.8958050259,37.7814846022],[128.89590826,37.7815221189],[128.8959594364,37.7815416219],[128.8960105859,37.7815611703],[128.8961128851,37.781600267],[128.8962151845,37.7816393636],[128.8962663342,37.7816589118],[128.8963174839,37.7816784601],[128.8963686336,37.7816980083],[128.8964197834,37.7817175565],[128.8964713125,37.7817363836],[128.8965247929,37.7817515006],[128.8966317538,37.7817817345],[128.8966852343,37.7817968514],[128.8967387147,37.7818119683],[128.8967921953,37.7818270852],[128.8968456758,37.7818422021],[128.8968991564,37.7818573189],[128.8970061175,37.7818875525],[128.8971130788,37.781917786],[128.8972735208,37.781963136],[128.8973805756,37.7819931353],[128.897435272,37.7820052049],[128.8975993614,37.7820414133],[128.8977087543,37.7820655522],[128.8978728439,37.7821017603],[128.8979275405,37.7821138296],[128.8980369336,37.7821379681],[128.8982557202,37.7821862449],[128.8983652302,37.7822100461],[128.89842002,37.7822218464],[128.8985295995,37.7822454469],[128.8985843893,37.7822572471],[128.8986391791,37.7822690472],[128.8986939689,37.7822808474],[128.8987487588,37.7822926475],[128.8988035486,37.7823044476],[128.8989166961,37.7823078288],[128.8989734624,37.7823084283],[128.8990869949,37.7823096272],[128.8991437611,37.7823102266],[128.8992005274,37.782310826],[128.8992572937,37.7823114254],[128.8993140616,37.782311902],[128.8993708311,37.7823122597],[128.8994276006,37.7823126173],[128.8995411395,37.7823133325],[128.8997069305,37.7823143766],[128.8998817565,37.7823154774],[128.8999923486,37.7823328313],[128.9000470425,37.7823449088],[128.9001564302,37.7823690637],[128.9003205119,37.7824052958],[128.9004848674,37.7824407301],[128.9005945833,37.7824639289],[128.9006494413,37.7824755282],[128.9007591573,37.7824987267],[128.9009237314,37.7825335244],[128.9010296299,37.7825659365],[128.9011352798,37.7825989486],[128.9012409298,37.7826319606],[128.901344422,37.7826677439],[128.9014711048,37.7827580915],[128.9015555601,37.7828183232],[128.9016822434,37.7829086706],[128.9017244712,37.7829387864],[128.9018501947,37.7830299734],[128.9019339102,37.7830908525],[128.9020176258,37.7831517315],[128.9021013415,37.7832126105],[128.9022770298,37.7833266541],[128.902366266,37.7833823754],[128.9024108841,37.783410236],[128.9025447386,37.7834938178],[128.9026358886,37.7835471514],[128.9028013738,37.7836132794],[128.9028482448,37.783632009],[128.9029496601,37.7836725343],[128.9030993953,37.7837362851],[128.9031438344,37.7837643256],[128.9032771518,37.783848447],[128.9033660303,37.7839045278],[128.9034538878,37.7839612824],[128.9034805187,37.7840010753],[128.9035337807,37.7840806611],[128.9035991065,37.7841782727],[128.9036403051,37.7842398326],[128.9036669362,37.7842796254],[128.9036935674,37.7843194183],[128.9037201986,37.7843592111],[128.9037466619,37.7843990673],[128.9037907625,37.7844821079],[128.9038348633,37.7845651485],[128.9039052251,37.7846976377],[128.9039272756,37.784739158],[128.9039493261,37.7847806783],[128.9039713767,37.7848221986],[128.9039934272,37.7848637188],[128.9040154778,37.7849052391],[128.9040375284,37.7849467593],[128.904082248,37.7850295553],[128.9041107471,37.7850685247],[128.9041962448,37.7851854328],[128.904224744,37.7852244022],[128.9042817426,37.7853023409],[128.904310242,37.7853413103],[128.9043672408,37.785419249],[128.9044242397,37.7854971876],[128.9045814481,37.7856257233],[128.9046229687,37.7856564534],[128.9047475308,37.7857486438],[128.9047890516,37.7857793738],[128.9049281699,37.7858555588],[128.9050278259,37.7858987501],[128.9051773103,37.7859635368],[128.9052271385,37.7859851323],[128.9053267949,37.7860283233],[128.9054264514,37.7860715143],[128.9055773412,37.786134204],[128.9056781803,37.7861756304],[128.905829439,37.7862377698],[128.9058798587,37.7862584828],[128.9060815375,37.786341335],[128.9061823771,37.7863827609],[128.9062327969,37.7864034738],[128.9063350203,37.7864426957],[128.9064853234,37.7864498997],[128.9065398226,37.7865205733],[128.9065910232,37.7865400427],[128.9066934246,37.7865789813],[128.9068470268,37.7866373891],[128.9069251145,37.7866711432],[128.9069154137,37.7868054548],[128.9068821814,37.7868916242],[128.9068493109,37.786977877],[128.9068041638,37.7871082148],[128.9067590165,37.7872385526],[128.906727403,37.787325091],[128.9067104441,37.7873680916],[128.906642608,37.7875400937],[128.906625649,37.7875830942],[128.9065917308,37.7876690953],[128.9065408534,37.7877980968],[128.9065917308,37.7876690953],[128.906625649,37.7875830942],[128.906642608,37.7875400937],[128.9067104441,37.7873680916],[128.906727403,37.787325091],[128.9067590165,37.7872385526],[128.9068041638,37.7871082148],[128.9068493109,37.786977877],[128.9068821814,37.7868916242],[128.9069154137,37.7868054548],[128.9070634574,37.7867499936],[128.9071556861,37.7868025604],[128.9072717286,37.7868995263],[128.9073059127,37.7869355012],[128.9073742809,37.787007451],[128.9074768335,37.7871153756],[128.9075793864,37.7872233001],[128.9076477552,37.7872952497],[128.9077161241,37.7873671993],[128.9077844932,37.7874391488],[128.9078523962,37.7875113727],[128.9079193002,37.7875841845],[128.9079527522,37.7876205904],[128.9079862043,37.7876569963],[128.9080196564,37.7876934022],[128.9080531086,37.787729808],[128.9080865608,37.7877662139],[128.9081534652,37.7878390256],[128.9082538222,37.7879482431],[128.9082872746,37.7879846489],[128.9084214416,37.7881300645],[128.908455064,37.7881663715],[128.9085223089,37.7882389856],[128.9086175927,37.7883511452],[128.9086481068,37.7883889507],[128.9087706017,37.788540716],[128.9088012255,37.7885786573],[128.9088624732,37.7886545399],[128.9089159603,37.7887336262],[128.9089375275,37.7887753064],[128.9089590946,37.7888169866],[128.9089806617,37.7888586668],[128.9090022289,37.788900347],[128.9090237961,37.7889420272],[128.9090669306,37.7890253875],[128.9091100652,37.7891087478],[128.9091316325,37.789150428],[128.9091809786,37.7892311192],[128.909213172,37.7892682333],[128.9092453654,37.7893053474],[128.9092775588,37.7893424615],[128.9093475426,37.7894128962],[128.9094298513,37.7894749774],[128.9095533146,37.7895680991],[128.9096356236,37.7896301801],[128.9097179328,37.7896922611],[128.9098195559,37.7898003039],[128.909852116,37.7898372161],[128.9099823567,37.7899848649],[128.9100474772,37.7900586892],[128.9100800375,37.7900956013],[128.9101859737,37.7902013913],[128.9102217936,37.7902363504],[128.9102576135,37.7902713095],[128.9102934335,37.7903062685],[128.9103292534,37.7903412276],[128.9104008935,37.7904111456],[128.9104794374,37.7904760328],[128.9105202823,37.7905073302],[128.9105611273,37.7905386275],[128.9106019724,37.7905699248],[128.9106428175,37.7906012221],[128.9106836626,37.7906325194],[128.9108834049,37.7907063827],[128.9109383254,37.7907178121],[128.9111033158,37.7907513931],[128.9111583797,37.7907623794],[128.911309029,37.7908326147],[128.9114212903,37.7908149586],[128.9115314291,37.7908368963],[128.9116416032,37.7908587228],[128.9118025353,37.7909026412],[128.9119535051,37.7909640344],[128.9120508669,37.791010413],[128.9120979158,37.79103551],[128.9121979085,37.7910961085],[128.9123751851,37.7912086419],[128.9124611227,37.7912675466],[128.9125460219,37.7913273765],[128.9125845226,37.7913600251],[128.9126753227,37.7914743542],[128.912739743,37.7915485649],[128.9128041635,37.7916227757],[128.9128685842,37.7916969864],[128.9129652154,37.7918083023],[128.9130296364,37.7918825129],[128.9130940575,37.7919567235],[128.9131591915,37.7920305372],[128.9132582104,37.792140524],[128.9133242232,37.7922138485],[128.913452523,37.7923563586],[128.9135778593,37.7924955736],[128.9136438729,37.7925688978],[128.9137098865,37.792642222],[128.9137437204,37.7926784032],[128.9138355757,37.7927754168],[128.9139037881,37.7928474627],[128.9140402131,37.7929915543],[128.9140743195,37.7930275772],[128.9141742451,37.793133149],[128.9142069136,37.7931700016],[128.9143049192,37.7932805593],[128.9143702565,37.7933542643],[128.9144355939,37.7934279693],[128.9145009314,37.7935016743],[128.914566269,37.7935753793],[128.9146642757,37.7936859366],[128.9147296137,37.7937596414],[128.9148276209,37.7938701986],[128.9149256284,37.7939807557],[128.9149582977,37.7940176081],[128.9150563056,37.7941281651],[128.9151216443,37.7942018697],[128.9152240601,37.7943098737],[128.9152583313,37.7943457983],[128.9153268737,37.7944176474],[128.9154296876,37.794525421],[128.9155807934,37.7946838043],[128.9156526102,37.7947536047],[128.9157607061,37.7948580733],[128.9158327703,37.794927719],[128.9159048345,37.7949973646],[128.9159768989,37.7950670102],[128.9160849958,37.7951714785],[128.9161210281,37.7952063013],[128.9162291254,37.7953107694],[128.916337223,37.7954152375],[128.9163732556,37.7954500602],[128.9164813536,37.7955545281],[128.9165173863,37.7955893507]]},"properties":{"route":"B","distance_km":3.0}}]}