{"type": "FeatureCollection", "features": [{"type": "Feature", "geometry": {"type": "Point", "coordinates": [128.9363884, 37.7356374]}, "properties": {"name": "(구)월호평동사무소", "addr": "강원특별자치도 강릉시 운산동 256-2"}}, {"type": "Feature", "geometry": {"type": "Point", "coordinates": [128.8954183, 37.7543569]}, "properties": {"name": "IBK기업은행", "addr": "강원특별자치도 강릉시 임당동 82-2"}}, {"type": "Feature", "geometry": {"type": "Point", "coordinates": [128.9118147, 37.7728024]}, "properties": {"name": "KT", "addr": "강원특별자치도 강릉시 포남동 1197-4"}}, {"type": "Feature", "geometry": {"type": "Point", "coordinates": [128.8993066, 37.7641209]}, "properties": {"name": "KTX역버스승강장", "addr": "강원특별자치도 강릉시 교동 118-3"}}, {"type": "Feature", "geometry": {"type": "Point", "coordinates": [128.8967158, 37.7584578]}, "properties": {"name": "LH영동사업본부", "addr": "강원특별자치도 강릉시 옥천동 146"}}, {"type": "Feature", "geometry": {"type": "Point", "coordinates": [128.895195, 37.7696692]}, "properties": {"name": "e편한세상", "addr": "강원특별자치도 강릉시 교동 332"}}, {"type": "Feature", "geometry": {"type": "Point", "coordinates": [128.8950166, 37.7698753]}, "properties": {"name": "e편한세상", "addr": "강원특별자치도 강릉시 교동 332"}}, {"type": "Feature", "geometry": {"type": "Point", "coordinates": [128.8943781, 37.7659127]}, "properties": {"name": "가작다리입구", "addr": "강원특별자치도 강릉시 교동 249"}}, {"type": "Feature", "geometry": {"type": "Point", "coordinates": [128.8942839, 37.7661109]}, "properties": {"name": "가작다리입구", "addr": "강원특별자치도 강릉시 교동 289"}}, {"type": "Feature", "geometry": {"type": "Point", "coordinates": [128.8780425, 37.7383253]}, "properties": {"name": "가톨릭관동대학교", "addr": "강원특별자치도 강릉시 내곡동 314-20"}}, {"type": "Feature", "geometry": {"type": "Point", "coordinates": [128.9048984, 37.7442456]}, "properties": {"name": "강남동주민센터", "addr": "강원특별자치도 강릉시 노암동 110"}}, {"type": "Feature", "geometry": {"type": "Point", "coordinates": [128.9039236, 37.7704289]}, "properties": {"name": "강릉MBC", "addr": "강원특별자치도 강릉시 포남동 1197-6"}}, {"type": "Feature", "geometry": {"type": "Point", "coordinates": [128.9068785, 37.7680964]}, "properties": {"name": "강릉경찰서", "addr": "강원특별자치도 강릉시 포남동 1113"}}, {"type": "Feature", "geometry": {"type": "Point", "coordinates": [128.906871, 37.7678156]}, "properties": {"name": "강릉경찰서", "addr": "강원특별자치도 강릉시 포남동 1197-13"}}, {"type": "Feature", "geometry": {"type": "Point", "coordinates": [128.8800733, 37.7548222]}, "properties": {"name": "강릉고속버스터미널", "addr": "강원특별자치도 강릉시 홍제동 992-2"}}, {"type": "Feature", "geometry": {"type": "Point", "coordinates": [128.9204413, 37.7835718]}, "properties": {"name": "강릉고입구", "addr": "강원특별자치도 강릉시 송정동 842"}}, {"type": "Feature", "geometry": {"type": "Point", "coordinates": [128.920144, 37.7836278]}, "properties": {"name": "강릉고입구", "addr": "강원특별자치도 강릉시 초당동 21-6"}}, {"type": "Feature", "geometry": {"type": "Point", "coordinates": [128.915562, 37.788325]}, "properties": {"name": "강릉고정문", "addr": "강원특별자치도 강릉시 초당동 57-20"}}, {"type": "Feature", "geometry": {"type": "Point", "coordinates": [128.8801026, 37.7536488]}, "properties": {"name": "강릉관광개발공사", "addr": "강원특별자치도 강릉시 홍제동 1000-2"}}, {"type": "Feature", "geometry": {"type": "Point", "coordinates": [128.9045471, 37.7662213]}, "properties": {"name": "강릉관광호텔", "addr": "강원특별자치도 강릉시 포남동 1116-10"}}, {"type": "Feature", "geometry": {"type": "Point", "coordinates": [128.904898, 37.7662224]}, "properties": {"name": "강릉관광호텔", "addr": "강원특별자치도 강릉시 포남동 1197-13"}}, {"type": "Feature", "geometry": {"type": "Point", "coordinates": [128.8664899, 37.7458245]}, "properties": {"name": "강릉교도소", "addr": "강원특별자치도 강릉시 홍제동 760-11"}}, {"type": "Feature", "geometry": {"type": "Point", "coordinates": [128.8652396, 37.7459714]}, "properties": {"name": "강릉교도소", "addr": "강원특별자치도 강릉시 홍제동 780-5"}}, {"type": "Feature", "geometry": {"type": "Point", "coordinates": [128.8964913, 37.7769486]}, "properties": {"name": "강릉국민체육센터", "addr": "강원특별자치도 강릉시 교동 67-4"}}, {"type": "Feature", "geometry": {"type": "Point", "coordinates": [128.907619, 37.7870392]}, "properties": {"name": "강릉녹색도시체험센터", "addr": "강원특별자치도 강릉시 포남동 82-1"}}, {"type": "Feature", "geometry": {"type": "Point", "coordinates": [128.9064871, 37.7865828]}, "properties": {"name": "강릉녹색도시체험센터", "addr": "강원특별자치도 강릉시 포남동 941"}}, {"type": "Feature", "geometry": {"type": "Point", "coordinates": [128.8999746, 37.7601505]}, "properties": {"name": "강릉농협(복편)경포고,안목방향", "addr": "강원특별자치도 강릉시 옥천동 351"}}, {"type": "Feature", "geometry": {"type": "Point", "coordinates": [128.8696712, 37.7640661]}, "properties": {"name": "강릉대,치대", "addr": "강원특별자치도 강릉시 유천동 787"}}, {"type": "Feature", "geometry": {"type": "Point", "coordinates": [128.8917294, 37.7512583]}, "properties": {"name": "강릉대도호부관아", "addr": "강원특별자치도 강릉시 명주동 30-3"}}, {"type": "Feature", "geometry": {"type": "Point", "coordinates": [128.8957301, 37.7542981]}, "properties": {"name": "강릉바른이치과의원", "addr": "강원특별자치도 강릉시 임당동 126-1"}}, {"type": "Feature", "geometry": {"type": "Point", "coordinates": [128.8789735, 37.754924]}, "properties": {"name": "강릉버스터미널", "addr": "강원특별자치도 강릉시 홍제동 1000-1"}}, {"type": "Feature", "geometry": {"type": "Point", "coordinates": [128.878857, 37.7549293]}, "properties": {"name": "강릉버스터미널", "addr": "강원특별자치도 강릉시 홍제동 1000-1"}}, {"type": "Feature", "geometry": {"type": "Point", "coordinates": [128.871146, 37.758177]}, "properties": {"name": "강릉소방서", "addr": "강원특별자치도 강릉시 유천동 789"}}, {"type": "Feature", "geometry": {"type": "Point", "coordinates": [128.8792194, 37.755104]}, "properties": {"name": "강릉시외고속터미널", "addr": "강원특별자치도 강릉시 홍제동 990-5"}}, {"type": "Feature", "geometry": {"type": "Point", "coordinates": [128.8778316, 37.7549888]}, "properties": {"name": "강릉시외버스터미널", "addr": "강원특별자치도 강릉시 홍제동 1000-1"}}, {"type": "Feature", "geometry": {"type": "Point", "coordinates": [128.8791395, 37.7544547]}, "properties": {"name": "강릉시외버스터미널", "addr": "강원특별자치도 강릉시 홍제동 992-1"}}, {"type": "Feature", "geometry": {"type": "Point", "coordinates": [128.8793126, 37.7539895]}, "properties": {"name": "강릉시외버스터미널", "addr": "강원특별자치도 강릉시 홍제동 992-1"}}, {"type": "Feature", "geometry": {"type": "Point", "coordinates": [128.87795, 37.7546]}, "properties": {"name": "강릉시외버스터미널(버스정류장)", "addr": "강원특별자치도 강릉시 홍제동 992"}}, {"type": "Feature", "geometry": {"type": "Point", "coordinates": [128.878083, 37.750894]}, "properties": {"name": "강릉시청", "addr": "강원특별자치도 강릉시 홍제동 264"}}, {"type": "Feature", "geometry": {"type": "Point", "coordinates": [128.9024186, 37.7590627]}, "properties": {"name": "강릉여고", "addr": "강원특별자치도 강릉시 옥천동 351"}}, {"type": "Feature", "geometry": {"type": "Point", "coordinates": [128.9055202, 37.7588486]}, "properties": {"name": "강릉여고정문", "addr": "강원특별자치도 강릉시 옥천동 373-6"}}, {"type": "Feature", "geometry": {"type": "Point", "coordinates": [128.9052266, 37.759354]}, "properties": {"name": "강릉여고정문", "addr": "강원특별자치도 강릉시 옥천동 374"}}, {"type": "Feature", "geometry": {"type": "Point", "coordinates": [128.8993978, 37.7636535]}, "properties": {"name": "강릉역", "addr": "강원특별자치도 강릉시 교동 108-10"}}, {"type": "Feature", "geometry": {"type": "Point", "coordinates": [128.8982631, 37.7642755]}, "properties": {"name": "강릉역", "addr": "강원특별자치도 강릉시 교동 118-1"}}, {"type": "Feature", "geometry": {"type": "Point", "coordinates": [128.8981338, 37.7641605]}, "properties": {"name": "강릉역", "addr": "강원특별자치도 강릉시 교동 118-21"}}, {"type": "Feature", "geometry": {"type": "Point", "coordinates": [128.875024, 37.770818]}, "properties": {"name": "강릉원주대입구", "addr": "강원특별자치도 강릉시 지변동 70-1"}}, {"type": "Feature", "geometry": {"type": "Point", "coordinates": [128.8742106, 37.7708177]}, "properties": {"name": "강릉원주대학교", "addr": "강원특별자치도 강릉시 지변동 123"}}, {"type": "Feature", "geometry": {"type": "Point", "coordinates": [128.8750669, 37.7732459]}, "properties": {"name": "강릉원주대후문", "addr": "강원특별자치도 강릉시 지변동 302-2"}}, {"type": "Feature", "geometry": {"type": "Point", "coordinates": [128.8678379, 37.7535779]}, "properties": {"name": "강릉유천아파트", "addr": "강원특별자치도 강릉시 홍제동 1053"}}, {"type": "Feature", "geometry": {"type": "Point", "coordinates": [128.889587, 37.7510145]}, "properties": {"name": "강릉읍성유적", "addr": "강원특별자치도 강릉시 남문동 120-7"}}, {"type": "Feature", "geometry": {"type": "Point", "coordinates": [128.8908812, 37.7498016]}, "properties": {"name": "강릉의료원", "addr": "강원특별자치도 강릉시 명주동 61-9"}}, {"type": "Feature", "geometry": {"type": "Point", "coordinates": [128.8918857, 37.7595953]}, "properties": {"name": "강릉제일고", "addr": "강원특별자치도 강릉시 교동 1535"}}, {"type": "Feature", "geometry": {"type": "Point", "coordinates": [128.91216, 37.7593854]}, "properties": {"name": "강릉중앙고", "addr": "강원특별자치도 강릉시 입암동 533"}}, {"type": "Feature", "geometry": {"type": "Point", "coordinates": [128.9129092, 37.7596417]}, "properties": {"name": "강릉중앙고교", "addr": "강원특별자치도 강릉시 입암동 550-20"}}, {"type": "Feature", "geometry": {"type": "Point", "coordinates": [128.90432, 37.7526337]}, "properties": {"name": "강릉중입구", "addr": "강원특별자치도 강릉시 노암동 267-14"}}, {"type": "Feature", "geometry": {"type": "Point", "coordinates": [128.9045861, 37.7526727]}, "properties": {"name": "강릉중입구", "addr": "강원특별자치도 강릉시 노암동 267-14"}}, {"type": "Feature", "geometry": {"type": "Point", "coordinates": [128.887401, 37.752225]}, "properties": {"name": "강릉초교", "addr": "강원특별자치도 강릉시 홍제동 62-8"}}, {"type": "Feature", "geometry": {"type": "Point", "coordinates": [128.8802015, 37.7405644]}, "properties": {"name": "강릉축협", "addr": "강원특별자치도 강릉시 내곡동 496-2"}}, {"type": "Feature", "geometry": {"type": "Point", "coordinates": [128.9151585, 37.7946347]}, "properties": {"name": "강문", "addr": "강원특별자치도 강릉시 강문동 283-14"}}, {"type": "Feature", "geometry": {"type": "Point", "coordinates": [128.9153353, 37.7947564]}, "properties": {"name": "강문", "addr": "강원특별자치도 강릉시 강문동 283-14"}}, {"type": "Feature", "geometry": {"type": "Point", "coordinates": [128.9164478, 37.7953661]}, "properties": {"name": "강문종점", "addr": "강원특별자치도 강릉시 강문동 50-1"}}, {"type": "Feature", "geometry": {"type": "Point", "coordinates": [128.9180766, 37.7852023]}, "properties": {"name": "강원도교육연수원", "addr": "강원특별자치도 강릉시 초당동 78-2"}}, {"type": "Feature", "geometry": {"type": "Point", "coordinates": [128.8883381, 37.7642296]}, "properties": {"name": "강일여고", "addr": "강원특별자치도 강릉시 교동 828"}}, {"type": "Feature", "geometry": {"type": "Point", "coordinates": [128.8915828, 37.7645724]}, "properties": {"name": "강일여고", "addr": "강원특별자치도 강릉시 교동 828"}}, {"type": "Feature", "geometry": {"type": "Point", "coordinates": [128.887337, 37.763843]}, "properties": {"name": "강일여고정문", "addr": "강원특별자치도 강릉시 교동 832"}}, {"type": "Feature", "geometry": {"type": "Point", "coordinates": [128.8635453, 37.7368958]}, "properties": {"name": "강일운수", "addr": "강원특별자치도 강릉시 회산동 394-1"}}, {"type": "Feature", "geometry": {"type": "Point", "coordinates": [128.9188467, 37.7808434]}, "properties": {"name": "경포고교", "addr": "강원특별자치도 강릉시 송정동 371-2"}}, {"type": "Feature", "geometry": {"type": "Point", "coordinates": [128.9190307, 37.7805859]}, "properties": {"name": "경포고교", "addr": "강원특별자치도 강릉시 송정동 842"}}, {"type": "Feature", "geometry": {"type": "Point", "coordinates": [128.8969955, 37.7955579]}, "properties": {"name": "경포대,참소리박물관", "addr": "강원특별자치도 강릉시 저동 131-1"}}, {"type": "Feature", "geometry": {"type": "Point", "coordinates": [128.8805827, 37.7841585]}, "properties": {"name": "경포동주민센터", "addr": "강원특별자치도 강릉시 난곡동 108-16"}}, {"type": "Feature", "geometry": {"type": "Point", "coordinates": [128.9115715, 37.7996943]}, "properties": {"name": "경포생태습지원", "addr": "강원특별자치도 강릉시 강문동 260-20"}}, {"type": "Feature", "geometry": {"type": "Point", "coordinates": [128.9012352, 37.7397689]}, "properties": {"name": "경포중학교", "addr": "강원특별자치도 강릉시 유산동 76-2"}}, {"type": "Feature", "geometry": {"type": "Point", "coordinates": [128.878923, 37.7697456]}, "properties": {"name": "경포초등학교", "addr": "강원특별자치도 강릉시 교동 1929"}}, {"type": "Feature", "geometry": {"type": "Point", "coordinates": [128.90622, 37.804201]}, "properties": {"name": "경포해변", "addr": "강원특별자치도 강릉시 안현동 852"}}, {"type": "Feature", "geometry": {"type": "Point", "coordinates": [128.9052469, 37.8044484]}, "properties": {"name": "경포해변", "addr": "강원특별자치도 강릉시 안현동 94-143"}}, {"type": "Feature", "geometry": {"type": "Point", "coordinates": [128.903352, 37.801251]}, "properties": {"name": "경포현대A", "addr": "강원특별자치도 강릉시 저동 2-4"}}, {"type": "Feature", "geometry": {"type": "Point", "coordinates": [128.9033207, 37.8017505]}, "properties": {"name": "경포현대아파트", "addr": "강원특별자치도 강릉시 안현동 868-5"}}, {"type": "Feature", "geometry": {"type": "Point", "coordinates": [128.8891635, 37.7572334]}, "properties": {"name": "고용센터", "addr": "강원특별자치도 강릉시 교동 980-2"}}, {"type": "Feature", "geometry": {"type": "Point", "coordinates": [128.8889419, 37.7574697]}, "properties": {"name": "고용센터", "addr": "강원특별자치도 강릉시 교동 980-2"}}, {"type": "Feature", "geometry": {"type": "Point", "coordinates": [128.9299927, 37.7401378]}, "properties": {"name": "공군비행장입구", "addr": "강원특별자치도 강릉시 청량동 103-3"}}, {"type": "Feature", "geometry": {"type": "Point", "coordinates": [128.9219976, 37.7653409]}, "properties": {"name": "공단", "addr": "강원특별자치도 강릉시 입암동 21-8"}}, {"type": "Feature", "geometry": {"type": "Point", "coordinates": [128.8715634, 37.7461193]}, "properties": {"name": "공제마을", "addr": "강원특별자치도 강릉시 홍제동 472-1"}}, {"type": "Feature", "geometry": {"type": "Point", "coordinates": [128.8715311, 37.7464022]}, "properties": {"name": "공제마을", "addr": "강원특별자치도 강릉시 홍제동 481-2"}}, {"type": "Feature", "geometry": {"type": "Point", "coordinates": [128.8608387, 37.7971185]}, "properties": {"name": "과학단지", "addr": "강원특별자치도 강릉시 대전동 19-6"}}, {"type": "Feature", "geometry": {"type": "Point", "coordinates": [128.8603419, 37.7975379]}, "properties": {"name": "과학단지", "addr": "강원특별자치도 강릉시 대전동 925-1"}}, {"type": "Feature", "geometry": {"type": "Point", "coordinates": [128.8698083, 37.7395772]}, "properties": {"name": "관솔길", "addr": "강원특별자치도 강릉시 회산동 35"}}, {"type": "Feature", "geometry": {"type": "Point", "coordinates": [128.8921012, 37.7683824]}, "properties": {"name": "교동2동주민센터", "addr": "강원특별자치도 강릉시 교동 720-2"}}, {"type": "Feature", "geometry": {"type": "Point", "coordinates": [128.883858, 37.7687708]}, "properties": {"name": "교동부영2차아파트", "addr": "강원특별자치도 강릉시 교동 1747"}}, {"type": "Feature", "geometry": {"type": "Point", "coordinates": [128.8838336, 37.7556595]}, "properties": {"name": "교동주유소", "addr": "강원특별자치도 강릉시 교동 942-1"}}, {"type": "Feature", "geometry": {"type": "Point", "coordinates": [128.8946996, 37.7587021]}, "properties": {"name": "교동철교", "addr": "강원특별자치도 강릉시 교동 159-49"}}, {"type": "Feature", "geometry": {"type": "Point", "coordinates": [128.9006427, 37.7676705]}, "properties": {"name": "교동한신아파트", "addr": "강원특별자치도 강릉시 교동 95-16"}}, {"type": "Feature", "geometry": {"type": "Point", "coordinates": [128.8980715, 37.7560013]}, "properties": {"name": "교보생명", "addr": "강원특별자치도 강릉시 옥천동 351"}}, {"type": "Feature", "geometry": {"type": "Point", "coordinates": [128.8976572, 37.7557707]}, "properties": {"name": "교보생명", "addr": "강원특별자치도 강릉시 임당동 106-1"}}, {"type": "Feature", "geometry": {"type": "Point", "coordinates": [128.9116499, 37.7668438]}, "properties": {"name": "구)동해상사", "addr": "강원특별자치도 강릉시 포남동 1197-30"}}, {"type": "Feature", "geometry": {"type": "Point", "coordinates": [128.877393, 37.76474]}, "properties": {"name": "구름다리", "addr": "강원특별자치도 강릉시 교동 1881-8"}}, {"type": "Feature", "geometry": {"type": "Point", "coordinates": [128.8765826, 37.7645055]}, "properties": {"name": "구름다리", "addr": "강원특별자치도 강릉시 교동 1883-1"}}, {"type": "Feature", "geometry": {"type": "Point", "coordinates": [128.8988309, 37.761664]}, "properties": {"name": "구터미널", "addr": "강원특별자치도 강릉시 교동 148-6"}}, {"type": "Feature", "geometry": {"type": "Point", "coordinates": [128.8929491, 37.7524208]}, "properties": {"name": "군기청작정터", "addr": "강원특별자치도 강릉시 성내동 23-1"}}, {"type": "Feature", "geometry": {"type": "Point", "coordinates": [128.9158274, 37.7550894]}, "properties": {"name": "금호어울림", "addr": "강원특별자치도 강릉시 입암동 293-1"}}, {"type": "Feature", "geometry": {"type": "Point", "coordinates": [128.915569, 37.7550746]}, "properties": {"name": "금호어울림", "addr": "강원특별자치도 강릉시 입암동 470"}}, {"type": "Feature", "geometry": {"type": "Point", "coordinates": [128.9194378, 37.7547908]}, "properties": {"name": "금호어울림정문", "addr": "강원특별자치도 강릉시 입암동 210"}}, {"type": "Feature", "geometry": {"type": "Point", "coordinates": [128.9195266, 37.7545404]}, "properties": {"name": "금호어울림정문", "addr": "강원특별자치도 강릉시 입암동 321-4"}}, {"type": "Feature", "geometry": {"type": "Point", "coordinates": [128.8799555, 37.73428]}, "properties": {"name": "기산아파트", "addr": "강원특별자치도 강릉시 내곡동 269-7"}}, {"type": "Feature", "geometry": {"type": "Point", "coordinates": [128.8795448, 37.7340005]}, "properties": {"name": "기산아파트", "addr": "강원특별자치도 강릉시 내곡동 649-1"}}, {"type": "Feature", "geometry": {"type": "Point", "coordinates": [128.9132729, 37.7673743]}, "properties": {"name": "남강초교", "addr": "강원특별자치도 강릉시 포남동 1287"}}, {"type": "Feature", "geometry": {"type": "Point", "coordinates": [128.9011977, 37.7540966]}, "properties": {"name": "남대천", "addr": "강원특별자치도 강릉시 성남동 18-2"}}, {"type": "Feature", "geometry": {"type": "Point", "coordinates": [128.9009641, 37.7546077]}, "properties": {"name": "남대천교", "addr": "강원특별자치도 강릉시 성남동 33-1"}}, {"type": "Feature", "geometry": {"type": "Point", "coordinates": [128.897389, 37.7493728]}, "properties": {"name": "남산교차로", "addr": "강원특별자치도 강릉시 노암동 826-1"}}, {"type": "Feature", "geometry": {"type": "Point", "coordinates": [128.8919874, 37.747765]}, "properties": {"name": "남산입구", "addr": "강원특별자치도 강릉시 내곡동 32-28"}}, {"type": "Feature", "geometry": {"type": "Point", "coordinates": [128.8913146, 37.7442496]}, "properties": {"name": "남산초교", "addr": "강원특별자치도 강릉시 내곡동 97-8"}}, {"type": "Feature", "geometry": {"type": "Point", "coordinates": [128.8944403, 37.74206]}, "properties": {"name": "남산현대아파트", "addr": "강원특별자치도 강릉시 노암동 607-2"}}, {"type": "Feature", "geometry": {"type": "Point", "coordinates": [128.9541037, 37.7637981]}, "properties": {"name": "남항진", "addr": "강원특별자치도 강릉시 남항진동 7-3"}}, {"type": "Feature", "geometry": {"type": "Point", "coordinates": [128.950571, 37.7642042]}, "properties": {"name": "남항진해변", "addr": "강원특별자치도 강릉시 남항진동 52-1"}}, {"type": "Feature", "geometry": {"type": "Point", "coordinates": [128.9543539, 37.7641875]}, "properties": {"name": "남항진해변", "addr": "강원특별자치도 강릉시 남항진동 7-3"}}, {"type": "Feature", "geometry": {"type": "Point", "coordinates": [128.8865204, 37.7463085]}, "properties": {"name": "내곡교", "addr": "강원특별자치도 강릉시 내곡동 454-12"}}, {"type": "Feature", "geometry": {"type": "Point", "coordinates": [128.8871109, 37.7465677]}, "properties": {"name": "내곡교", "addr": "강원특별자치도 강릉시 내곡동 454-9"}}, {"type": "Feature", "geometry": {"type": "Point", "coordinates": [128.8881701, 37.7455962]}, "properties": {"name": "내곡교", "addr": "강원특별자치도 강릉시 내곡동 56-8"}}, {"type": "Feature", "geometry": {"type": "Point", "coordinates": [128.8812031, 37.7394012]}, "properties": {"name": "내곡동주민센터", "addr": "강원특별자치도 강릉시 내곡동 325-8"}}, {"type": "Feature", "geometry": {"type": "Point", "coordinates": [128.8811715, 37.7450229]}, "properties": {"name": "내곡한라아파트", "addr": "강원특별자치도 강릉시 내곡동 476"}}, {"type": "Feature", "geometry": {"type": "Point", "coordinates": [128.8810361, 37.7451548]}, "properties": {"name": "내곡한라아파트", "addr": "강원특별자치도 강릉시 내곡동 604-5"}}, {"type": "Feature", "geometry": {"type": "Point", "coordinates": [128.8834726, 37.7455448]}, "properties": {"name": "내곡현대아파트", "addr": "강원특별자치도 강릉시 내곡동 603-9"}}, {"type": "Feature", "geometry": {"type": "Point", "coordinates": [128.8831852, 37.7455934]}, "properties": {"name": "내곡현대아파트", "addr": "강원특별자치도 강릉시 내곡동 604-6"}}, {"type": "Feature", "geometry": {"type": "Point", "coordinates": [128.8964911, 37.744506]}, "properties": {"name": "노암대림아파트", "addr": "강원특별자치도 강릉시 노암동 661-3"}}, {"type": "Feature", "geometry": {"type": "Point", "coordinates": [128.8966997, 37.7444454]}, "properties": {"name": "노암대림아파트", "addr": "강원특별자치도 강릉시 노암동 663-1"}}, {"type": "Feature", "geometry": {"type": "Point", "coordinates": [128.8946134, 37.7419255]}, "properties": {"name": "노암한라3차아파트", "addr": "강원특별자치도 강릉시 노암동 607-2"}}, {"type": "Feature", "geometry": {"type": "Point", "coordinates": [128.9030492, 37.7440445]}, "properties": {"name": "노암한라아파트", "addr": "강원특별자치도 강릉시 노암동 415-15"}}, {"type": "Feature", "geometry": {"type": "Point", "coordinates": [128.9064578, 37.7504772]}, "properties": {"name": "노암현대아파트", "addr": "강원특별자치도 강릉시 노암동 256-3"}}, {"type": "Feature", "geometry": {"type": "Point", "coordinates": [128.9163696, 37.75996]}, "properties": {"name": "녹원아파트", "addr": "강원특별자치도 강릉시 입암동 533"}}, {"type": "Feature", "geometry": {"type": "Point", "coordinates": [128.9176416, 37.7381375]}, "properties": {"name": "농산물도매시장", "addr": "강원특별자치도 강릉시 유산동 160-1"}}, {"type": "Feature", "geometry": {"type": "Point", "coordinates": [128.8790531, 37.7322638]}, "properties": {"name": "농협창고", "addr": "강원특별자치도 강릉시 내곡동 245-31"}}, {"type": "Feature", "geometry": {"type": "Point", "coordinates": [128.9178626, 37.7852245]}, "properties": {"name": "늘푸른초당게이트볼장", "addr": "강원특별자치도 강릉시 초당동 109"}}, {"type": "Feature", "geometry": {"type": "Point", "coordinates": [128.8967674, 37.7481241]}, "properties": {"name": "단오문화관", "addr": "강원특별자치도 강릉시 노암동 706-18"}}, {"type": "Feature", "geometry": {"type": "Point", "coordinates": [128.8923221, 37.7516832]}, "properties": {"name": "대도호부관아", "addr": "강원특별자치도 강릉시 명주동 30-11"}}, {"type": "Feature", "geometry": {"type": "Point", "coordinates": [128.8967915, 37.7427338]}, "properties": {"name": "대림아파트삼거리", "addr": "강원특별자치도 강릉시 노암동 582"}}, {"type": "Feature", "geometry": {"type": "Point", "coordinates": [128.896803, 37.7425323]}, "properties": {"name": "대림아파트삼거리", "addr": "강원특별자치도 강릉시 노암동 582"}}, {"type": "Feature", "geometry": {"type": "Point", "coordinates": [128.9103862, 37.7553143]}, "properties": {"name": "대목아파트", "addr": "강원특별자치도 강릉시 입암동 442-3"}}, {"type": "Feature", "geometry": {"type": "Point", "coordinates": [128.911665, 37.7494282]}, "properties": {"name": "더샵아파트", "addr": "강원특별자치도 강릉시 입암동 407-2"}}, {"type": "Feature", "geometry": {"type": "Point", "coordinates": [128.9118169, 37.7492256]}, "properties": {"name": "더샵아파트", "addr": "강원특별자치도 강릉시 입암동 407-2"}}, {"type": "Feature", "geometry": {"type": "Point", "coordinates": [128.909172, 37.7480278]}, "properties": {"name": "더샵후문", "addr": "강원특별자치도 강릉시 입암동 678"}}, {"type": "Feature", "geometry": {"type": "Point", "coordinates": [128.874819, 37.7768237]}, "properties": {"name": "덕원아파트", "addr": "강원특별자치도 강릉시 지변동 622-7"}}, {"type": "Feature", "geometry": {"type": "Point", "coordinates": [128.9160892, 37.7765807]}, "properties": {"name": "동명중학교", "addr": "강원특별자치도 강릉시 송정동 842"}}, {"type": "Feature", "geometry": {"type": "Point", "coordinates": [128.9151853, 37.784017]}, "properties": {"name": "동부A", "addr": "강원특별자치도 강릉시 초당동 181-1"}}, {"type": "Feature", "geometry": {"type": "Point", "coordinates": [128.9005201, 37.7595314]}, "properties": {"name": "동부시장", "addr": "강원특별자치도 강릉시 옥천동 223"}}, {"type": "Feature", "geometry": {"type": "Point", "coordinates": [128.9011227, 37.7582947]}, "properties": {"name": "동부시장입구", "addr": "강원특별자치도 강릉시 옥천동 351"}}, {"type": "Feature", "geometry": {"type": "Point", "coordinates": [128.9095572, 37.7710927]}, "properties": {"name": "동인병원입구", "addr": "강원특별자치도 강릉시 포남동 1197-4"}}, {"type": "Feature", "geometry": {"type": "Point", "coordinates": [128.9095428, 37.7712679]}, "properties": {"name": "동인병원입구", "addr": "강원특별자치도 강릉시 포남동 1197-4"}}, {"type": "Feature", "geometry": {"type": "Point", "coordinates": [128.9083579, 37.7438095]}, "properties": {"name": "똑갑재", "addr": "강원특별자치도 강릉시 노암동 151-2"}}, {"type": "Feature", "geometry": {"type": "Point", "coordinates": [128.9093227, 37.7654556]}, "properties": {"name": "로얄아파트", "addr": "강원특별자치도 강릉시 포남동 1197-35"}}, {"type": "Feature", "geometry": {"type": "Point", "coordinates": [128.8956945, 37.7617073]}, "properties": {"name": "명륜고교후문(왕편)시내방향", "addr": "강원특별자치도 강릉시 교동 183-187"}}, {"type": "Feature", "geometry": {"type": "Point", "coordinates": [128.903337, 37.783776]}, "properties": {"name": "모안이서낭당", "addr": "강원특별자치도 강릉시 포남동 166-2"}}, {"type": "Feature", "geometry": {"type": "Point", "coordinates": [128.9026714, 37.7836417]}, "properties": {"name": "모안이서낭당", "addr": "강원특별자치도 강릉시 포남동 965-1"}}, {"type": "Feature", "geometry": {"type": "Point", "coordinates": [128.8745752, 37.7768885]}, "properties": {"name": "문성고등학교", "addr": "강원특별자치도 강릉시 지변동 716"}}, {"type": "Feature", "geometry": {"type": "Point", "coordinates": [128.9152503, 37.7443214]}, "properties": {"name": "문암정", "addr": "강원특별자치도 강릉시 유산동 467-1"}}, {"type": "Feature", "geometry": {"type": "Point", "coordinates": [128.9158759, 37.7436383]}, "properties": {"name": "문암정", "addr": "강원특별자치도 강릉시 청량동 557-5"}}, {"type": "Feature", "geometry": {"type": "Point", "coordinates": [128.8676353, 37.7537681]}, "properties": {"name": "미디어촌5단지", "addr": "강원특별자치도 강릉시 홍제동 1053"}}, {"type": "Feature", "geometry": {"type": "Point", "coordinates": [128.865488, 37.754475]}, "properties": {"name": "미디어촌A", "addr": "강원특별자치도 강릉시 홍제동 667-1"}}, {"type": "Feature", "geometry": {"type": "Point", "coordinates": [128.9338405, 37.7606134]}, "properties": {"name": "반쟁이", "addr": "강원특별자치도 강릉시 학동 254-1"}}, {"type": "Feature", "geometry": {"type": "Point", "coordinates": [128.8836529, 37.7733932]}, "properties": {"name": "방축거리", "addr": "강원특별자치도 강릉시 교동 1211-1"}}, {"type": "Feature", "geometry": {"type": "Point", "coordinates": [128.8838748, 37.7739729]}, "properties": {"name": "방축거리", "addr": "강원특별자치도 강릉시 교동 1230-1"}}, {"type": "Feature", "geometry": {"type": "Point", "coordinates": [128.9165638, 37.7617362]}, "properties": {"name": "법암4주공아파트", "addr": "강원특별자치도 강릉시 입암동 680-16"}}, {"type": "Feature", "geometry": {"type": "Point", "coordinates": [128.9166646, 37.7618942]}, "properties": {"name": "법암4주공아파트", "addr": "강원특별자치도 강릉시 입암동 80-3"}}, {"type": "Feature", "geometry": {"type": "Point", "coordinates": [128.8732648, 37.7853082]}, "properties": {"name": "법원,검찰청", "addr": "강원특별자치도 강릉시 죽헌동 20-7"}}, {"type": "Feature", "geometry": {"type": "Point", "coordinates": [128.8740028, 37.7850712]}, "properties": {"name": "법원,검찰청", "addr": "강원특별자치도 강릉시 죽헌동 304-6"}}, {"type": "Feature", "geometry": {"type": "Point", "coordinates": [128.908415, 37.7481982]}, "properties": {"name": "병무청", "addr": "강원특별자치도 강릉시 노암동 222-6"}}, {"type": "Feature", "geometry": {"type": "Point", "coordinates": [128.9073461, 37.7496996]}, "properties": {"name": "병무청앞", "addr": "강원특별자치도 강릉시 노암동 229-9"}}, {"type": "Feature", "geometry": {"type": "Point", "coordinates": [128.8829339, 37.7439313]}, "properties": {"name": "보건소", "addr": "강원특별자치도 강릉시 내곡동 427-2"}}, {"type": "Feature", "geometry": {"type": "Point", "coordinates": [128.8822241, 37.7436466]}, "properties": {"name": "보건소", "addr": "강원특별자치도 강릉시 내곡동 603"}}, {"type": "Feature", "geometry": {"type": "Point", "coordinates": [128.8978039, 37.7363064]}, "properties": {"name": "보리사", "addr": "강원특별자치도 강릉시 유산동 699-6"}}, {"type": "Feature", "geometry": {"type": "Point", "coordinates": [128.8828522, 37.770218]}, "properties": {"name": "부영2차아파트", "addr": "강원특별자치도 강릉시 교동 1746"}}, {"type": "Feature", "geometry": {"type": "Point", "coordinates": [128.8824844, 37.7700246]}, "properties": {"name": "부영2차아파트", "addr": "강원특별자치도 강릉시 교동 1796-7"}}, {"type": "Feature", "geometry": {"type": "Point", "coordinates": [128.9063481, 37.7468926]}, "properties": {"name": "부흥마을", "addr": "강원특별자치도 강릉시 노암동 173-3"}}, {"type": "Feature", "geometry": {"type": "Point", "coordinates": [128.8742517, 37.7635369]}, "properties": {"name": "분수공원", "addr": "강원특별자치도 강릉시 교동 1912"}}, {"type": "Feature", "geometry": {"type": "Point", "coordinates": [128.8746114, 37.7636927]}, "properties": {"name": "분수공원", "addr": "강원특별자치도 강릉시 교동 1912"}}, {"type": "Feature", "geometry": {"type": "Point", "coordinates": [128.862699, 37.7487801]}, "properties": {"name": "사임당로", "addr": "강원특별자치도 강릉시 홍제동 850-6"}}, {"type": "Feature", "geometry": {"type": "Point", "coordinates": [128.862379, 37.7479126]}, "properties": {"name": "사임당주유소", "addr": "강원특별자치도 강릉시 홍제동 851"}}, {"type": "Feature", "geometry": {"type": "Point", "coordinates": [128.886992, 37.7503895]}, "properties": {"name": "삼계사입구", "addr": "강원특별자치도 강릉시 홍제동 70-9"}}, {"type": "Feature", "geometry": {"type": "Point", "coordinates": [128.8868427, 37.7503037]}, "properties": {"name": "삼계사입구", "addr": "강원특별자치도 강릉시 홍제동 72-6"}}, {"type": "Feature", "geometry": {"type": "Point", "coordinates": [128.9187936, 37.7701137]}, "properties": {"name": "삼부은성APT", "addr": "강원특별자치도 강릉시 포남동 1315"}}, {"type": "Feature", "geometry": {"type": "Point", "coordinates": [128.8966869, 37.7581712]}, "properties": {"name": "삼성디지털센터", "addr": "강원특별자치도 강릉시 옥천동 172"}}, {"type": "Feature", "geometry": {"type": "Point", "coordinates": [128.9196529, 37.7702699]}, "properties": {"name": "삼우은성아파트", "addr": "강원특별자치도 강릉시 송정동 620-2"}}, {"type": "Feature", "geometry": {"type": "Point", "coordinates": [128.8902342, 37.7423354]}, "properties": {"name": "삼익아파트", "addr": "강원특별자치도 강릉시 내곡동 601-22"}}, {"type": "Feature", "geometry": {"type": "Point", "coordinates": [128.9332661, 37.7793832]}, "properties": {"name": "삼익아파트", "addr": "강원특별자치도 강릉시 송정동 30-3"}}, {"type": "Feature", "geometry": {"type": "Point", "coordinates": [128.8874381, 37.7447675]}, "properties": {"name": "삼창그린맨션", "addr": "강원특별자치도 강릉시 내곡동 607-4"}}, {"type": "Feature", "geometry": {"type": "Point", "coordinates": [128.896558, 37.771158]}, "properties": {"name": "상공회의소앞", "addr": "강원특별자치도 강릉시 교동 349-1"}}, {"type": "Feature", "geometry": {"type": "Point", "coordinates": [128.8691858, 37.7616422]}, "properties": {"name": "새싹", "addr": "강원특별자치도 강릉시 유천동 778"}}, {"type": "Feature", "geometry": {"type": "Point", "coordinates": [128.8916692, 37.7550312]}, "properties": {"name": "서부시장", "addr": "강원특별자치도 강릉시 용강동 33-23"}}, {"type": "Feature", "geometry": {"type": "Point", "coordinates": [128.8663652, 37.7398628]}, "properties": {"name": "서희스타힐스", "addr": "강원특별자치도 강릉시 회산동 195-4"}}, {"type": "Feature", "geometry": {"type": "Point", "coordinates": [128.8847996, 37.785101]}, "properties": {"name": "선교장", "addr": "강원특별자치도 강릉시 운정동 472-18"}}, {"type": "Feature", "geometry": {"type": "Point", "coordinates": [128.885348, 37.7855169]}, "properties": {"name": "선교장", "addr": "강원특별자치도 강릉시 운정동 960"}}, {"type": "Feature", "geometry": {"type": "Point", "coordinates": [128.8801769, 37.7823002]}, "properties": {"name": "선교장입구", "addr": "강원특별자치도 강릉시 죽헌동 912-1"}}, {"type": "Feature", "geometry": {"type": "Point", "coordinates": [128.8797419, 37.7822068]}, "properties": {"name": "선교장입구", "addr": "강원특별자치도 강릉시 죽헌동 927"}}, {"type": "Feature", "geometry": {"type": "Point", "coordinates": [128.8700663, 37.7607737]}, "properties": {"name": "선수촌아파트", "addr": "강원특별자치도 강릉시 유천동 788"}}, {"type": "Feature", "geometry": {"type": "Point", "coordinates": [128.8702611, 37.763008]}, "properties": {"name": "선수촌아파트", "addr": "강원특별자치도 강릉시 유천동 788"}}, {"type": "Feature", "geometry": {"type": "Point", "coordinates": [128.8699788, 37.763011]}, "properties": {"name": "선수촌아파트", "addr": "강원특별자치도 강릉시 유천동 788"}}, {"type": "Feature", "geometry": {"type": "Point", "coordinates": [128.9483892, 37.7377556]}, "properties": {"name": "섬석교", "addr": "강원특별자치도 강릉시 강동면 상시동리 315-5"}}, {"type": "Feature", "geometry": {"type": "Point", "coordinates": [128.894743, 37.7508553]}, "properties": {"name": "성내동광장", "addr": "강원특별자치도 강릉시 성남동 301"}}, {"type": "Feature", "geometry": {"type": "Point", "coordinates": [128.910172, 37.75575]}, "properties": {"name": "성덕초교", "addr": "강원특별자치도 강릉시 입암동 442-3"}}, {"type": "Feature", "geometry": {"type": "Point", "coordinates": [128.915345, 37.7629654]}, "properties": {"name": "성동주민센터", "addr": "강원특별자치도 강릉시 입암동 51-4"}}, {"type": "Feature", "geometry": {"type": "Point", "coordinates": [128.9022359, 37.7614456]}, "properties": {"name": "소방서", "addr": "강원특별자치도 강릉시 옥천동 351"}}, {"type": "Feature", "geometry": {"type": "Point", "coordinates": [128.9030069, 37.7610767]}, "properties": {"name": "소방서", "addr": "강원특별자치도 강릉시 옥천동 351"}}, {"type": "Feature", "geometry": {"type": "Point", "coordinates": [128.8800151, 37.7716447]}, "properties": {"name": "솔올중학교", "addr": "강원특별자치도 강릉시 교동 1706"}}, {"type": "Feature", "geometry": {"type": "Point", "coordinates": [128.9347222, 37.7761439]}, "properties": {"name": "송정", "addr": "강원특별자치도 강릉시 송정동 110-25"}}, {"type": "Feature", "geometry": {"type": "Point", "coordinates": [128.9347504, 37.7762828]}, "properties": {"name": "송정", "addr": "강원특별자치도 강릉시 송정동 15-1"}}, {"type": "Feature", "geometry": {"type": "Point", "coordinates": [128.9381403, 37.777714]}, "properties": {"name": "송정", "addr": "강원특별자치도 강릉시 송정동 27-1"}}, {"type": "Feature", "geometry": {"type": "Point", "coordinates": [128.9313274, 37.7751904]}, "properties": {"name": "송정노인회관", "addr": "강원특별자치도 강릉시 송정동 172-7"}}, {"type": "Feature", "geometry": {"type": "Point", "coordinates": [128.9319862, 37.7748547]}, "properties": {"name": "송정노인회관", "addr": "강원특별자치도 강릉시 송정동 177-2"}}, {"type": "Feature", "geometry": {"type": "Point", "coordinates": [128.9278018, 37.7743405]}, "properties": {"name": "송정동주민센터", "addr": "강원특별자치도 강릉시 송정동 161-2"}}, {"type": "Feature", "geometry": {"type": "Point", "coordinates": [128.9303885, 37.7829604]}, "properties": {"name": "송정래미안", "addr": "강원특별자치도 강릉시 송정동 116-2"}}, {"type": "Feature", "geometry": {"type": "Point", "coordinates": [128.9365767, 37.7738815]}, "properties": {"name": "송정한신아파트입구", "addr": "강원특별자치도 강릉시 견소동 206-1"}}, {"type": "Feature", "geometry": {"type": "Point", "coordinates": [128.9386038, 37.7736194]}, "properties": {"name": "송정한신아파트후문", "addr": "강원특별자치도 강릉시 견소동 206-1"}}, {"type": "Feature", "geometry": {"type": "Point", "coordinates": [128.9372619, 37.7798584]}, "properties": {"name": "송정해변", "addr": ""}}, {"type": "Feature", "geometry": {"type": "Point", "coordinates": [128.936919, 37.7799781]}, "properties": {"name": "송정해변", "addr": "강원특별자치도 강릉시 송정동 60-3"}}, {"type": "Feature", "geometry": {"type": "Point", "coordinates": [128.8950021, 37.7803896]}, "properties": {"name": "수리골", "addr": "강원특별자치도 강릉시 교동 468-35"}}, {"type": "Feature", "geometry": {"type": "Point", "coordinates": [128.8952424, 37.7803806]}, "properties": {"name": "수리골", "addr": "강원특별자치도 강릉시 교동 468-46"}}, {"type": "Feature", "geometry": {"type": "Point", "coordinates": [128.8930661, 37.7865303]}, "properties": {"name": "순두부마을", "addr": "강원특별자치도 강릉시 운정동 739-1"}}, {"type": "Feature", "geometry": {"type": "Point", "coordinates": [128.9125411, 37.7731386]}, "properties": {"name": "시립도서관", "addr": "강원특별자치도 강릉시 포남동 1316"}}, {"type": "Feature", "geometry": {"type": "Point", "coordinates": [128.9385561, 37.7773349]}, "properties": {"name": "신도브레뉴", "addr": "강원특별자치도 강릉시 송정동 27-1"}}, {"type": "Feature", "geometry": {"type": "Point", "coordinates": [128.9222401, 37.7353398]}, "properties": {"name": "신석", "addr": "강원특별자치도 강릉시 유산동 50-1"}}, {"type": "Feature", "geometry": {"type": "Point", "coordinates": [128.9220268, 37.7334527]}, "properties": {"name": "신석회관", "addr": "강원특별자치도 강릉시 신석동 312"}}, {"type": "Feature", "geometry": {"type": "Point", "coordinates": [128.9280847, 37.77423]}, "properties": {"name": "신신자동차학원", "addr": "강원특별자치도 강릉시 송정동 159-6"}}, {"type": "Feature", "geometry": {"type": "Point", "coordinates": [128.8964571, 37.7547521]}, "properties": {"name": "신영극장제1승강장-복편", "addr": "강원특별자치도 강릉시 임당동 119-1"}}, {"type": "Feature", "geometry": {"type": "Point", "coordinates": [128.8962429, 37.7546193]}, "properties": {"name": "신영극장제2승강장-복편", "addr": "강원특별자치도 강릉시 임당동 119-1"}}, {"type": "Feature", "geometry": {"type": "Point", "coordinates": [128.8873057, 37.7401567]}, "properties": {"name": "신화건설", "addr": "강원특별자치도 강릉시 내곡동 364-13"}}, {"type": "Feature", "geometry": {"type": "Point", "coordinates": [128.8873832, 37.7403717]}, "properties": {"name": "신화건설앞", "addr": "강원특별자치도 강릉시 내곡동 364-1"}}, {"type": "Feature", "geometry": {"type": "Point", "coordinates": [128.8983072, 37.7493768]}, "properties": {"name": "신화아파트", "addr": "강원특별자치도 강릉시 노암동 826-8"}}, {"type": "Feature", "geometry": {"type": "Point", "coordinates": [128.9215166, 37.7407087]}, "properties": {"name": "심석교", "addr": "강원특별자치도 강릉시 유산동 137-9"}}, {"type": "Feature", "geometry": {"type": "Point", "coordinates": [128.9217688, 37.7409585]}, "properties": {"name": "심석교", "addr": "강원특별자치도 강릉시 청량동 197-10"}}, {"type": "Feature", "geometry": {"type": "Point", "coordinates": [128.945285, 37.7729008]}, "properties": {"name": "안목", "addr": "강원특별자치도 강릉시 견소동 184-1"}}, {"type": "Feature", "geometry": {"type": "Point", "coordinates": [128.9454085, 37.7726206]}, "properties": {"name": "안목커피거리", "addr": "강원특별자치도 강릉시 견소동 110-11"}}, {"type": "Feature", "geometry": {"type": "Point", "coordinates": [128.9018955, 37.751511]}, "properties": {"name": "양우내안에아파트", "addr": "강원특별자치도 강릉시 노암동 826-8"}}, {"type": "Feature", "geometry": {"type": "Point", "coordinates": [128.9372629, 37.7444889]}, "properties": {"name": "오리들마을", "addr": "강원특별자치도 강릉시 월호평동 351-4"}}, {"type": "Feature", "geometry": {"type": "Point", "coordinates": [128.9331081, 37.7798446]}, "properties": {"name": "오성학교", "addr": "강원특별자치도 강릉시 송정동 27-1"}}, {"type": "Feature", "geometry": {"type": "Point", "coordinates": [128.880302, 37.7794086]}, "properties": {"name": "오죽헌", "addr": "강원특별자치도 강릉시 죽헌동 143-4"}}, {"type": "Feature", "geometry": {"type": "Point", "coordinates": [128.8797995, 37.7788537]}, "properties": {"name": "오죽헌", "addr": "강원특별자치도 강릉시 죽헌동 144-1"}}, {"type": "Feature", "geometry": {"type": "Point", "coordinates": [128.8826841, 37.779894]}, "properties": {"name": "오죽헌", "addr": "강원특별자치도 강릉시 죽헌동 29-9"}}, {"type": "Feature", "geometry": {"type": "Point", "coordinates": [128.8824544, 37.7804746]}, "properties": {"name": "오죽헌", "addr": "강원특별자치도 강릉시 죽헌동 777"}}, {"type": "Feature", "geometry": {"type": "Point", "coordinates": [128.897149, 37.7765319]}, "properties": {"name": "올림픽파크", "addr": "강원특별자치도 강릉시 교동 458-1"}}, {"type": "Feature", "geometry": {"type": "Point", "coordinates": [128.8788677, 37.7323122]}, "properties": {"name": "옹기정마을", "addr": "강원특별자치도 강릉시 내곡동 269-7"}}, {"type": "Feature", "geometry": {"type": "Point", "coordinates": [128.8913528, 37.7543604]}, "properties": {"name": "용강동-강릉초교", "addr": "강원특별자치도 강릉시 용강동 37-1"}}, {"type": "Feature", "geometry": {"type": "Point", "coordinates": [128.891727, 37.7557669]}, "properties": {"name": "용강동서부시장", "addr": "강원특별자치도 강릉시 임당동 174-3"}}, {"type": "Feature", "geometry": {"type": "Point", "coordinates": [128.9052752, 37.7614889]}, "properties": {"name": "용지각", "addr": "강원특별자치도 강릉시 포남동 1197-35"}}, {"type": "Feature", "geometry": {"type": "Point", "coordinates": [128.9053335, 37.7617936]}, "properties": {"name": "용지각", "addr": "강원특별자치도 강릉시 포남동 1197-35"}}, {"type": "Feature", "geometry": {"type": "Point", "coordinates": [128.8702161, 37.7571129]}, "properties": {"name": "우미린아파트", "addr": "강원특별자치도 강릉시 홍제동 1053"}}, {"type": "Feature", "geometry": {"type": "Point", "coordinates": [128.8734064, 37.7605522]}, "properties": {"name": "우편집중국", "addr": "강원특별자치도 강릉시 교동 1779"}}, {"type": "Feature", "geometry": {"type": "Point", "coordinates": [128.873476, 37.761614]}, "properties": {"name": "우편집중국", "addr": "강원특별자치도 강릉시 교동 1912"}}, {"type": "Feature", "geometry": {"type": "Point", "coordinates": [128.9367993, 37.7324943]}, "properties": {"name": "운산노인회관", "addr": "강원특별자치도 강릉시 운산동 224-7"}}, {"type": "Feature", "geometry": {"type": "Point", "coordinates": [128.9368336, 37.7329498]}, "properties": {"name": "운산노인회관", "addr": "강원특별자치도 강릉시 운산동 277-3"}}, {"type": "Feature", "geometry": {"type": "Point", "coordinates": [128.8931982, 37.7868329]}, "properties": {"name": "운정동", "addr": "강원특별자치도 강릉시 운정동 48-2"}}, {"type": "Feature", "geometry": {"type": "Point", "coordinates": [128.9184099, 37.7602447]}, "properties": {"name": "원마트", "addr": "강원특별자치도 강릉시 입암동 84-1"}}, {"type": "Feature", "geometry": {"type": "Point", "coordinates": [128.9364116, 37.7375484]}, "properties": {"name": "월호평동", "addr": "강원특별자치도 강릉시 월호평동 488-1"}}, {"type": "Feature", "geometry": {"type": "Point", "coordinates": [128.9490416, 37.7486933]}, "properties": {"name": "월호평동", "addr": "강원특별자치도 강릉시 월호평동 909-75"}}, {"type": "Feature", "geometry": {"type": "Point", "coordinates": [128.9119074, 37.735956]}, "properties": {"name": "유산동", "addr": "강원특별자치도 강릉시 유산동 350-2"}}, {"type": "Feature", "geometry": {"type": "Point", "coordinates": [128.9098515, 37.7400566]}, "properties": {"name": "유산동", "addr": "강원특별자치도 강릉시 유산동 38-5"}}, {"type": "Feature", "geometry": {"type": "Point", "coordinates": [128.8614627, 37.766516]}, "properties": {"name": "유천동", "addr": "강원특별자치도 강릉시 유천동 201"}}, {"type": "Feature", "geometry": {"type": "Point", "coordinates": [128.8703361, 37.7606108]}, "properties": {"name": "유천초등학교", "addr": "강원특별자치도 강릉시 유천동 788"}}, {"type": "Feature", "geometry": {"type": "Point", "coordinates": [128.8887906, 37.7693248]}, "properties": {"name": "율곡중", "addr": "강원특별자치도 강릉시 교동 700"}}, {"type": "Feature", "geometry": {"type": "Point", "coordinates": [128.890243, 37.7718903]}, "properties": {"name": "율곡중학교", "addr": "강원특별자치도 강릉시 교동 677-4"}}, {"type": "Feature", "geometry": {"type": "Point", "coordinates": [128.8903365, 37.7722457]}, "properties": {"name": "율곡중학교", "addr": "강원특별자치도 강릉시 교동 711-3"}}, {"type": "Feature", "geometry": {"type": "Point", "coordinates": [128.8821618, 37.7651253]}, "properties": {"name": "율곡초교", "addr": "강원특별자치도 강릉시 교동 1852-8"}}, {"type": "Feature", "geometry": {"type": "Point", "coordinates": [128.8968036, 37.7462906]}, "properties": {"name": "은마아파트", "addr": "강원특별자치도 강릉시 노암동 703-144"}}, {"type": "Feature", "geometry": {"type": "Point", "coordinates": [128.8970015, 37.7473097]}, "properties": {"name": "은마아파트", "addr": "강원특별자치도 강릉시 노암동 703-144"}}, {"type": "Feature", "geometry": {"type": "Point", "coordinates": [128.8981154, 37.7540942]}, "properties": {"name": "은행나무한의원", "addr": "강원특별자치도 강릉시 성남동 114-1"}}, {"type": "Feature", "geometry": {"type": "Point", "coordinates": [128.9233174, 37.7722039]}, "properties": {"name": "이마트", "addr": "강원특별자치도 강릉시 송정동 546-5"}}, {"type": "Feature", "geometry": {"type": "Point", "coordinates": [128.9228612, 37.7721902]}, "properties": {"name": "이마트", "addr": "강원특별자치도 강릉시 송정동 821-27"}}, {"type": "Feature", "geometry": {"type": "Point", "coordinates": [128.9174294, 37.7832301]}, "properties": {"name": "이화해변아파트", "addr": "강원특별자치도 강릉시 초당동 133-1"}}, {"type": "Feature", "geometry": {"type": "Point", "coordinates": [128.9199573, 37.759259]}, "properties": {"name": "임압6주공아파트", "addr": "강원특별자치도 강릉시 입암동 708-4"}}, {"type": "Feature", "geometry": {"type": "Point", "coordinates": [128.9059838, 37.754636]}, "properties": {"name": "입암1주공아파트", "addr": "강원특별자치도 강릉시 입암동 639-81"}}, {"type": "Feature", "geometry": {"type": "Point", "coordinates": [128.906195, 37.7550569]}, "properties": {"name": "입암1주공아파트", "addr": "강원특별자치도 강릉시 입암동 679-9"}}, {"type": "Feature", "geometry": {"type": "Point", "coordinates": [128.9166486, 37.7651164]}, "properties": {"name": "입암2주공", "addr": "강원특별자치도 강릉시 입암동 601-1"}}, {"type": "Feature", "geometry": {"type": "Point", "coordinates": [128.9161896, 37.7650793]}, "properties": {"name": "입암3주공", "addr": "강원특별자치도 강릉시 입암동 41-2"}}, {"type": "Feature", "geometry": {"type": "Point", "coordinates": [128.9147056, 37.759945]}, "properties": {"name": "입암5주공아파트", "addr": "강원특별자치도 강릉시 입암동 690"}}, {"type": "Feature", "geometry": {"type": "Point", "coordinates": [128.9181249, 37.7594487]}, "properties": {"name": "입암6주공아파트", "addr": "강원특별자치도 강릉시 입암동 101-4"}}, {"type": "Feature", "geometry": {"type": "Point", "coordinates": [128.9122635, 37.7532018]}, "properties": {"name": "입암현대아파트", "addr": "강원특별자치도 강릉시 입암동 442-3"}}, {"type": "Feature", "geometry": {"type": "Point", "coordinates": [128.9126821, 37.7530455]}, "properties": {"name": "입암현대아파트", "addr": "강원특별자치도 강릉시 입암동 442-3"}}, {"type": "Feature", "geometry": {"type": "Point", "coordinates": [128.899717, 37.7500634]}, "properties": {"name": "자동차백화점", "addr": "강원특별자치도 강릉시 노암동 279-23"}}, {"type": "Feature", "geometry": {"type": "Point", "coordinates": [128.9390806, 37.7623249]}, "properties": {"name": "자루뫼", "addr": "강원특별자치도 강릉시 병산동 340-1"}}, {"type": "Feature", "geometry": {"type": "Point", "coordinates": [128.899476, 37.750088]}, "properties": {"name": "잠수교", "addr": "강원특별자치도 강릉시 노암동 826-8"}}, {"type": "Feature", "geometry": {"type": "Point", "coordinates": [128.88714, 37.757224]}, "properties": {"name": "적십자입구", "addr": "강원특별자치도 강릉시 교동 924-5"}}, {"type": "Feature", "geometry": {"type": "Point", "coordinates": [128.886457, 37.7568213]}, "properties": {"name": "적십자입구", "addr": "강원특별자치도 강릉시 교동 980-2"}}, {"type": "Feature", "geometry": {"type": "Point", "coordinates": [128.8919882, 37.7590745]}, "properties": {"name": "제일고", "addr": "강원특별자치도 강릉시 교동 907-10"}}, {"type": "Feature", "geometry": {"type": "Point", "coordinates": [128.8877733, 37.7754682]}, "properties": {"name": "젤마을", "addr": "강원특별자치도 강릉시 교동 657-1"}}, {"type": "Feature", "geometry": {"type": "Point", "coordinates": [128.8967195, 37.7713876]}, "properties": {"name": "종합경기장", "addr": "강원특별자치도 강릉시 교동 349-1"}}, {"type": "Feature", "geometry": {"type": "Point", "coordinates": [128.895504, 37.773276]}, "properties": {"name": "종합경기장", "addr": "강원특별자치도 강릉시 교동 63"}}, {"type": "Feature", "geometry": {"type": "Point", "coordinates": [128.8974323, 37.7705655]}, "properties": {"name": "종합경기장입구", "addr": "강원특별자치도 강릉시 교동 332"}}, {"type": "Feature", "geometry": {"type": "Point", "coordinates": [128.882951, 37.7666753]}, "properties": {"name": "주공1차아파트", "addr": "강원특별자치도 강릉시 교동 1749"}}, {"type": "Feature", "geometry": {"type": "Point", "coordinates": [128.8825241, 37.7668317]}, "properties": {"name": "주공1차아파트", "addr": "강원특별자치도 강릉시 교동 1845-1"}}, {"type": "Feature", "geometry": {"type": "Point", "coordinates": [128.885141, 37.768483]}, "properties": {"name": "주공2차아파트", "addr": "강원특별자치도 강릉시 교동 1792"}}, {"type": "Feature", "geometry": {"type": "Point", "coordinates": [128.8793066, 37.7641219]}, "properties": {"name": "주공3차아파트", "addr": "강원특별자치도 강릉시 교동 1918"}}, {"type": "Feature", "geometry": {"type": "Point", "coordinates": [128.8680453, 37.7581398]}, "properties": {"name": "주길", "addr": "강원특별자치도 강릉시 유천동 789"}}, {"type": "Feature", "geometry": {"type": "Point", "coordinates": [128.8681892, 37.7579143]}, "properties": {"name": "주길", "addr": "강원특별자치도 강릉시 홍제동 1046"}}, {"type": "Feature", "geometry": {"type": "Point", "coordinates": [128.9017266, 37.7636898]}, "properties": {"name": "중부지구대", "addr": "강원특별자치도 강릉시 포남동 983"}}, {"type": "Feature", "geometry": {"type": "Point", "coordinates": [128.9015555, 37.7638203]}, "properties": {"name": "중부지구대", "addr": "강원특별자치도 강릉시 포남동 983"}}, {"type": "Feature", "geometry": {"type": "Point", "coordinates": [128.8888613, 37.7488521]}, "properties": {"name": "중부지방고용노동청", "addr": "강원특별자치도 강릉시 남문동 164-10"}}, {"type": "Feature", "geometry": {"type": "Point", "coordinates": [128.8880823, 37.7754455]}, "properties": {"name": "중앙석재", "addr": "강원특별자치도 강릉시 교동 613-6"}}, {"type": "Feature", "geometry": {"type": "Point", "coordinates": [128.9220561, 37.7573598]}, "properties": {"name": "중앙초교", "addr": "강원특별자치도 강릉시 입암동 201-1"}}, {"type": "Feature", "geometry": {"type": "Point", "coordinates": [128.9223687, 37.7573659]}, "properties": {"name": "중앙초교", "addr": "강원특별자치도 강릉시 입암동 201-1"}}, {"type": "Feature", "geometry": {"type": "Point", "coordinates": [128.8768209, 37.7718897]}, "properties": {"name": "지변동", "addr": "강원특별자치도 강릉시 지변동 710-1"}}, {"type": "Feature", "geometry": {"type": "Point", "coordinates": [128.9267717, 37.7592404]}, "properties": {"name": "차돌광", "addr": "강원특별자치도 강릉시 입암동 28"}}, {"type": "Feature", "geometry": {"type": "Point", "coordinates": [128.9484716, 37.7376012]}, "properties": {"name": "철길건널목앞", "addr": "강원특별자치도 강릉시 강동면 상시동리 329-1"}}, {"type": "Feature", "geometry": {"type": "Point", "coordinates": [128.9198256, 37.7478998]}, "properties": {"name": "청량동삼거리", "addr": "강원특별자치도 강릉시 청량동 63"}}, {"type": "Feature", "geometry": {"type": "Point", "coordinates": [128.921453, 37.7495261]}, "properties": {"name": "청량동종점", "addr": "강원특별자치도 강릉시 청량동 27-2"}}, {"type": "Feature", "geometry": {"type": "Point", "coordinates": [128.9153733, 37.7911731]}, "properties": {"name": "초당", "addr": "강원특별자치도 강릉시 초당동 57-14"}}, {"type": "Feature", "geometry": {"type": "Point", "coordinates": [128.9221724, 37.7860435]}, "properties": {"name": "초당분수공원", "addr": "강원특별자치도 강릉시 강문동 42-14"}}, {"type": "Feature", "geometry": {"type": "Point", "coordinates": [128.922626, 37.78637]}, "properties": {"name": "초당분수공원", "addr": "강원특별자치도 강릉시 강문동 50-31"}}, {"type": "Feature", "geometry": {"type": "Point", "coordinates": [128.9242294, 37.78618]}, "properties": {"name": "초당분수공원", "addr": "강원특별자치도 강릉시 강문동 50-32"}}, {"type": "Feature", "geometry": {"type": "Point", "coordinates": [128.914659, 37.7886191]}, "properties": {"name": "초당한솔순두부", "addr": "강원특별자치도 강릉시 초당동 299-13"}}, {"type": "Feature", "geometry": {"type": "Point", "coordinates": [128.8721514, 37.7376562]}, "properties": {"name": "카톨릭관동대북문", "addr": "강원특별자치도 강릉시 내곡동 522"}}, {"type": "Feature", "geometry": {"type": "Point", "coordinates": [128.8654215, 37.7395369]}, "properties": {"name": "카톨릭관동대학교", "addr": "강원특별자치도 강릉시 회산동 199-2"}}, {"type": "Feature", "geometry": {"type": "Point", "coordinates": [128.9108956, 37.7550553]}, "properties": {"name": "택시", "addr": "강원특별자치도 강릉시 입암동 442-3"}}, {"type": "Feature", "geometry": {"type": "Point", "coordinates": [128.9050825, 37.7406706]}, "properties": {"name": "평안의집", "addr": "강원특별자치도 강릉시 유산동 523-1"}}, {"type": "Feature", "geometry": {"type": "Point", "coordinates": [128.9180449, 37.779143]}, "properties": {"name": "포남2주공입구", "addr": "강원특별자치도 강릉시 송정동 769-2"}}, {"type": "Feature", "geometry": {"type": "Point", "coordinates": [128.9182033, 37.7788706]}, "properties": {"name": "포남2주공입구", "addr": "강원특별자치도 강릉시 송정동 842"}}, {"type": "Feature", "geometry": {"type": "Point", "coordinates": [128.9076666, 37.7639281]}, "properties": {"name": "포남동", "addr": "강원특별자치도 강릉시 포남동 1197-35"}}, {"type": "Feature", "geometry": {"type": "Point", "coordinates": [128.9087843, 37.7647]}, "properties": {"name": "포남동", "addr": "강원특별자치도 강릉시 포남동 1197-35"}}, {"type": "Feature", "geometry": {"type": "Point", "coordinates": [128.9020376, 37.7705042]}, "properties": {"name": "포남동", "addr": "강원특별자치도 강릉시 포남동 1197-6"}}, {"type": "Feature", "geometry": {"type": "Point", "coordinates": [128.9086638, 37.7682293]}, "properties": {"name": "포남동주민센터", "addr": "강원특별자치도 강릉시 포남동 1197-16"}}, {"type": "Feature", "geometry": {"type": "Point", "coordinates": [128.9084833, 37.7680884]}, "properties": {"name": "포남동주민센터", "addr": "강원특별자치도 강릉시 포남동 1197-16"}}, {"type": "Feature", "geometry": {"type": "Point", "coordinates": [128.8768578, 37.7716712]}, "properties": {"name": "풋살경기장", "addr": "강원특별자치도 강릉시 지변동 710-1"}}, {"type": "Feature", "geometry": {"type": "Point", "coordinates": [128.8940871, 37.7535247]}, "properties": {"name": "하나금융투자", "addr": "강원특별자치도 강릉시 임당동 139-2"}}, {"type": "Feature", "geometry": {"type": "Point", "coordinates": [128.9071492, 37.7705766]}, "properties": {"name": "하슬라중학교", "addr": "강원특별자치도 강릉시 포남동 1197-4"}}, {"type": "Feature", "geometry": {"type": "Point", "coordinates": [128.9075901, 37.7704668]}, "properties": {"name": "하슬라중학교", "addr": "강원특별자치도 강릉시 포남동 1197-4"}}, {"type": "Feature", "geometry": {"type": "Point", "coordinates": [128.9408246, 37.7363309]}, "properties": {"name": "하시동입구", "addr": "강원특별자치도 강릉시 강동면 상시동리 835"}}, {"type": "Feature", "geometry": {"type": "Point", "coordinates": [128.8598877, 37.805997]}, "properties": {"name": "학고개", "addr": "강원특별자치도 강릉시 사천면 산대월리 131-2"}}, {"type": "Feature", "geometry": {"type": "Point", "coordinates": [128.860185, 37.805597]}, "properties": {"name": "학고개", "addr": "강원특별자치도 강릉시 사천면 산대월리 132-3"}}, {"type": "Feature", "geometry": {"type": "Point", "coordinates": [128.861001, 37.804633]}, "properties": {"name": "학고개", "addr": "강원특별자치도 강릉시 사천면 산대월리 134-1"}}, {"type": "Feature", "geometry": {"type": "Point", "coordinates": [128.9336801, 37.7608336]}, "properties": {"name": "학우리", "addr": "강원특별자치도 강릉시 두산동 98-5"}}, {"type": "Feature", "geometry": {"type": "Point", "coordinates": [128.8887827, 37.7385047]}, "properties": {"name": "한국폴리텍대학", "addr": "강원특별자치도 강릉시 내곡동 176"}}, {"type": "Feature", "geometry": {"type": "Point", "coordinates": [128.86495, 37.7916765]}, "properties": {"name": "한들어린이집", "addr": "강원특별자치도 강릉시 대전동 7-10"}}, {"type": "Feature", "geometry": {"type": "Point", "coordinates": [128.8642082, 37.7918057]}, "properties": {"name": "한밭", "addr": "강원특별자치도 강릉시 대전동 6-8"}}, {"type": "Feature", "geometry": {"type": "Point", "coordinates": [128.9145142, 37.7750873]}, "properties": {"name": "한솔초교", "addr": "강원특별자치도 강릉시 송정동 746-2"}}, {"type": "Feature", "geometry": {"type": "Point", "coordinates": [128.9141578, 37.7750759]}, "properties": {"name": "한솔초교", "addr": "강원특별자치도 강릉시 포남동 1197-4"}}, {"type": "Feature", "geometry": {"type": "Point", "coordinates": [128.9365793, 37.7740936]}, "properties": {"name": "한신아파트", "addr": "강원특별자치도 강릉시 견소동 204-2"}}, {"type": "Feature", "geometry": {"type": "Point", "coordinates": [128.9394671, 37.773665]}, "properties": {"name": "한신아파트후문", "addr": "강원특별자치도 강릉시 견소동 235-3"}}, {"type": "Feature", "geometry": {"type": "Point", "coordinates": [128.8775533, 37.777084]}, "properties": {"name": "한옥마을", "addr": "강원특별자치도 강릉시 죽헌동 177-4"}}, {"type": "Feature", "geometry": {"type": "Point", "coordinates": [128.934978, 37.7790025]}, "properties": {"name": "해당화연립", "addr": "강원특별자치도 강릉시 송정동 27-1"}}, {"type": "Feature", "geometry": {"type": "Point", "coordinates": [128.9356, 37.778581]}, "properties": {"name": "해당화연립", "addr": "강원특별자치도 강릉시 송정동 27-1"}}, {"type": "Feature", "geometry": {"type": "Point", "coordinates": [128.8896041, 37.7858047]}, "properties": {"name": "해운정", "addr": "강원특별자치도 강릉시 운정동 260-1"}}, {"type": "Feature", "geometry": {"type": "Point", "coordinates": [128.9304687, 37.7599996]}, "properties": {"name": "핸들", "addr": "강원특별자치도 강릉시 두산동 25-1"}}, {"type": "Feature", "geometry": {"type": "Point", "coordinates": [128.8694627, 37.788902]}, "properties": {"name": "행정마을", "addr": "강원특별자치도 강릉시 죽헌동 344-1"}}, {"type": "Feature", "geometry": {"type": "Point", "coordinates": [128.8703912, 37.7886923]}, "properties": {"name": "행정마을", "addr": "강원특별자치도 강릉시 죽헌동 345-2"}}, {"type": "Feature", "geometry": {"type": "Point", "coordinates": [128.9097196, 37.7899454]}, "properties": {"name": "허균.허난설헌기념공원", "addr": "강원특별자치도 강릉시 초당동 479-1"}}, {"type": "Feature", "geometry": {"type": "Point", "coordinates": [128.9095036, 37.7894548]}, "properties": {"name": "허균.허난설헌기념공원", "addr": "강원특별자치도 강릉시 초당동 529"}}, {"type": "Feature", "geometry": {"type": "Point", "coordinates": [128.9128722, 37.7879243]}, "properties": {"name": "허균생가", "addr": "강원특별자치도 강릉시 초당동 276"}}, {"type": "Feature", "geometry": {"type": "Point", "coordinates": [128.9132802, 37.7922852]}, "properties": {"name": "허난설헌삼거리", "addr": "강원특별자치도 강릉시 초당동 343"}}, {"type": "Feature", "geometry": {"type": "Point", "coordinates": [128.9133599, 37.7921094]}, "properties": {"name": "허난설헌삼거리", "addr": "강원특별자치도 강릉시 초당동 343-1"}}, {"type": "Feature", "geometry": {"type": "Point", "coordinates": [128.8799553, 37.7643278]}, "properties": {"name": "현대아파트", "addr": "강원특별자치도 강릉시 교동 1918"}}, {"type": "Feature", "geometry": {"type": "Point", "coordinates": [128.8825181, 37.7648656]}, "properties": {"name": "현대하이빌아파트", "addr": "강원특별자치도 강릉시 교동 1758"}}, {"type": "Feature", "geometry": {"type": "Point", "coordinates": [128.8658251, 37.7553571]}, "properties": {"name": "형제막국수", "addr": "강원특별자치도 강릉시 홍제동 665-1"}}, {"type": "Feature", "geometry": {"type": "Point", "coordinates": [128.9154171, 37.7685235]}, "properties": {"name": "혜성연립", "addr": "강원특별자치도 강릉시 포남동 1197-30"}}, {"type": "Feature", "geometry": {"type": "Point", "coordinates": [128.9156663, 37.7684457]}, "properties": {"name": "혜성연립", "addr": "강원특별자치도 강릉시 포남동 1287"}}, {"type": "Feature", "geometry": {"type": "Point", "coordinates": [128.8983594, 37.7558806]}, "properties": {"name": "홈플러스", "addr": "강원특별자치도 강릉시 옥천동 189-19"}}, {"type": "Feature", "geometry": {"type": "Point", "coordinates": [128.8672667, 37.7457833]}, "properties": {"name": "홍제2교(미정차)(버스정류장)", "addr": "강원특별자치도 강릉시 홍제동 760-7"}}, {"type": "Feature", "geometry": {"type": "Point", "coordinates": [128.8794156, 37.747378]}, "properties": {"name": "홍제동", "addr": "강원특별자치도 강릉시 홍제동 362-1"}}, {"type": "Feature", "geometry": {"type": "Point", "coordinates": [128.8789102, 37.7475451]}, "properties": {"name": "홍제동", "addr": "강원특별자치도 강릉시 홍제동 945"}}, {"type": "Feature", "geometry": {"type": "Point", "coordinates": [128.8842382, 37.7478929]}, "properties": {"name": "홍제동주민센터", "addr": "강원특별자치도 강릉시 홍제동 96-9"}}, {"type": "Feature", "geometry": {"type": "Point", "coordinates": [128.884529, 37.7481031]}, "properties": {"name": "홍제동주민센터", "addr": "강원특별자치도 강릉시 홍제동 981-1"}}, {"type": "Feature", "geometry": {"type": "Point", "coordinates": [128.8976885, 37.7643377]}, "properties": {"name": "화부산(용편)", "addr": "강원특별자치도 강릉시 교동 118-21"}}, {"type": "Feature", "geometry": {"type": "Point", "coordinates": [128.8693197, 37.7418135]}, "properties": {"name": "회산교", "addr": "강원특별자치도 강릉시 회산동 170"}}, {"type": "Feature", "geometry": {"type": "Point", "coordinates": [128.8794065, 37.7446422]}, "properties": {"name": "회산주공", "addr": "강원특별자치도 강릉시 회산동 602"}}, {"type": "Feature", "geometry": {"type": "Point", "coordinates": [128.8754894, 37.7436196]}, "properties": {"name": "회산주공2단지", "addr": "강원특별자치도 강릉시 회산동 581-22"}}, {"type": "Feature", "geometry": {"type": "Point", "coordinates": [128.8764235, 37.7437541]}, "properties": {"name": "회산주공2단지", "addr": "강원특별자치도 강릉시 회산동 9-2"}}]}