{"type": "FeatureCollection", "features": [{"type": "Feature", "geometry": {"type": "Point", "coordinates": [128.8993066, 37.7641209]}, "properties": {"name": "KTX역버스승강장", "addr": "강원특별자치도 강릉시 교동 118-3", "ranks": [1, 2, 3]}}, {"type": "Feature", "geometry": {"type": "Point", "coordinates": [128.8999746, 37.7601505]}, "properties": {"name": "강릉농협(복편)경포고,안목방향", "addr": "강원특별자치도 강릉시 옥천동 351", "ranks": [2]}}, {"type": "Feature", "geometry": {"type": "Point", "coordinates": [128.8917294, 37.7512583]}, "properties": {"name": "강릉대도호부관아", "addr": "강원특별자치도 강릉시 명주동 30-3", "ranks": [1]}}, {"type": "Feature", "geometry": {"type": "Point", "coordinates": [128.9055202, 37.7588486]}, "properties": {"name": "강릉여고정문", "addr": "강원특별자치도 강릉시 옥천동 373-6", "ranks": [3]}}, {"type": "Feature", "geometry": {"type": "Point", "coordinates": [128.9052266, 37.759354]}, "properties": {"name": "강릉여고정문", "addr": "강원특별자치도 강릉시 옥천동 374", "ranks": [3]}}, {"type": "Feature", "geometry": {"type": "Point", "coordinates": [128.8993978, 37.7636535]}, "properties": {"name": "강릉역", "addr": "강원특별자치도 강릉시 교동 108-10", "ranks": [1, 2, 3]}}, {"type": "Feature", "geometry": {"type": "Point", "coordinates": [128.8908812, 37.7498016]}, "properties": {"name": "강릉의료원", "addr": "강원특별자치도 강릉시 명주동 61-9", "ranks": [1]}}, {"type": "Feature", "geometry": {"type": "Point", "coordinates": [128.8980715, 37.7560013]}, "properties": {"name": "교보생명", "addr": "강원특별자치도 강릉시 옥천동 351", "ranks": [2]}}, {"type": "Feature", "geometry": {"type": "Point", "coordinates": [128.8976572, 37.7557707]}, "properties": {"name": "교보생명", "addr": "강원특별자치도 강릉시 임당동 106-1", "ranks": [2]}}, {"type": "Feature", "geometry": {"type": "Point", "coordinates": [128.8988309, 37.761664]}, "properties": {"name": "구터미널", "addr": "강원특별자치도 강릉시 교동 148-6", "ranks": [1]}}, {"type": "Feature", "geometry": {"type": "Point", "coordinates": [128.8929491, 37.7524208]}, "properties": {"name": "군기청작정터", "addr": "강원특별자치도 강릉시 성내동 23-1", "ranks": [1]}}, {"type": "Feature", "geometry": {"type": "Point", "coordinates": [128.897389, 37.7493728]}, "properties": {"name": "남산교차로", "addr": "강원특별자치도 강릉시 노암동 826-1", "ranks": [3]}}, {"type": "Feature", "geometry": {"type": "Point", "coordinates": [128.8919874, 37.747765]}, "properties": {"name": "남산입구", "addr": "강원특별자치도 강릉시 내곡동 32-28", "ranks": [1]}}, {"type": "Feature", "geometry": {"type": "Point", "coordinates": [128.8865204, 37.7463085]}, "properties": {"name": "내곡교", "addr": "강원특별자치도 강릉시 내곡동 454-12", "ranks": [1]}}, {"type": "Feature", "geometry": {"type": "Point", "coordinates": [128.8871109, 37.7465677]}, "properties": {"name": "내곡교", "addr": "강원특별자치도 강릉시 내곡동 454-9", "ranks": [1]}}, {"type": "Feature", "geometry": {"type": "Point", "coordinates": [128.8923221, 37.7516832]}, "properties": {"name": "대도호부관아", "addr": "강원특별자치도 강릉시 명주동 30-11", "ranks": [1]}}, {"type": "Feature", "geometry": {"type": "Point", "coordinates": [128.894743, 37.7508553]}, "properties": {"name": "성내동광장", "addr": "강원특별자치도 강릉시 성남동 301", "ranks": [2]}}, {"type": "Feature", "geometry": {"type": "Point", "coordinates": [128.9022359, 37.7614456]}, "properties": {"name": "소방서", "addr": "강원특별자치도 강릉시 옥천동 351", "ranks": [3]}}, {"type": "Feature", "geometry": {"type": "Point", "coordinates": [128.9030069, 37.7610767]}, "properties": {"name": "소방서", "addr": "강원특별자치도 강릉시 옥천동 351", "ranks": [3]}}, {"type": "Feature", "geometry": {"type": "Point", "coordinates": [128.8983072, 37.7493768]}, "properties": {"name": "신화아파트", "addr": "강원특별자치도 강릉시 노암동 826-8", "ranks": [3]}}, {"type": "Feature", "geometry": {"type": "Point", "coordinates": [128.9018955, 37.751511]}, "properties": {"name": "양우내안에아파트", "addr": "강원특별자치도 강릉시 노암동 826-8", "ranks": [3]}}, {"type": "Feature", "geometry": {"type": "Point", "coordinates": [128.899717, 37.7500634]}, "properties": {"name": "자동차백화점", "addr": "강원특별자치도 강릉시 노암동 279-23", "ranks": [3]}}, {"type": "Feature", "geometry": {"type": "Point", "coordinates": [128.899476, 37.750088]}, "properties": {"name": "잠수교", "addr": "강원특별자치도 강릉시 노암동 826-8", "ranks": [3]}}, {"type": "Feature", "geometry": {"type": "Point", "coordinates": [128.8888613, 37.7488521]}, "properties": {"name": "중부지방고용노동청", "addr": "강원특별자치도 강릉시 남문동 164-10", "ranks": [1]}}, {"type": "Feature", "geometry": {"type": "Point", "coordinates": [128.8983594, 37.7558806]}, "properties": {"name": "홈플러스", "addr": "강원특별자치도 강릉시 옥천동 189-19", "ranks": [2]}}]}