{"type": "FeatureCollection", "features": [{"type": "Feature", "geometry": {"type": "LineString", "coordinates": [[128.8947705, 37.7478778], [128.8947248, 37.7479045], [128.8946876, 37.7479381], [128.8946533, 37.747974], [128.8946306, 37.7479977], [128.8946028, 37.7480365], [128.8945833, 37.7480788], [128.8945638, 37.7481211], [128.8945443, 37.7481634], [128.8945262, 37.748206], [128.8945193, 37.7482507], [128.8945124, 37.7482954], [128.8945056, 37.7483402], [128.8944987, 37.7483849], [128.8944919, 37.7484296], [128.8944938, 37.7484746], [128.8944958, 37.7485045], [128.8944987, 37.7485495], [128.8945016, 37.7485945], [128.8944716, 37.748586], [128.8944182, 37.7485706], [128.8943648, 37.7485553], [128.8943115, 37.7485399], [128.8942582, 37.7485245], [128.894205, 37.7485087], [128.8941523, 37.7484922], [128.8940995, 37.7484756], [128.8940467, 37.748459], [128.893994, 37.7484424], [128.8939412, 37.7484258], [128.8938885, 37.7484092], [128.8938357, 37.7483926], [128.893783, 37.748376], [128.8937302, 37.7483594], [128.8936774, 37.7483428], [128.8936247, 37.7483262], [128.8935719, 37.7483096], [128.8935192, 37.748293], [128.8934664, 37.7482764], [128.8934137, 37.7482598], [128.8933609, 37.7482432], [128.8933082, 37.7482266], [128.8932553, 37.7482102], [128.8932019, 37.7481949], [128.8931669, 37.7481849], [128.8931135, 37.7481697], [128.8930601, 37.7481544], [128.8930067, 37.7481392], [128.8929533, 37.748124], [128.8928999, 37.7481087], [128.892891, 37.7481062], [128.8928376, 37.7480909], [128.8927842, 37.7480757], [128.8927308, 37.7480604], [128.8926774, 37.7480451], [128.8926242, 37.7480296], [128.8925709, 37.7480141], [128.8925176, 37.7479986], [128.8924643, 37.7479831], [128.8924117, 37.7479662], [128.8923592, 37.7479491], [128.8923067, 37.747932], [128.8922542, 37.7479149], [128.8922521, 37.7479143], [128.8921995, 37.7478973], [128.8921469, 37.7478806], [128.8920942, 37.7478638], [128.8920415, 37.747847], [128.8919889, 37.7478302], [128.8919362, 37.7478135], [128.8918835, 37.7477967], [128.8918309, 37.7477799], [128.8917782, 37.7477631], [128.8917255, 37.7477464], [128.891684, 37.7477331], [128.8916314, 37.7477164], [128.8915787, 37.7476996], [128.891526, 37.7476828], [128.8914734, 37.7476661], [128.8914207, 37.7476493], [128.8913866, 37.7476384], [128.8913339, 37.7476216], [128.891281, 37.7476054], [128.8912279, 37.7475895], [128.8911748, 37.7475737], [128.8911217, 37.7475578], [128.8910686, 37.7475419], [128.8910155, 37.7475261], [128.8909624, 37.7475102], [128.8909592, 37.7475093], [128.8909061, 37.7474934], [128.890853, 37.7474775], [128.8907999, 37.7474617], [128.8907468, 37.7474458], [128.8906937, 37.74743], [128.8906406, 37.7474141], [128.8905875, 37.7473982], [128.8905347, 37.7473816], [128.890482, 37.747365], [128.8904292, 37.7473483], [128.8903765, 37.7473317], [128.8903237, 37.7473151], [128.890271, 37.7472985], [128.890238, 37.7472881], [128.8901846, 37.747273], [128.8901826, 37.7472725], [128.8901282, 37.7472597], [128.8900737, 37.747247], [128.8900193, 37.7472342], [128.8899649, 37.7472214], [128.8899105, 37.7472086], [128.8898741, 37.7472001], [128.8898197, 37.7471873], [128.8897653, 37.7471745], [128.8897109, 37.7471617], [128.8896565, 37.747149], [128.8896021, 37.7471362], [128.8895477, 37.7471234], [128.8894933, 37.7471106], [128.8894387, 37.7470983], [128.8893841, 37.7470859], [128.8893295, 37.7470736], [128.889275, 37.7470612], [128.8892316, 37.7470515], [128.8891769, 37.7470395], [128.8891222, 37.7470276], [128.8890676, 37.7470153], [128.8890129, 37.7470034], [128.8889581, 37.7469916], [128.8889034, 37.7469797], [128.8888486, 37.7469679], [128.8887939, 37.746956], [128.8887391, 37.7469442], [128.8887092, 37.7469376], [128.8886545, 37.7469257], [128.8885997, 37.7469138], [128.888545, 37.746902], [128.8884902, 37.7468902], [128.8884638, 37.7468841], [128.8884097, 37.7468706], [128.8883556, 37.7468571], [128.8883014, 37.7468436], [128.8882473, 37.74683], [128.8881931, 37.7468165], [128.888139, 37.746803], [128.8880849, 37.7467895], [128.8880308, 37.746776], [128.8879766, 37.7467625], [128.8879225, 37.746749], [128.8878685, 37.7467352], [128.8878147, 37.7467207], [128.887761, 37.7467063], [128.8877359, 37.7466995], [128.8876821, 37.746685], [128.8876284, 37.7466705], [128.8875747, 37.746656], [128.8875209, 37.7466416], [128.887467, 37.7466276], [128.8874126, 37.7466147], [128.8873582, 37.7466019], [128.8873038, 37.7465891], [128.8872494, 37.7465762], [128.8871951, 37.7465634], [128.8871406, 37.7465505], [128.8870863, 37.7465377], [128.8870319, 37.7465249], [128.8869775, 37.746512], [128.8869231, 37.7464992], [128.8868687, 37.7464864], [128.8868143, 37.7464735], [128.8867599, 37.7464607], [128.8867055, 37.7464478], [128.8866511, 37.746435], [128.8865967, 37.7464222], [128.886543, 37.7464078], [128.8864896, 37.7463924], [128.8864363, 37.746377], [128.886383, 37.7463616], [128.8863297, 37.7463462], [128.8862757, 37.7463324], [128.8862214, 37.7463192], [128.8861672, 37.7463059], [128.8861129, 37.7462927], [128.8860587, 37.7462795], [128.8860044, 37.7462663], [128.8859502, 37.7462531], [128.8858959, 37.7462399], [128.8858417, 37.7462267], [128.8857874, 37.7462134], [128.8857336, 37.7461992], [128.8856798, 37.746185], [128.8856259, 37.7461707], [128.8855721, 37.7461565], [128.8855183, 37.7461422], [128.8854644, 37.746128], [128.8854106, 37.7461138], [128.8853568, 37.7460995], [128.8853029, 37.7460853], [128.8852491, 37.746071], [128.8851953, 37.7460568], [128.8851414, 37.7460425], [128.8850876, 37.7460283], [128.8850337, 37.7460141], [128.8849799, 37.7459998], [128.8849261, 37.7459856], [128.8848722, 37.7459713], [128.8848367, 37.7460065], [128.8848012, 37.7460416], [128.8847656, 37.7460767], [128.8847301, 37.7461118], [128.8846945, 37.7461469], [128.884659, 37.7461821], [128.8846234, 37.7462172], [128.8845879, 37.7462523], [128.8845523, 37.7462874], [128.8845168, 37.7463226], [128.8844812, 37.7463577], [128.8844457, 37.7463928], [128.8844101, 37.7464279], [128.8843746, 37.746463], [128.884339, 37.7464982], [128.8843035, 37.7465333], [128.8842679, 37.7465684], [128.8842324, 37.7466035], [128.8841969, 37.7466386], [128.8841613, 37.7466738], [128.8841258, 37.7467089], [128.8840902, 37.746744], [128.8840547, 37.7467791], [128.8840192, 37.7468143], [128.8839837, 37.7468495], [128.8839482, 37.7468846], [128.8839127, 37.7469198], [128.8838772, 37.7469549], [128.8838417, 37.7469901], [128.8838062, 37.7470252], [128.8837708, 37.7470604], [128.8837353, 37.7470956], [128.8836998, 37.7471307], [128.8836643, 37.7471659], [128.8836288, 37.747201], [128.8835933, 37.7472362], [128.8835694, 37.7472598], [128.8836236, 37.7472732], [128.8836778, 37.7472867], [128.8837319, 37.7473001], [128.8837861, 37.7473135], [128.8838398, 37.747328], [128.8838934, 37.7473428], [128.8839473, 37.7473568], [128.8840012, 37.7473709], [128.8840551, 37.7473849], [128.884109, 37.747399], [128.884163, 37.747413], [128.8842169, 37.7474271], [128.8842708, 37.7474411], [128.8843248, 37.747455], [128.8843787, 37.747469], [128.8844327, 37.747483], [128.8844866, 37.747497], [128.8845405, 37.747511], [128.8845948, 37.7475241], [128.8846491, 37.7475373], [128.8847033, 37.7475505], [128.8847576, 37.7475637], [128.8848119, 37.7475769], [128.8848661, 37.74759], [128.8849207, 37.7476024], [128.8849755, 37.7476142], [128.8850302, 37.7476259], [128.885085, 37.7476376], [128.8851398, 37.7476493], [128.8851946, 37.747661], [128.8852494, 37.7476728], [128.8853042, 37.7476845], [128.885359, 37.7476962], [128.8854138, 37.7477079], [128.8854686, 37.7477196], [128.8855234, 37.7477314], [128.8855781, 37.7477432], [128.8856329, 37.747755], [128.8856562, 37.7477601], [128.885711, 37.7477719], [128.8857659, 37.7477833], [128.8858209, 37.7477942], [128.885876, 37.7478051], [128.885931, 37.747816], [128.8859861, 37.7478269], [128.8860412, 37.7478379], [128.8860962, 37.7478488], [128.8861507, 37.7478612], [128.8862052, 37.747874], [128.8862596, 37.7478867], [128.886314, 37.7478995], [128.8863684, 37.7479123], [128.8864229, 37.747925], [128.8864773, 37.7479377], [128.8865317, 37.7479505], [128.8865861, 37.7479633], [128.8866362, 37.7479807], [128.8866474, 37.7480226], [128.8866443, 37.7480675], [128.8866411, 37.7481125], [128.8866379, 37.7481575], [128.8866348, 37.7482025], [128.8866342, 37.7482105], [128.8866908, 37.7482135], [128.8867474, 37.7482165], [128.886804, 37.7482195], [128.8868607, 37.7482226], [128.8869173, 37.7482256], [128.8869739, 37.7482286], [128.8870305, 37.7482316], [128.8870871, 37.7482346], [128.8871438, 37.7482376], [128.8872004, 37.7482406], [128.887257, 37.7482436], [128.8873101, 37.7482594], [128.8873631, 37.7482754], [128.8874162, 37.7482914], [128.8874692, 37.7483074], [128.8875223, 37.7483234], [128.8875753, 37.7483394], [128.8876284, 37.7483554], [128.8876814, 37.7483714], [128.8877345, 37.7483874], [128.8877875, 37.7484034], [128.8878404, 37.7484198], [128.8878932, 37.7484363], [128.887946, 37.7484527], [128.8879989, 37.7484691], [128.8880517, 37.7484856], [128.8881045, 37.748502], [128.8881574, 37.7485185], [128.8882102, 37.7485349], [128.888263, 37.7485514], [128.8883158, 37.7485678], [128.8883687, 37.7485843], [128.8884208, 37.748602], [128.8884728, 37.7486201], [128.8885247, 37.7486382], [128.8885767, 37.7486563], [128.8886287, 37.7486745], [128.8886806, 37.7486926], [128.8887326, 37.7487107], [128.8887846, 37.7487288], [128.8888365, 37.7487469], [128.8888885, 37.748765], [128.8889404, 37.7487831], [128.8889925, 37.7488011], [128.8890448, 37.7488185], [128.8890971, 37.748836], [128.8891494, 37.7488534], [128.8892017, 37.7488709], [128.889254, 37.7488883], [128.8893064, 37.7489058], [128.8893587, 37.7489232], [128.889411, 37.7489407], [128.8894633, 37.7489582], [128.8895156, 37.7489756], [128.8895679, 37.7489931], [128.8896203, 37.7490105], [128.8896727, 37.7490278], [128.8897252, 37.7490448], [128.8897777, 37.7490619], [128.8898303, 37.7490789], [128.8898828, 37.7490959], [128.8899354, 37.7491129], [128.8899879, 37.74913], [128.8900404, 37.749147], [128.890093, 37.749164], [128.8901229, 37.7491743], [128.8901726, 37.7491961], [128.8902223, 37.7492178], [128.8902719, 37.7492396], [128.8903216, 37.7492614], [128.8903713, 37.7492831], [128.890405, 37.749318], [128.890434, 37.7493567], [128.890463, 37.7493955], [128.890492, 37.7494342], [128.890521, 37.7494729], [128.89055, 37.7495117], [128.890579, 37.7495504], [128.890608, 37.7495891], [128.890637, 37.7496279], [128.890666, 37.7496666], [128.8906949, 37.7497053], [128.8907239, 37.7497441], [128.8907529, 37.7497828], [128.8907819, 37.7498215], [128.8908109, 37.7498603], [128.8908399, 37.749899], [128.8908689, 37.7499377], [128.8908979, 37.7499765], [128.8909269, 37.7500152], [128.8909452, 37.7500398], [128.8909742, 37.7500785], [128.8910032, 37.7501172], [128.8910322, 37.750156], [128.8910612, 37.7501947], [128.8910902, 37.7502334], [128.8911192, 37.7502722], [128.8911482, 37.7503109], [128.8911771, 37.7503496], [128.8912061, 37.7503884], [128.8912351, 37.7504271], [128.8912641, 37.7504658], [128.8912931, 37.7505046], [128.8913221, 37.7505433], [128.8913511, 37.750582], [128.8913801, 37.7506208], [128.8914091, 37.7506595], [128.8914381, 37.7506983], [128.8914671, 37.750737], [128.891496, 37.7507757], [128.891525, 37.7508145], [128.891554, 37.7508532], [128.891583, 37.7508919], [128.891612, 37.7509307], [128.891641, 37.7509694], [128.89167, 37.7510081], [128.891699, 37.7510469], [128.891728, 37.7510856], [128.891757, 37.7511243], [128.8917859, 37.7511631], [128.8918149, 37.7512018], [128.8918439, 37.7512405], [128.8918729, 37.7512793], [128.8919019, 37.751318], [128.8919152, 37.7513358], [128.8919442, 37.7513745], [128.8919732, 37.7514132], [128.8920022, 37.751452], [128.8920312, 37.7514907], [128.8920602, 37.7515294], [128.8920892, 37.7515682], [128.8921, 37.7515827], [128.892129, 37.7516215], [128.892158, 37.7516602], [128.8921785, 37.7516875], [128.8922075, 37.7517263], [128.8922365, 37.751765], [128.8922655, 37.7518037], [128.8922944, 37.7518425], [128.8923234, 37.7518812], [128.8923524, 37.7519199], [128.8923814, 37.7519587], [128.8924104, 37.7519974], [128.8924394, 37.7520361], [128.8924684, 37.7520749], [128.8924974, 37.7521136], [128.8925264, 37.7521523], [128.8925554, 37.7521911], [128.8925843, 37.7522298], [128.8926134, 37.7522685], [128.8926423, 37.7523073], [128.8926713, 37.752346], [128.8927003, 37.7523847], [128.8927293, 37.7524235], [128.8927583, 37.7524622], [128.8927873, 37.7525009], [128.8928163, 37.7525397], [128.8928453, 37.7525784], [128.8928743, 37.7526171], [128.8929043, 37.7526554], [128.8929346, 37.7526934], [128.8929581, 37.7527166], [128.8929245, 37.7527529], [128.8928909, 37.7527892], [128.8928572, 37.7528254], [128.8928235, 37.7528617], [128.8927898, 37.752898], [128.8927562, 37.7529342], [128.8927225, 37.7529705], [128.8926888, 37.7530068], [128.8926551, 37.753043], [128.8926215, 37.7530793], [128.8925878, 37.7531156], [128.8925796, 37.7531244], [128.8925459, 37.7531606], [128.8925121, 37.7531968], [128.8924784, 37.7532331], [128.8924497, 37.7532703], [128.8924195, 37.7533085], [128.8923894, 37.7533466], [128.8923592, 37.7533848], [128.892329, 37.753423], [128.8922998, 37.7534616], [128.8922729, 37.7535013], [128.8922481, 37.7535417], [128.892226, 37.7535832], [128.8922039, 37.7536247], [128.8921818, 37.7536662], [128.8921807, 37.7536683], [128.8922334, 37.7536851], [128.8922861, 37.7537019], [128.8923352, 37.7537231], [128.8923774, 37.7537533], [128.8924196, 37.7537834], [128.8924618, 37.7538135], [128.892504, 37.7538437], [128.8925462, 37.7538738], [128.8925884, 37.7539039], [128.8926306, 37.7539341], [128.8926728, 37.7539642], [128.892715, 37.7539943], [128.8927291, 37.7540044], [128.8927712, 37.7540346], [128.8928132, 37.7540648], [128.8928546, 37.7540957], [128.892896, 37.7541265], [128.8929373, 37.7541574], [128.8929787, 37.7541882], [128.8930201, 37.754219], [128.8930614, 37.7542499], [128.8930988, 37.7542827], [128.8931133, 37.7543222], [128.8930855, 37.7543615], [128.8930545, 37.7543991], [128.8930209, 37.7544354], [128.8929873, 37.7544717], [128.8929537, 37.754508], [128.8929201, 37.7545444], [128.8928892, 37.7545821], [128.8928585, 37.75462], [128.8928278, 37.7546579], [128.8927971, 37.7546958], [128.8927664, 37.7547337], [128.8927357, 37.7547716], [128.892705, 37.7548095], [128.8926743, 37.7548474], [128.8926406, 37.7548836], [128.8926291, 37.7548954], [128.8926331, 37.7548978], [128.8926782, 37.7549252], [128.8927232, 37.7549526], [128.8927683, 37.75498], [128.8928134, 37.7550074], [128.8928584, 37.7550348], [128.8929035, 37.7550621], [128.8929461, 37.755088], [128.8929844, 37.7551113], [128.8930295, 37.7551387], [128.8930746, 37.7551661], [128.8930874, 37.7551739], [128.8931309, 37.7552028], [128.8931744, 37.7552318], [128.8932178, 37.7552608], [128.8932612, 37.7552898], [128.8933046, 37.7553189], [128.8933479, 37.755348], [128.8933907, 37.7553776], [128.8934342, 37.7554066], [128.8934777, 37.7554355], [128.8935124, 37.7554578], [128.8935566, 37.755486], [128.8936008, 37.7555143], [128.8936449, 37.7555426], [128.8936891, 37.7555709], [128.8937333, 37.7555992], [128.8937774, 37.7556275], [128.8937969, 37.7556399], [128.8937994, 37.7556418], [128.8938439, 37.7556697], [128.8938886, 37.7556975], [128.8939334, 37.7557252], [128.8939781, 37.7557529], [128.8940228, 37.7557807], [128.8940675, 37.7558084], [128.8941123, 37.7558361], [128.894157, 37.7558639], [128.8942017, 37.7558916], [128.8942465, 37.7559193], [128.8942912, 37.7559471], [128.8943359, 37.7559748], [128.8943807, 37.7560024], [128.8944264, 37.7560292], [128.894472, 37.756056], [128.8944875, 37.7560651], [128.8945331, 37.7560919], [128.8945787, 37.7561187], [128.8945984, 37.7561304], [128.8946444, 37.7561568], [128.8946892, 37.7561845], [128.8947338, 37.7562124], [128.8947784, 37.7562402], [128.8948226, 37.7562678], [128.8948672, 37.7562957], [128.8948857, 37.7563073], [128.8949303, 37.7563352], [128.8949749, 37.756363], [128.8950195, 37.7563909], [128.8950641, 37.7564188], [128.8951087, 37.7564466], [128.8951533, 37.7564745], [128.8951979, 37.7565024], [128.8952425, 37.7565302], [128.8952871, 37.7565581], [128.8953317, 37.756586], [128.8953763, 37.7566138], [128.8954118, 37.7566362], [128.8954567, 37.7566637], [128.8955016, 37.7566912], [128.8955466, 37.7567187], [128.8955915, 37.7567463], [128.8956364, 37.7567738], [128.8956814, 37.7568013], [128.8957263, 37.7568288], [128.8957712, 37.7568563], [128.8958162, 37.7568839], [128.8958611, 37.7569114], [128.895906, 37.7569389], [128.895951, 37.7569664], [128.8959958, 37.7569941], [128.8960399, 37.7570224], [128.8960841, 37.7570507], [128.8961145, 37.7570711], [128.8961585, 37.7570996], [128.8962025, 37.757128], [128.8962465, 37.7571565], [128.8962905, 37.7571849], [128.8963345, 37.7572134], [128.8963786, 37.7572418], [128.8964226, 37.7572703], [128.8964525, 37.7572896], [128.896413, 37.7573209], [128.8963728, 37.7573527], [128.8963403, 37.7573894], [128.8963102, 37.7574276], [128.8962801, 37.7574658], [128.89625, 37.757504], [128.8962199, 37.7575422], [128.8961889, 37.75758], [128.8961573, 37.7576174], [128.8961257, 37.7576548], [128.8960938, 37.7576921], [128.896062, 37.7577294], [128.8960302, 37.7577667], [128.8959986, 37.7578041], [128.8959679, 37.757842], [128.8959405, 37.7578815], [128.8959133, 37.757921], [128.8958885, 37.7579616], [128.8958638, 37.7580021], [128.8958393, 37.7580427], [128.8958152, 37.7580835], [128.8957911, 37.7581243], [128.895767, 37.7581651], [128.8957505, 37.7582082], [128.8957342, 37.7582514], [128.8957178, 37.7582945], [128.8957015, 37.7583377], [128.8956854, 37.7583809], [128.8956692, 37.7584241], [128.8956531, 37.7584673], [128.8956368, 37.7585105], [128.8956189, 37.7585532], [128.895601, 37.7585959], [128.8955831, 37.7586387], [128.8955651, 37.7586815], [128.8955337, 37.7587176], [128.8954935, 37.7587494], [128.8954533, 37.7587812], [128.8954132, 37.7588131], [128.895456, 37.7588426], [128.8954988, 37.7588722], [128.8955416, 37.7589018], [128.8955844, 37.7589314], [128.8956218, 37.7589653], [128.8956589, 37.7589993], [128.8956961, 37.7590334], [128.8957332, 37.7590675], [128.8957706, 37.7591013], [128.8958095, 37.7591342], [128.8958173, 37.7591409], [128.8958571, 37.759173], [128.8958969, 37.7592051], [128.8959367, 37.7592373], [128.8959764, 37.7592694], [128.8960162, 37.7593015], [128.896056, 37.7593337], [128.8960958, 37.7593658], [128.8961355, 37.759398], [128.8961753, 37.7594301], [128.8962151, 37.7594622], [128.8962549, 37.7594944], [128.8962947, 37.7595265], [128.8963344, 37.7595587], [128.8963742, 37.7595908], [128.896414, 37.7596229], [128.8964538, 37.7596551], [128.8964936, 37.7596872], [128.8965333, 37.7597193], [128.8965732, 37.7597514], [128.8966131, 37.7597835], [128.896653, 37.7598155], [128.8966929, 37.7598475], [128.8967328, 37.7598796], [128.8967728, 37.7599116], [128.8968127, 37.7599436], [128.8968526, 37.7599756], [128.8968925, 37.7600077], [128.8969324, 37.7600397], [128.8969656, 37.7600663], [128.8970045, 37.7600991], [128.8970434, 37.7601319], [128.8970823, 37.7601647], [128.8971212, 37.7601975], [128.8971601, 37.7602303], [128.8971991, 37.7602631], [128.897238, 37.7602959], [128.8972769, 37.7603287], [128.8973158, 37.7603615], [128.8973547, 37.7603943], [128.8973936, 37.7604271], [128.8974325, 37.7604599], [128.8974714, 37.7604927], [128.8975103, 37.7605255], [128.8975493, 37.7605583], [128.8975882, 37.7605911], [128.8976234, 37.7606206], [128.8976625, 37.7606533], [128.8977015, 37.760686], [128.8977414, 37.7607181], [128.8977825, 37.7607491], [128.8978236, 37.7607802], [128.8978648, 37.7608113], [128.8979059, 37.7608423], [128.897947, 37.7608734], [128.8979881, 37.7609044], [128.8980292, 37.7609355], [128.8980703, 37.7609666], [128.8981114, 37.7609976], [128.8981526, 37.7610287], [128.8981937, 37.7610598], [128.8982299, 37.7610871], [128.898271, 37.7611181], [128.8983121, 37.7611492], [128.8983532, 37.7611803], [128.8983943, 37.7612113], [128.8984354, 37.7612424], [128.8984701, 37.7612686], [128.8985112, 37.7612996], [128.8985523, 37.7613307], [128.8985934, 37.7613618], [128.8986346, 37.7613928], [128.8986757, 37.7614239], [128.8987168, 37.7614549], [128.8987579, 37.761486], [128.8987822, 37.7615044], [128.8988233, 37.7615355], [128.8988643, 37.7615666], [128.8989054, 37.7615977], [128.8989465, 37.7616288], [128.8989876, 37.7616598], [128.8990287, 37.7616909], [128.8990698, 37.761722], [128.8991109, 37.7617531], [128.899152, 37.7617842], [128.8991931, 37.7618152], [128.8992342, 37.7618463], [128.8992753, 37.7618774], [128.8993164, 37.7619085], [128.8993575, 37.7619396], [128.8993986, 37.7619706], [128.8994397, 37.7620017], [128.8994808, 37.7620328], [128.8995219, 37.7620639], [128.899563, 37.7620949], [128.8996041, 37.762126], [128.8996451, 37.7621571], [128.8996848, 37.7621893], [128.8997241, 37.7622219], [128.8997633, 37.7622544], [128.8998026, 37.7622869], [128.8998419, 37.7623194], [128.8998812, 37.762352], [128.8999204, 37.7623845], [128.8999597, 37.762417], [128.899999, 37.7624495], [128.9000383, 37.7624821], [128.9000776, 37.7625146], [128.9001168, 37.7625471], [128.9001561, 37.7625796], [128.9001953, 37.7626122], [128.9002344, 37.7626449], [128.9002735, 37.7626776], [128.9003128, 37.76271], [128.9003522, 37.7627425], [128.9003915, 37.762775], [128.9004309, 37.7628074], [128.9004702, 37.7628399], [128.9005096, 37.7628724], [128.9005478, 37.7629029], [128.9005075, 37.7629346], [128.9004671, 37.7629663], [128.9004268, 37.762998], [128.9003864, 37.7630296], [128.900346, 37.7630613], [128.9003057, 37.763093], [128.9002653, 37.7631247], [128.9002249, 37.7631563], [128.9001846, 37.763188], [128.9001442, 37.7632197], [128.9001039, 37.7632514], [128.9000635, 37.7632831], [128.9000231, 37.7633147], [128.8999828, 37.7633464], [128.8999424, 37.7633781], [128.899902, 37.7634098], [128.8998617, 37.7634414], [128.8998213, 37.7634731], [128.8998191, 37.7634748], [128.8998191, 37.7634749], [128.8997788, 37.7635065], [128.8997384, 37.7635382], [128.899698, 37.7635699], [128.8996614, 37.7636042], [128.899627, 37.76364], [128.8995926, 37.7636758], [128.8995582, 37.7637117], [128.8995237, 37.7637475], [128.8994893, 37.7637833], [128.8994549, 37.7638191], [128.8994205, 37.763855], [128.8993861, 37.7638908], [128.8993516, 37.7639266], [128.8993172, 37.7639625], [128.8992829, 37.7639983], [128.8992486, 37.7640342], [128.8992142, 37.7640701], [128.8991799, 37.764106], [128.8991456, 37.7641419], [128.8991113, 37.7641778]]}, "properties": {"rank": 1, "length_km": 4.04, "mean_dsi": 0.4186, "exposure": 1691.8, "n_stops": 11, "stops": ["KTX역버스승강장", "강릉대도호부관아", "강릉역", "강릉의료원", "구터미널", "군기청작정터", "남산입구", "내곡교", "대도호부관아", "중부지방고용노동청"], "share_safe": 0.282, "share_caution": 0.648, "share_highrisk": 0.07}}, {"type": "Feature", "geometry": {"type": "LineString", "coordinates": [[128.8947705, 37.7478778], [128.8947248, 37.7479045], [128.8946876, 37.7479381], [128.8946533, 37.747974], [128.8946306, 37.7479977], [128.8946028, 37.7480365], [128.8945833, 37.7480788], [128.8945638, 37.7481211], [128.8945443, 37.7481634], [128.8945262, 37.748206], [128.8945193, 37.7482507], [128.8945124, 37.7482954], [128.8945056, 37.7483402], [128.8944987, 37.7483849], [128.8944919, 37.7484296], [128.8944938, 37.7484746], [128.8944958, 37.7485045], [128.8944987, 37.7485495], [128.8945016, 37.7485945], [128.894555, 37.7486096], [128.8946084, 37.7486249], [128.8946617, 37.7486404], [128.894715, 37.7486559], [128.8947683, 37.7486713], [128.8948216, 37.7486868], [128.8948751, 37.7487018], [128.8949301, 37.7487128], [128.8949851, 37.7487239], [128.8950401, 37.7487349], [128.8950951, 37.7487459], [128.8951502, 37.7487569], [128.8952052, 37.7487679], [128.8952602, 37.748779], [128.8953152, 37.74879], [128.8953703, 37.748801], [128.8954253, 37.748812], [128.8954803, 37.748823], [128.8955353, 37.748834], [128.8955904, 37.7488451], [128.8956454, 37.7488561], [128.8957004, 37.7488671], [128.8957554, 37.7488781], [128.8958104, 37.7488891], [128.8958655, 37.7489002], [128.8959205, 37.7489112], [128.8959755, 37.7489222], [128.8960305, 37.7489332], [128.8960856, 37.7489442], [128.8961406, 37.7489553], [128.8961956, 37.7489663], [128.8962506, 37.7489773], [128.8963056, 37.7489883], [128.8963607, 37.7489993], [128.8964157, 37.7490104], [128.8964707, 37.7490214], [128.8965257, 37.7490324], [128.8965787, 37.7490482], [128.8966089, 37.7490589], [128.8965861, 37.7491002], [128.8965622, 37.7491409], [128.8965282, 37.749177], [128.8964941, 37.749213], [128.89646, 37.749249], [128.896426, 37.7492851], [128.8963919, 37.7493211], [128.8963578, 37.7493571], [128.8963238, 37.7493932], [128.8962897, 37.7494292], [128.8962556, 37.7494652], [128.8962216, 37.7495013], [128.8961875, 37.7495373], [128.8961533, 37.7495733], [128.8961191, 37.7496092], [128.8960849, 37.7496452], [128.8960507, 37.7496812], [128.8960165, 37.7497171], [128.8959824, 37.7497531], [128.8959482, 37.749789], [128.895914, 37.749825], [128.8958798, 37.749861], [128.8958456, 37.7498969], [128.8958114, 37.7499329], [128.8957772, 37.7499688], [128.895743, 37.7500048], [128.8957088, 37.7500408], [128.8956746, 37.7500767], [128.8956404, 37.7501127], [128.8956062, 37.7501486], [128.895572, 37.7501846], [128.8955378, 37.7502206], [128.8955036, 37.7502565], [128.8954695, 37.7502925], [128.8954353, 37.7503284], [128.8954011, 37.7503644], [128.8953646, 37.7503944], [128.8953233, 37.7504253], [128.895282, 37.7504562], [128.8952439, 37.7504896], [128.8952069, 37.7505237], [128.8951699, 37.7505579], [128.895133, 37.7505921], [128.8950961, 37.7506263], [128.8950592, 37.7506605], [128.8950222, 37.7506948], [128.8949853, 37.750729], [128.8949484, 37.7507632], [128.8949115, 37.7507974], [128.8948869, 37.7508202], [128.89485, 37.7508545], [128.8948435, 37.7508605], [128.8948066, 37.7508948], [128.8947698, 37.750929], [128.8947329, 37.7509633], [128.894696, 37.7509975], [128.8946592, 37.7510318], [128.8946223, 37.751066], [128.8945854, 37.7511003], [128.8945486, 37.7511345], [128.8945117, 37.7511688], [128.8944748, 37.751203], [128.8944379, 37.7512373], [128.8944011, 37.7512715], [128.8943655, 37.7513066], [128.8943508, 37.7513222], [128.8943225, 37.7513527], [128.8943647, 37.7513779], [128.89441, 37.751405], [128.8944554, 37.751432], [128.8945007, 37.7514592], [128.894546, 37.7514863], [128.8945913, 37.7515134], [128.8946366, 37.7515405], [128.8946819, 37.7515677], [128.8947273, 37.7515948], [128.8947726, 37.7516219], [128.894817, 37.7516499], [128.8948612, 37.7516782], [128.8948817, 37.7516913], [128.8949259, 37.7517196], [128.8949701, 37.7517478], [128.8950143, 37.7517761], [128.8950585, 37.7518043], [128.8951027, 37.7518326], [128.8951469, 37.7518609], [128.8951888, 37.7518912], [128.8951936, 37.751895], [128.8952332, 37.7519273], [128.8952727, 37.7519597], [128.8952319, 37.7519911], [128.8951915, 37.7520226], [128.8951675, 37.7520634], [128.8951434, 37.7521042], [128.8951193, 37.7521451], [128.8950953, 37.7521859], [128.8950712, 37.7522267], [128.8950481, 37.7522678], [128.8950464, 37.7522712], [128.8950253, 37.752313], [128.8950037, 37.7523546], [128.8949793, 37.7523953], [128.8949549, 37.752436], [128.89493, 37.7524765], [128.8949051, 37.752517], [128.8948802, 37.7525575], [128.8948553, 37.7525979], [128.8948305, 37.7526384], [128.8948052, 37.7526788], [128.8947786, 37.7527186], [128.8947519, 37.7527583], [128.8947455, 37.752803], [128.8947442, 37.752814], [128.8947812, 37.7528476], [128.8948165, 37.7528829], [128.8948611, 37.7529105], [128.894907, 37.752937], [128.8949529, 37.7529635], [128.8949988, 37.75299], [128.8950447, 37.7530165], [128.8950906, 37.753043], [128.8951365, 37.7530695], [128.895182, 37.7530964], [128.8952275, 37.7531233], [128.895273, 37.7531502], [128.8953185, 37.7531772], [128.895364, 37.7532041], [128.8954095, 37.7532311], [128.895455, 37.753258], [128.8955005, 37.7532849], [128.895546, 37.7533119], [128.8955677, 37.7533248], [128.8956129, 37.753352], [128.895658, 37.7533793], [128.8957032, 37.7534066], [128.8957483, 37.7534339], [128.8957935, 37.7534612], [128.8958387, 37.7534885], [128.8958869, 37.7535121], [128.8959102, 37.7535234], [128.8959587, 37.7535468], [128.896007, 37.7535704], [128.8960512, 37.7535986], [128.8960954, 37.7536269], [128.8961396, 37.7536552], [128.8961838, 37.7536835], [128.8962279, 37.7537118], [128.8962721, 37.75374], [128.8963163, 37.7537683], [128.8963605, 37.7537966], [128.8964046, 37.7538249], [128.8964488, 37.7538532], [128.8964635, 37.7538626], [128.8965051, 37.7538932], [128.8965463, 37.7539242], [128.8965875, 37.7539552], [128.8966287, 37.7539862], [128.8966699, 37.7540172], [128.8967125, 37.7540468], [128.896713, 37.7540471], [128.8967588, 37.7540736], [128.8968047, 37.7541001], [128.8968506, 37.7541266], [128.8968965, 37.7541532], [128.8969423, 37.7541797], [128.8969882, 37.7542062], [128.8970341, 37.7542327], [128.89708, 37.7542593], [128.8970947, 37.7542678], [128.8971394, 37.7542956], [128.897184, 37.7543235], [128.8972286, 37.7543513], [128.8972732, 37.7543792], [128.8973178, 37.7544071], [128.8973624, 37.7544349], [128.897407, 37.7544628], [128.8974516, 37.7544907], [128.8974985, 37.7545157], [128.8975482, 37.7545374], [128.8975589, 37.7545421], [128.8975297, 37.75458], [128.8974986, 37.7546177], [128.8974667, 37.754655], [128.897433, 37.7546912], [128.8973993, 37.7547274], [128.8973655, 37.7547637], [128.8973318, 37.7547999], [128.8972981, 37.7548362], [128.8972644, 37.7548724], [128.8972309, 37.7549088], [128.8971987, 37.7549459], [128.8971665, 37.754983], [128.8971344, 37.7550201], [128.8971022, 37.7550572], [128.89707, 37.7550944], [128.8970378, 37.7551314], [128.8970045, 37.7551679], [128.8969714, 37.7552045], [128.8969587, 37.7552187], [128.8970046, 37.7552451], [128.8970506, 37.7552716], [128.8970965, 37.755298], [128.8971425, 37.7553245], [128.8971884, 37.7553509], [128.8972344, 37.7553774], [128.8972803, 37.7554039], [128.8973262, 37.7554303], [128.8973721, 37.7554568], [128.897418, 37.7554833], [128.8974639, 37.7555098], [128.8975098, 37.7555363], [128.8975557, 37.7555628], [128.8976016, 37.7555893], [128.8976475, 37.7556158], [128.8976593, 37.755622], [128.8977053, 37.7556485], [128.8977497, 37.7556764], [128.8977932, 37.7557054], [128.897833, 37.7557375], [128.8978719, 37.7557703], [128.8978826, 37.7557793], [128.8979216, 37.7558121], [128.8979608, 37.7558446], [128.898005, 37.7558728], [128.8980496, 37.7559007], [128.8980942, 37.7559286], [128.8981388, 37.7559564], [128.8981835, 37.7559842], [128.8982281, 37.7560121], [128.8982727, 37.7560399], [128.8983174, 37.7560677], [128.8983614, 37.7560961], [128.8984056, 37.7561243], [128.8984491, 37.7561532], [128.8984926, 37.7561822], [128.8985364, 37.7562109], [128.8985802, 37.7562395], [128.898624, 37.7562681], [128.8986679, 37.7562967], [128.8987117, 37.7563253], [128.8987556, 37.7563539], [128.8987994, 37.7563825], [128.8988381, 37.7564153], [128.8988408, 37.7564177], [128.8988035, 37.7564517], [128.8987663, 37.7564857], [128.8987624, 37.7564892], [128.8987973, 37.7565248], [128.8988101, 37.7565685], [128.8988219, 37.7566126], [128.8988337, 37.7566566], [128.8988456, 37.7567007], [128.8988574, 37.7567448], [128.8988693, 37.7567888], [128.8988811, 37.7568329], [128.8988929, 37.756877], [128.8989048, 37.756921], [128.8989166, 37.7569651], [128.8989285, 37.7570092], [128.8989403, 37.7570532], [128.8989521, 37.7570973], [128.898964, 37.7571414], [128.8989758, 37.7571854], [128.8989876, 37.7572295], [128.8989995, 37.7572736], [128.8990113, 37.7573176], [128.8990232, 37.7573617], [128.899035, 37.7574058], [128.8990403, 37.7574256], [128.8990433, 37.7574334], [128.8990557, 37.7574773], [128.8990681, 37.7575213], [128.8990805, 37.7575653], [128.8990931, 37.7576092], [128.8991057, 37.7576531], [128.8991184, 37.757697], [128.8991311, 37.757741], [128.8991437, 37.7577849], [128.8991564, 37.7578288], [128.8991691, 37.7578727], [128.8991817, 37.7579167], [128.8991944, 37.7579606], [128.8992071, 37.7580045], [128.8992197, 37.7580484], [128.8992324, 37.7580923], [128.8992451, 37.7581363], [128.8992486, 37.758148], [128.8992498, 37.7581521], [128.8992626, 37.758196], [128.8992755, 37.7582399], [128.8992883, 37.7582837], [128.8993012, 37.7583276], [128.8993141, 37.7583715], [128.8993269, 37.7584154], [128.8993398, 37.7584593], [128.8993526, 37.7585032], [128.8993655, 37.7585471], [128.8993783, 37.7585909], [128.8993912, 37.7586348], [128.8994041, 37.7586787], [128.8994169, 37.7587226], [128.8994298, 37.7587665], [128.8994426, 37.7588104], [128.8994555, 37.7588543], [128.8994684, 37.7588981], [128.8994812, 37.758942], [128.8994941, 37.7589859], [128.8995069, 37.7590298], [128.8995198, 37.7590737], [128.8995327, 37.7591176], [128.8995455, 37.7591615], [128.8995584, 37.7592054], [128.8995712, 37.7592492], [128.8995841, 37.7592931], [128.899597, 37.759337], [128.8996098, 37.7593809], [128.8996227, 37.7594248], [128.8996355, 37.7594687], [128.8996484, 37.7595125], [128.8996613, 37.7595564], [128.8996722, 37.7595941], [128.8996851, 37.7596379], [128.8996982, 37.7596818], [128.8997113, 37.7597256], [128.8997243, 37.7597695], [128.8997374, 37.7598134], [128.8997504, 37.7598572], [128.8997635, 37.759901], [128.8997765, 37.7599449], [128.8997896, 37.7599887], [128.8998026, 37.7600326], [128.8998157, 37.7600764], [128.8998287, 37.7601203], [128.8998418, 37.7601641], [128.8998549, 37.760208], [128.8998679, 37.7602518], [128.899881, 37.7602957], [128.899894, 37.7603395], [128.8999071, 37.7603834], [128.8999201, 37.7604272], [128.8999332, 37.7604711], [128.8999462, 37.7605149], [128.8999593, 37.7605588], [128.8999724, 37.7606026], [128.8999854, 37.7606465], [128.8999985, 37.7606903], [128.9000115, 37.7607342], [128.9000246, 37.760778], [128.9000376, 37.7608219], [128.9000436, 37.7608429], [128.9000563, 37.7608868], [128.9000717, 37.7609281], [128.9000846, 37.760972], [128.9000975, 37.7610158], [128.9001104, 37.7610597], [128.9001233, 37.7611036], [128.9001362, 37.7611475], [128.9001491, 37.7611914], [128.900162, 37.7612352], [128.9001749, 37.7612791], [128.9001878, 37.761323], [128.9002007, 37.7613669], [128.9002136, 37.7614108], [128.9002265, 37.7614546], [128.9002394, 37.7614985], [128.9002523, 37.7615424], [128.9002652, 37.7615863], [128.9002781, 37.7616301], [128.900291, 37.761674], [128.9003039, 37.7617179], [128.9003168, 37.7617618], [128.9003297, 37.7618057], [128.9003426, 37.7618495], [128.9003555, 37.7618934], [128.9003571, 37.761899], [128.90036, 37.7619103], [128.9003724, 37.7619542], [128.9003848, 37.7619982], [128.9003972, 37.7620422], [128.9004095, 37.7620862], [128.9004219, 37.7621301], [128.9004343, 37.7621741], [128.9004467, 37.7622181], [128.9004591, 37.762262], [128.9004714, 37.762306], [128.9004838, 37.76235], [128.9004962, 37.762394], [128.9005093, 37.7624378], [128.9005223, 37.7624817], [128.9005265, 37.7625266], [128.9005306, 37.7625715], [128.9005348, 37.7626165], [128.9005389, 37.7626614], [128.9005431, 37.7627063], [128.9005472, 37.7627513], [128.9005514, 37.7627962], [128.9005555, 37.7628412], [128.9005597, 37.7628861], [128.9005603, 37.7628932], [128.9005478, 37.7629029], [128.9005075, 37.7629346], [128.9004671, 37.7629663], [128.9004268, 37.762998], [128.9003864, 37.7630296], [128.900346, 37.7630613], [128.9003057, 37.763093], [128.9002653, 37.7631247], [128.9002249, 37.7631563], [128.9001846, 37.763188], [128.9001442, 37.7632197], [128.9001039, 37.7632514], [128.9000635, 37.7632831], [128.9000231, 37.7633147], [128.8999828, 37.7633464], [128.8999424, 37.7633781], [128.899902, 37.7634098], [128.8998617, 37.7634414], [128.8998213, 37.7634731], [128.8998191, 37.7634748], [128.8998191, 37.7634749], [128.8997788, 37.7635065], [128.8997384, 37.7635382], [128.899698, 37.7635699], [128.8996614, 37.7636042], [128.899627, 37.76364], [128.8995926, 37.7636758], [128.8995582, 37.7637117], [128.8995237, 37.7637475], [128.8994893, 37.7637833], [128.8994549, 37.7638191], [128.8994205, 37.763855], [128.8993861, 37.7638908], [128.8993516, 37.7639266], [128.8993172, 37.7639625], [128.8992829, 37.7639983], [128.8992486, 37.7640342], [128.8992142, 37.7640701], [128.8991799, 37.764106], [128.8991456, 37.7641419], [128.8991113, 37.7641778]]}, "properties": {"rank": 2, "length_km": 2.37, "mean_dsi": 0.4404, "exposure": 1043.4, "n_stops": 7, "stops": ["KTX역버스승강장", "강릉농협(복편)경포고,안목방향", "강릉역", "교보생명", "성내동광장", "홈플러스"], "share_safe": 0.251, "share_caution": 0.56, "share_highrisk": 0.188}}, {"type": "Feature", "geometry": {"type": "LineString", "coordinates": [[128.8947705, 37.7478778], [128.8947248, 37.7479045], [128.8946876, 37.7479381], [128.8946533, 37.747974], [128.8946306, 37.7479977], [128.8946028, 37.7480365], [128.8945833, 37.7480788], [128.8945638, 37.7481211], [128.8945443, 37.7481634], [128.8945262, 37.748206], [128.8945193, 37.7482507], [128.8945124, 37.7482954], [128.8945056, 37.7483402], [128.8944987, 37.7483849], [128.8944919, 37.7484296], [128.8944938, 37.7484746], [128.8944958, 37.7485045], [128.8944987, 37.7485495], [128.8945016, 37.7485945], [128.894555, 37.7486096], [128.8946084, 37.7486249], [128.8946617, 37.7486404], [128.894715, 37.7486559], [128.8947683, 37.7486713], [128.8948216, 37.7486868], [128.8948751, 37.7487018], [128.8949301, 37.7487128], [128.8949851, 37.7487239], [128.8950401, 37.7487349], [128.8950951, 37.7487459], [128.8951502, 37.7487569], [128.8952052, 37.7487679], [128.8952602, 37.748779], [128.8953152, 37.74879], [128.8953703, 37.748801], [128.8954253, 37.748812], [128.8954803, 37.748823], [128.8955353, 37.748834], [128.8955904, 37.7488451], [128.8956454, 37.7488561], [128.8957004, 37.7488671], [128.8957554, 37.7488781], [128.8958104, 37.7488891], [128.8958655, 37.7489002], [128.8959205, 37.7489112], [128.8959755, 37.7489222], [128.8960305, 37.7489332], [128.8960856, 37.7489442], [128.8961406, 37.7489553], [128.8961956, 37.7489663], [128.8962506, 37.7489773], [128.8963056, 37.7489883], [128.8963607, 37.7489993], [128.8964157, 37.7490104], [128.8964707, 37.7490214], [128.8965257, 37.7490324], [128.8965787, 37.7490482], [128.8966089, 37.7490589], [128.8966606, 37.7490775], [128.8967126, 37.7490956], [128.896766, 37.7491107], [128.8968195, 37.7491258], [128.8968729, 37.7491409], [128.8969264, 37.7491559], [128.8969801, 37.7491705], [128.8970339, 37.749185], [128.8970876, 37.7491995], [128.897128, 37.7492105], [128.8971817, 37.749225], [128.8972354, 37.7492396], [128.8972891, 37.7492541], [128.8973429, 37.7492686], [128.8973966, 37.7492832], [128.8974503, 37.7492977], [128.897504, 37.7493123], [128.8975577, 37.7493268], [128.8976114, 37.7493413], [128.8976651, 37.7493559], [128.8977195, 37.7493687], [128.8977747, 37.7493791], [128.8978299, 37.7493896], [128.8978851, 37.7494], [128.8979402, 37.7494107], [128.8979952, 37.7494217], [128.8980503, 37.7494327], [128.8981059, 37.7494387], [128.8981626, 37.7494365], [128.8982193, 37.7494343], [128.898276, 37.7494324], [128.8983327, 37.7494307], [128.8983893, 37.7494292], [128.8984454, 37.749436], [128.8984769, 37.7494398], [128.8985301, 37.7494537], [128.8985812, 37.7494734], [128.8986283, 37.7494982], [128.8986739, 37.749525], [128.8987195, 37.7495518], [128.8987651, 37.7495786], [128.8988107, 37.7496054], [128.8988563, 37.7496322], [128.898902, 37.749659], [128.8989476, 37.7496858], [128.8989932, 37.7497126], [128.8990388, 37.7497394], [128.8990844, 37.7497662], [128.89913, 37.749793], [128.8991756, 37.7498199], [128.8992212, 37.7498467], [128.8992669, 37.7498735], [128.8993125, 37.7499003], [128.8993581, 37.7499271], [128.8994036, 37.749954], [128.8994492, 37.7499808], [128.8994947, 37.7500077], [128.8995403, 37.7500345], [128.8995859, 37.7500614], [128.8996315, 37.7500882], [128.8996771, 37.750115], [128.8997227, 37.7501419], [128.8997682, 37.7501687], [128.8998138, 37.7501956], [128.8998594, 37.7502224], [128.899905, 37.7502492], [128.8999278, 37.7502627], [128.8999734, 37.7502895], [128.9000194, 37.750316], [128.9000656, 37.7503421], [128.9001118, 37.7503682], [128.900158, 37.7503944], [128.9002043, 37.7504205], [128.9002397, 37.7504405], [128.9002859, 37.7504667], [128.9003321, 37.7504928], [128.9003783, 37.750519], [128.9004245, 37.7505451], [128.9004707, 37.7505713], [128.9005169, 37.7505975], [128.9005631, 37.7506236], [128.9006094, 37.7506498], [128.9006556, 37.7506759], [128.9007018, 37.7507021], [128.900748, 37.7507282], [128.9007833, 37.7507483], [128.9008295, 37.7507744], [128.9008757, 37.7508006], [128.9009219, 37.7508268], [128.9009681, 37.750853], [128.9010143, 37.7508792], [128.9010595, 37.7509064], [128.9011041, 37.7509342], [128.9011487, 37.7509621], [128.9011933, 37.7509899], [128.9012379, 37.7510177], [128.9012826, 37.7510456], [128.9013272, 37.7510734], [128.9013718, 37.7511012], [128.9014164, 37.7511291], [128.9014611, 37.7511569], [128.9015057, 37.7511848], [128.9015503, 37.7512126], [128.9015949, 37.7512404], [128.9016395, 37.7512683], [128.9016842, 37.7512961], [128.9017288, 37.7513239], [128.9017734, 37.7513518], [128.901818, 37.7513796], [128.9018627, 37.7514074], [128.9019074, 37.7514351], [128.9019521, 37.7514629], [128.9019966, 37.7514908], [128.9020378, 37.7515219], [128.9020789, 37.7515529], [128.90212, 37.7515839], [128.9021612, 37.751615], [128.9021727, 37.7516237], [128.902214, 37.7516546], [128.9022553, 37.7516855], [128.9022966, 37.7517164], [128.9023379, 37.7517473], [128.9023793, 37.7517781], [128.9024206, 37.751809], [128.9024605, 37.751841], [128.9024998, 37.7518735], [128.9025392, 37.751906], [128.9025785, 37.7519385], [128.9026178, 37.751971], [128.9026571, 37.7520035], [128.9026964, 37.752036], [128.9027357, 37.7520685], [128.902775, 37.752101], [128.9028143, 37.7521335], [128.9028536, 37.752166], [128.9028929, 37.7521985], [128.9029323, 37.752231], [128.9029716, 37.7522635], [128.9030109, 37.752296], [128.9030502, 37.7523285], [128.9030893, 37.7523611], [128.903128, 37.752394], [128.9031667, 37.752427], [128.9032055, 37.7524599], [128.9032442, 37.7524928], [128.9032829, 37.7525258], [128.9033133, 37.7525516], [128.9033521, 37.7525845], [128.9033908, 37.7526174], [128.9034295, 37.7526504], [128.9034683, 37.7526833], [128.903507, 37.7527162], [128.9035457, 37.7527492], [128.9035845, 37.7527821], [128.9036232, 37.752815], [128.9036619, 37.752848], [128.9037007, 37.7528809], [128.9037364, 37.7529157], [128.9037677, 37.7529533], [128.9037896, 37.7529825], [128.903741, 37.7530058], [128.9036922, 37.7530288], [128.9036434, 37.7530518], [128.9035948, 37.753075], [128.9035462, 37.7530982], [128.9034975, 37.7531214], [128.9034489, 37.7531447], [128.9034003, 37.7531679], [128.9033517, 37.7531911], [128.903303, 37.7532144], [128.9032544, 37.7532376], [128.9032058, 37.7532608], [128.9031572, 37.753284], [128.9031085, 37.7533073], [128.9030599, 37.7533305], [128.9030113, 37.7533537], [128.9029626, 37.7533769], [128.902914, 37.7534002], [128.9028654, 37.7534234], [128.9028167, 37.7534466], [128.9027681, 37.7534698], [128.9027194, 37.753493], [128.9026704, 37.7535156], [128.9026213, 37.7535383], [128.9025722, 37.7535609], [128.9025232, 37.7535835], [128.9024741, 37.7536062], [128.902425, 37.7536288], [128.9023761, 37.7536516], [128.9023272, 37.7536745], [128.9022783, 37.7536973], [128.9022294, 37.7537201], [128.9021804, 37.753743], [128.9021315, 37.7537659], [128.9020826, 37.7537887], [128.9020337, 37.7538116], [128.9019848, 37.7538344], [128.9019359, 37.7538573], [128.9019165, 37.7538664], [128.9019617, 37.7538937], [128.9020068, 37.753921], [128.9020485, 37.7539514], [128.9020882, 37.7539835], [128.902128, 37.7540157], [128.9021678, 37.7540478], [128.9022075, 37.75408], [128.9022473, 37.7541121], [128.9022871, 37.7541443], [128.9023268, 37.7541764], [128.9023641, 37.7542101], [128.9023938, 37.7542485], [128.9024236, 37.7542869], [128.9024533, 37.7543252], [128.9024831, 37.7543636], [128.9025128, 37.754402], [128.9025426, 37.7544403], [128.9025723, 37.7544787], [128.9026021, 37.7545171], [128.9026318, 37.7545555], [128.9026616, 37.7545938], [128.9026891, 37.7546332], [128.9027158, 37.754673], [128.9027426, 37.7547127], [128.9027759, 37.7547489], [128.9028121, 37.7547837], [128.9028517, 37.754816], [128.9028913, 37.7548482], [128.9029309, 37.7548805], [128.9029705, 37.7549128], [128.9030101, 37.754945], [128.9030497, 37.7549773], [128.9030893, 37.7550095], [128.903129, 37.7550418], [128.9031686, 37.7550741], [128.9032082, 37.7551063], [128.9032478, 37.7551386], [128.9032874, 37.7551709], [128.903327, 37.7552031], [128.9033666, 37.7552354], [128.9034057, 37.7552681], [128.9034446, 37.7553009], [128.9034835, 37.7553337], [128.9035224, 37.7553665], [128.9035613, 37.7553993], [128.9036002, 37.7554321], [128.9036391, 37.7554649], [128.903678, 37.7554977], [128.9037169, 37.7555305], [128.9037558, 37.7555633], [128.9037944, 37.7555964], [128.9038322, 37.75563], [128.9038701, 37.7556635], [128.9039079, 37.7556971], [128.9039458, 37.7557307], [128.9039836, 37.7557642], [128.9040215, 37.7557978], [128.9040596, 37.7558312], [128.9040978, 37.7558645], [128.9041361, 37.7558978], [128.9041743, 37.7559311], [128.9042126, 37.7559644], [128.9042508, 37.7559976], [128.9042891, 37.7560309], [128.9043273, 37.7560642], [128.9043662, 37.756097], [128.9044051, 37.7561299], [128.904444, 37.7561627], [128.9044828, 37.7561955], [128.9045217, 37.7562284], [128.9045615, 37.7562605], [128.9046027, 37.7562914], [128.904644, 37.7563223], [128.9046853, 37.7563532], [128.9047276, 37.7563833], [128.9047698, 37.7564134], [128.904812, 37.7564436], [128.9048542, 37.7564737], [128.9048964, 37.7565038], [128.9049386, 37.7565339], [128.9049787, 37.7565658], [128.9050185, 37.7565979], [128.9050583, 37.75663], [128.9050981, 37.7566622], [128.9051371, 37.7566948], [128.9051749, 37.7567284], [128.9052128, 37.756762], [128.9052506, 37.7567956], [128.9052884, 37.7568292], [128.9053262, 37.7568628], [128.905364, 37.7568964], [128.9054019, 37.75693], [128.9054397, 37.7569636], [128.9054775, 37.7569972], [128.9055153, 37.7570308], [128.9055514, 37.7570656], [128.9055874, 37.7571004], [128.9056234, 37.7571353], [128.9056594, 37.7571701], [128.9056954, 37.7572049], [128.9057314, 37.7572397], [128.9057677, 37.7572744], [128.9058045, 37.7573087], [128.9058413, 37.757343], [128.9058781, 37.7573773], [128.9059149, 37.7574116], [128.9059517, 37.7574459], [128.9059885, 37.7574802], [128.9060253, 37.7575145], [128.9060621, 37.7575488], [128.9060989, 37.7575831], [128.9061361, 37.7576171], [128.9061734, 37.7576511], [128.9062106, 37.7576851], [128.9062479, 37.757719], [128.9062852, 37.757753], [128.9063224, 37.757787], [128.9063597, 37.757821], [128.9063969, 37.757855], [128.9064342, 37.757889], [128.9064715, 37.757923], [128.9065087, 37.757957], [128.906546, 37.7579909], [128.9065832, 37.7580249], [128.9066206, 37.7580588], [128.9066584, 37.7580925], [128.9066959, 37.7581259], [128.9066497, 37.758152], [128.9066063, 37.7581807], [128.9065797, 37.7582001], [128.9065382, 37.7582309], [128.9064967, 37.7582616], [128.9064551, 37.7582923], [128.9064136, 37.758323], [128.9063721, 37.7583537], [128.9063305, 37.7583844], [128.906289, 37.7584151], [128.9062475, 37.7584458], [128.906206, 37.7584765], [128.9062036, 37.7584783], [128.9061623, 37.7585092], [128.906121, 37.7585402], [128.9061081, 37.75855], [128.9060676, 37.7585817], [128.9060272, 37.7586133], [128.9059868, 37.7586449], [128.9059463, 37.7586765], [128.9059059, 37.7587081], [128.9058655, 37.7587398], [128.9058251, 37.7587714], [128.9057847, 37.7588031], [128.9057443, 37.7588347], [128.9057398, 37.7588383], [128.9056993, 37.7588699], [128.9056588, 37.7589014], [128.9056183, 37.758933], [128.9055778, 37.7589645], [128.9055373, 37.7589961], [128.9054968, 37.7590276], [128.9054562, 37.7590592], [128.9054157, 37.7590907], [128.9054026, 37.7591009], [128.9053623, 37.7591325], [128.9053219, 37.7591642], [128.9052816, 37.7591959], [128.9052412, 37.7592276], [128.9052008, 37.7592592], [128.9051605, 37.7592909], [128.9051201, 37.7593226], [128.9050797, 37.7593543], [128.9050394, 37.7593859], [128.9050333, 37.7593907], [128.9049928, 37.7594222], [128.9049523, 37.7594538], [128.9049118, 37.7594854], [128.9048713, 37.7595169], [128.9048308, 37.7595485], [128.9047903, 37.7595801], [128.9047498, 37.7596116], [128.9047093, 37.7596432], [128.9046688, 37.7596748], [128.9046283, 37.7597063], [128.9045878, 37.7597379], [128.9045474, 37.7597695], [128.9045069, 37.7598011], [128.9044664, 37.7598327], [128.904426, 37.7598643], [128.9043855, 37.7598959], [128.904345, 37.7599275], [128.9043046, 37.7599591], [128.9042641, 37.7599907], [128.9042236, 37.7600223], [128.9041832, 37.7600539], [128.9041428, 37.7600855], [128.9041411, 37.7600868], [128.9041007, 37.7601184], [128.9040602, 37.76015], [128.9040198, 37.7601816], [128.9039793, 37.7602133], [128.9039389, 37.7602449], [128.9038984, 37.7602765], [128.903858, 37.7603081], [128.9038175, 37.7603397], [128.9038158, 37.7603411], [128.9037753, 37.7603727], [128.9037349, 37.7604043], [128.9036944, 37.7604359], [128.903654, 37.7604675], [128.9036135, 37.7604991], [128.9035731, 37.7605307], [128.9035326, 37.7605623], [128.9034921, 37.7605939], [128.9034516, 37.7606254], [128.9034111, 37.760657], [128.9033706, 37.7606886], [128.9033301, 37.7607202], [128.9032896, 37.7607517], [128.9032491, 37.7607833], [128.9032087, 37.7608149], [128.903191, 37.7608288], [128.9031508, 37.7608606], [128.9031106, 37.7608924], [128.9030705, 37.7609243], [128.9030303, 37.7609561], [128.9029901, 37.7609879], [128.9029499, 37.7610197], [128.9029098, 37.7610516], [128.9028696, 37.7610834], [128.9028294, 37.7611152], [128.902822, 37.7611211], [128.9027817, 37.7611529], [128.9027414, 37.7611846], [128.9027011, 37.7612164], [128.9026609, 37.7612481], [128.9026206, 37.7612799], [128.9025803, 37.7613116], [128.90254, 37.7613433], [128.9024997, 37.7613751], [128.9024594, 37.7614068], [128.9024192, 37.7614386], [128.9023788, 37.7614703], [128.9023383, 37.7615018], [128.9022978, 37.7615333], [128.9022572, 37.7615649], [128.9022167, 37.7615964], [128.9021762, 37.7616279], [128.9021356, 37.7616595], [128.9020951, 37.761691], [128.902071, 37.7617098], [128.9020688, 37.7617115], [128.9020283, 37.7617431], [128.9019879, 37.7617747], [128.9019474, 37.7618063], [128.901907, 37.761838], [128.9018666, 37.7618696], [128.9018261, 37.7619012], [128.9017857, 37.7619328], [128.9017452, 37.7619644], [128.9017048, 37.761996], [128.9016643, 37.7620276], [128.9016239, 37.7620592], [128.9015834, 37.7620908], [128.901543, 37.7621224], [128.9015025, 37.7621541], [128.9014774, 37.7621737], [128.9014763, 37.7621746], [128.9014358, 37.7622061], [128.9013953, 37.7622377], [128.9013548, 37.7622693], [128.9013144, 37.7623009], [128.9012739, 37.7623324], [128.9012334, 37.762364], [128.9011929, 37.7623956], [128.9011524, 37.7624272], [128.9011119, 37.7624587], [128.9010717, 37.7624906], [128.9010316, 37.7625224], [128.9009914, 37.7625542], [128.9009512, 37.762586], [128.900911, 37.7626179], [128.9008707, 37.7626496], [128.9008303, 37.7626812], [128.90079, 37.7627129], [128.9007496, 37.7627446], [128.9007092, 37.7627763], [128.9006689, 37.7628079], [128.9006285, 37.7628396], [128.9005881, 37.7628713], [128.9005603, 37.7628932], [128.9005478, 37.7629029], [128.9005075, 37.7629346], [128.9004671, 37.7629663], [128.9004268, 37.762998], [128.9003864, 37.7630296], [128.900346, 37.7630613], [128.9003057, 37.763093], [128.9002653, 37.7631247], [128.9002249, 37.7631563], [128.9001846, 37.763188], [128.9001442, 37.7632197], [128.9001039, 37.7632514], [128.9000635, 37.7632831], [128.9000231, 37.7633147], [128.8999828, 37.7633464], [128.8999424, 37.7633781], [128.899902, 37.7634098], [128.8998617, 37.7634414], [128.8998213, 37.7634731], [128.8998191, 37.7634748], [128.8998191, 37.7634749], [128.8997788, 37.7635065], [128.8997384, 37.7635382], [128.899698, 37.7635699], [128.8996614, 37.7636042], [128.899627, 37.76364], [128.8995926, 37.7636758], [128.8995582, 37.7637117], [128.8995237, 37.7637475], [128.8994893, 37.7637833], [128.8994549, 37.7638191], [128.8994205, 37.763855], [128.8993861, 37.7638908], [128.8993516, 37.7639266], [128.8993172, 37.7639625], [128.8992829, 37.7639983], [128.8992486, 37.7640342], [128.8992142, 37.7640701], [128.8991799, 37.764106], [128.8991456, 37.7641419], [128.8991113, 37.7641778]]}, "properties": {"rank": 3, "length_km": 2.84, "mean_dsi": 0.4543, "exposure": 1290.4, "n_stops": 11, "stops": ["KTX역버스승강장", "강릉여고정문", "강릉역", "남산교차로", "소방서", "신화아파트", "양우내안에아파트", "자동차백화점", "잠수교"], "share_safe": 0.32, "share_caution": 0.477, "share_highrisk": 0.203}}], "meta": {"version": "danoje_2026", "alpha": 0.35, "from": "강릉단오제전수교육관", "to": "강릉역", "access_m": {"강릉단오제전수교육관": 42, "강릉역": 62}, "objective": "최단거리의 1.8 배 이내에서 길이가중 평균 DSI 최소", "shortest_km": 2.36, "detour_max": 1.8, "match_m": 10.0, "stop_m": 30.0}}